Bezirksregierung,Kreis/Stadt,Schulform,Schulnummer,Schulname,Sozialindex,latitude,longitude,found_address
Arnsberg,Ennepe-Ruhr-Kreis,Gesamtschule,100153,"Witten, GE Otto-Schott-Gesamtschule",5,51.4375279,7.3728035,"Holzkamp-Gesamtschule, Holzkampstraße, Annen, Witten, Ennepe-Ruhr-Kreis, Nordrhein-Westfalen, 58453, Deutschland"
Arnsberg,Ennepe-Ruhr-Kreis,Gesamtschule,188141,"Witten, GE Holzkamp",4,51.4380217,7.3735305,"Holzkamp-Gesamtschule, 2, Willy-Brandt-Straße, Annen, Witten, Ennepe-Ruhr-Kreis, Nordrhein-Westfalen, 58453, Deutschland"
Arnsberg,Ennepe-Ruhr-Kreis,Gesamtschule,188153,"Witten, GE Hardenstein",3,51.415329,7.2788103,"Hardenstein-Gesamtschule, 4, An der Wabeck, Westherbede, Herbede, Witten, Ennepe-Ruhr-Kreis, Nordrhein-Westfalen, 58456, Deutschland"
Arnsberg,Ennepe-Ruhr-Kreis,Gesamtschule,189558,"Sprockhövel, GE Wilhelm-Kraft",4,51.3336537,7.2850932,"Wilhelm-Kraft-Gesamtschule, Oststraße, Haßlinghausen, Sprockhövel, Ennepe-Ruhr-Kreis, Nordrhein-Westfalen, 45549, Deutschland"
Arnsberg,Ennepe-Ruhr-Kreis,Gesamtschule,190007,"Hattingen, GE Marxstr.",3,51.4090992,7.2180531,"Gesamtschule Hattingen, Marxstraße, Hüttenau, Blankenstein, Hattingen, Ennepe-Ruhr-Kreis, Nordrhein-Westfalen, 45527, Deutschland"
Arnsberg,Ennepe-Ruhr-Kreis,Gymnasium,169717,"Witten, Gym Schiller",2,51.439954,7.3343683,"Schiller-Gymnasium, Schultenhofstraße, Wiesenviertel, Witten-Mitte, Witten, Ennepe-Ruhr-Kreis, Nordrhein-Westfalen, 58452, Deutschland"
Arnsberg,Ennepe-Ruhr-Kreis,Gymnasium,169729,"Witten, Gym Ruhr",2,51.4419295,7.3316855,"Ruhr-Gymnasium, Synagogenstraße, Breddeviertel, Witten-Mitte, Witten, Ennepe-Ruhr-Kreis, Nordrhein-Westfalen, 58452, Deutschland"
Arnsberg,Ennepe-Ruhr-Kreis,Gymnasium,169730,"Witten, Gym Albert-Martmöller",2,51.4392993,7.3403761,"Albert-Martmöller-Gymnasium, Markmannstraße, Johannisviertel, Witten-Mitte, Witten, Ennepe-Ruhr-Kreis, Nordrhein-Westfalen, 58452, Deutschland"
Arnsberg,Ennepe-Ruhr-Kreis,Gymnasium,169950,"Ennepetal, Gym Reichenbach",3,51.3012332,7.3580968,"Reichenbach-Gymnasium, Peddinghausstraße, Esbecke, Homberge, Ennepetal, Ennepe-Ruhr-Kreis, Nordrhein-Westfalen, 58256, Deutschland"
Arnsberg,Ennepe-Ruhr-Kreis,Gymnasium,169961,"Gevelsberg, Gym Gevelsberg",2,51.324017,7.316541,"Hasencleverschule - Städtische Förderschule Gevelsberg, 12, Am Hofe, Frielinghausen, Gevelsberg, Ennepe-Ruhr-Kreis, Nordrhein-Westfalen, 58285, Deutschland"
Arnsberg,Ennepe-Ruhr-Kreis,Gymnasium,169973,"Hattingen, Gym Schulzentrum Holthausen",2,51.3971013,7.2053177,"Gymnasium im Schulzentrum Holthausen, 2, Lindstockstraße, Obereichholz, Hattingen, Ennepe-Ruhr-Kreis, Nordrhein-Westfalen, 45527, Deutschland"
Arnsberg,Ennepe-Ruhr-Kreis,Gymnasium,169985,"Hattingen, Gym Waldstraße",3,51.3913767,7.1891307,"Gymnasium Waldstraße, Pilgerweg, Rosental, Hattingen, Ennepe-Ruhr-Kreis, Nordrhein-Westfalen, 45525, Deutschland"
Arnsberg,Ennepe-Ruhr-Kreis,Gymnasium,169997,"Herdecke, Gym Friedrich-Harkort-Schule",1,51.3957167,7.4403404,"Friedrich-Harkort Schule, Hengsteyseestraße, Sonnenstein, Herdecke, Ennepe-Ruhr-Kreis, Nordrhein-Westfalen, 58313, Deutschland"
Arnsberg,Ennepe-Ruhr-Kreis,Gymnasium,170008,"Schwelm, Gym Märkisches",3,51.2810783,7.2870271,"Märkisches Gymnasium Schwelm, 1, Präsidentenstraße, Schwelm, Ennepe-Ruhr-Kreis, Nordrhein-Westfalen, 58332, Deutschland"
Arnsberg,Ennepe-Ruhr-Kreis,Gymnasium,170010,"Wetter, Gym Geschwister-Scholl",1,51.3857535,7.3761965,"Geschwister - Scholl-Gymnasium, Haus Hove, Oberwengern, Volmarstein, Wetter (Ruhr), Ennepe-Ruhr-Kreis, Nordrhein-Westfalen, 58300, Deutschland"
Arnsberg,Hochsauerlandkreis,Gymnasium,169833,"Arnsberg, Gym Laurentianum",3,51.3916026,8.06552,"Gymnasium Laurentianum, 26, Klosterstraße, Arnsberg, Hochsauerlandkreis, Nordrhein-Westfalen, 59821, Deutschland"
Arnsberg,Hochsauerlandkreis,Gymnasium,169894,"Sundern, Gym Berliner Str.",1,51.3207278,7.9999449,"Städtisches Gymnasium Sundern, 55, Berliner Straße, Sundern, Hochsauerlandkreis, Nordrhein-Westfalen, 59846, Deutschland"
Arnsberg,Hochsauerlandkreis,Gymnasium,169912,"Brilon, Gym Petrinum",1,51.3932122,8.5510777,"Gymnasium Petrinum, 21, Zur Jakobuslinde, Brilon (Kernstadt), Brilon, Hochsauerlandkreis, Nordrhein-Westfalen, 59929, Deutschland"
Arnsberg,Hochsauerlandkreis,Gymnasium,169924,"Winterberg, Gym Geschwister-Scholl",1,51.1886615,8.52701,"Geschwister Scholl-Gymnasium der Stadt Winterberg, Gartenstraße, Winterberg, Hochsauerlandkreis, Nordrhein-Westfalen, 59955, Deutschland"
Arnsberg,Hochsauerlandkreis,Gymnasium,169948,"Marsberg, Gym Carolus-Magnus",1,51.4645943,8.8528706,"Carolus-Magnus-Gymnasium, Mönchstraße, Niedermarsberg, Marsberg, Hochsauerlandkreis, Nordrhein-Westfalen, 34431, Deutschland"
Arnsberg,Hochsauerlandkreis,Gymnasium,170197,"Meschede, Gym Schederweg",2,51.3411288,8.2976941,"Gymnasium der Stadt Meschede, 65, Schederweg, Heinrichsthal, Meschede, Hochsauerlandkreis, Nordrhein-Westfalen, 59872, Deutschland"
Arnsberg,Hochsauerlandkreis,Gymnasium,170215,"Schmallenberg, Gym Obringhauser Straße",1,51.1541617,8.2846242,"Obringhauser Straße, Schmallenberg, Hochsauerlandkreis, Nordrhein-Westfalen, 57392, Deutschland"
Arnsberg,Hochsauerlandkreis,Gymnasium,194670,"Arnsberg, Gym Franz-Stock",2,51.4366195,7.9676658,"Franz-Stock-Gymnasium, Berliner Platz, Rumbecker Holz, Hüsten, Arnsberg, Hochsauerlandkreis, Nordrhein-Westfalen, 59759, Deutschland"
Arnsberg,Kreis Olpe,Gesamtschule,197142,"Finnentrop, GE Bigge-Lenne",3,51.1712933,7.9729871,"Bigge-Lenne Gesamtschule, 22-24, Kopernikusstraße, Finnentrop, Kreis Olpe, Nordrhein-Westfalen, 57413, Deutschland"
Arnsberg,Kreis Olpe,Gesamtschule,198006,"Wenden, GE Peter-Dassis-Ring",2,50.9737524,7.8704253,"Peter-Dassis-Ring, Wenden, Kreis Olpe, Nordrhein-Westfalen, 57482, Deutschland"
Arnsberg,Kreis Olpe,Gymnasium,170239,"Attendorn, Gym Rivius",2,51.1274418,7.9001014,"Rivius-Gymnasium, Westwall, Attendorn, Kreis Olpe, Nordrhein-Westfalen, 57439, Deutschland"
Arnsberg,Kreis Olpe,Gymnasium,170240,"Lennestadt, Gym Am Biertappen",2,51.1036799,8.0693883,"Am Biertappen, Altenhundem, Lennestadt, Kreis Olpe, Nordrhein-Westfalen, 57368, Deutschland"
Arnsberg,Kreis Olpe,Gymnasium,170276,"Olpe, Gym Seminarstr.",1,51.0332143,7.8464556,"Städtisches Gymnasium Olpe, Seminarstraße, Olpe, Kreis Olpe, Nordrhein-Westfalen, 57462, Deutschland"
Arnsberg,Kreis Siegen-Wittgenstein,Gesamtschule,100175,"Siegen, GE Am Rosterberg",6,,,
Arnsberg,Kreis Siegen-Wittgenstein,Gesamtschule,190019,"Siegen, GE Bertha-v.-Suttner-Gesamtschul",5,,,
Arnsberg,Kreis Siegen-Wittgenstein,Gesamtschule,191036,"Siegen, GE Eiserfeld",3,50.8334725,7.9981895,"Gesamtschule Eiserfeld, Talsbachstraße, Wiedthal, Eiserfeld, Siegen, Kreis Siegen-Wittgenstein, Nordrhein-Westfalen, 57080, Deutschland"
Arnsberg,Kreis Siegen-Wittgenstein,Gesamtschule,191826,"Kreuztal, GE Clara-Schumann-Schule",5,50.9631562,7.9950428,"Clara-Schumann-Gesamtschule, 2, Djurslandweg, Kreuztal, Fellinghausen, Kreuztal, Kreis Siegen-Wittgenstein, Nordrhein-Westfalen, 57223, Deutschland"
Arnsberg,Kreis Siegen-Wittgenstein,Gesamtschule,198110,"Freudenberg, GE Esther-Bejarano",2,50.9090231,7.8846609,"Esther-Bejarano-Gesamtschule Freudenberg + Turnhalle (Gebäudeteil C), 5 - 9, Hermann-Vomhof-Straße, Eichen, Büschergrund, Freudenberg, Kreis Siegen-Wittgenstein, Nordrhein-Westfalen, 57258, Deutschland"
Arnsberg,Kreis Siegen-Wittgenstein,Gesamtschule,199813,"Siegen, GE Auf dem Schießberg",6,50.908701,7.9930565,"Gesamtschule auf dem Schießberg, Schießbergstraße, Geisweid, Siegen, Kreis Siegen-Wittgenstein, Nordrhein-Westfalen, 57078, Deutschland"
Arnsberg,Kreis Siegen-Wittgenstein,Gymnasium,170306,"Siegen, Gym Auf der Morgenröthe",2,50.8481688,7.982364,"Gymnasium auf der Morgenröthe; Realschule Am Hengsberg, 100, Höllenwaldstraße, Niederschelden, Siegen, Kreis Siegen-Wittgenstein, Nordrhein-Westfalen, 57080, Deutschland"
Arnsberg,Kreis Siegen-Wittgenstein,Gymnasium,170320,"Siegen, Gym Fürst-Johann-Moritz",3,50.9032681,8.0184742,"Fürst-Johann-Moritz-Gymnasium, Hüttentalstraße, Weidenau, Siegen, Kreis Siegen-Wittgenstein, Nordrhein-Westfalen, 57076, Deutschland"
Arnsberg,Kreis Siegen-Wittgenstein,Gymnasium,170331,"Siegen, Gym Am Löhrtor",2,50.87178,8.0209917,"Gymnasium am Löhrtor, 27, Oranienstraße, Siegen, Kreis Siegen-Wittgenstein, Nordrhein-Westfalen, 57072, Deutschland"
Arnsberg,Kreis Siegen-Wittgenstein,Gymnasium,170343,"Siegen, Gym Peter-Paul-Rubens",6,50.8617825,8.0192891,"Peter-Paul-Rubens-Gymnasium, Ganztagsgymnasium der Stadt Siegen, 143, Rosterstraße, Siegen, Kreis Siegen-Wittgenstein, Nordrhein-Westfalen, 57074, Deutschland"
Arnsberg,Kreis Siegen-Wittgenstein,Gymnasium,170367,"Kreuztal, Gym Zum Erbstollen",2,50.9631658,7.9958847,"Städtisches Gymnasium Kreuztal, 5, Zum Erbstollen, Kreuztal, Fellinghausen, Kreuztal, Kreis Siegen-Wittgenstein, Nordrhein-Westfalen, 57223, Deutschland"
Arnsberg,Kreis Siegen-Wittgenstein,Gymnasium,170379,"Neunkirchen, Gym Dietrich-Bonhoeffer",1,50.7886314,8.0115193,"Dietrich-Bonhoeffer-Gymnasium, 100, Kopernikusring, Zeppenfeld, Neunkirchen, Kreis Siegen-Wittgenstein, Nordrhein-Westfalen, 57290, Deutschland"
Arnsberg,Kreis Siegen-Wittgenstein,Gymnasium,170483,"Bad Berleburg, Gym Johannes-Althusius",1,51.0497112,8.3915755,"Johannes-Althusius-Gymnasium, 11, Im Herrengarten, Oberstadt, Bad Berleburg, Kreis Siegen-Wittgenstein, Nordrhein-Westfalen, 57319, Deutschland"
Arnsberg,Kreis Siegen-Wittgenstein,Gymnasium,170501,"Bad Laasphe, Gym Steinackerstr.",2,50.928181,8.4101171,"Steinackerstraße, Bad Laasphe, Kreis Siegen-Wittgenstein, Nordrhein-Westfalen, 57334, Deutschland"
Arnsberg,Kreis Siegen-Wittgenstein,Gymnasium,190615,"Netphen, Gym Haardtstraße",1,,,
Arnsberg,Kreis Siegen-Wittgenstein,Gymnasium,190639,"Wilnsdorf, Gym Hoheroth",1,50.8232309,8.118357,"Gymnasium Wilnsdorf, 94, Hoheroth, Wilnsdorf, Kreis Siegen-Wittgenstein, Nordrhein-Westfalen, 57234, Deutschland"
Arnsberg,Kreis Soest,Gesamtschule,192776,"Soest, GE Hannah-Arendt",4,51.5582155,8.1066055,"Hannah-Arendt-Gesamtschule, 1, Wilhelm-von-Holland-Weg, Soest, Kreis Soest, Nordrhein-Westfalen, 59494, Deutschland"
Arnsberg,Kreis Soest,Gesamtschule,195960,"Lippstadt, GE Ulmenstraße",3,51.6642971,8.3324712,"Städt. Gesamtschule Lippstadt, 31, Ulmenstraße, Lippstadt, Kreis Soest, Nordrhein-Westfalen, 59557, Deutschland"
Arnsberg,Kreis Soest,Gesamtschule,199801,"Lippetal, GE Lippetalschule",1,51.6645551,8.1471434,"Lippetalschule, 14, Alte Dorfstraße, Herzfeld, Lippetal, Kreis Soest, Nordrhein-Westfalen, 59510, Deutschland"
Arnsberg,Kreis Soest,Gymnasium,169900,"Warstein, Gym Europa-Gymnasium",2,51.4540754,8.3493607,"Europa-Gymnasium Warstein, 9, Schorenweg, Warstein-Ortschaft, Warstein, Kreis Soest, Nordrhein-Westfalen, 59581, Deutschland"
Arnsberg,Kreis Soest,Gymnasium,170112,"Geseke, Gym Antonianum",1,51.6408706,8.51294,"Gymnasium Antonianum Geseke, 1, Wichburgastraße, Geseke, Kreis Soest, Nordrhein-Westfalen, 59590, Deutschland"
Arnsberg,Kreis Soest,Gymnasium,170148,"Lippstadt, Gym Europaschule Ostendorf",3,51.6768503,8.3397178,"Europaschule Ostendorf Gymnasium, Friedrichstraße, Lippstadt, Kreis Soest, Nordrhein-Westfalen, 59555, Deutschland"
Arnsberg,Kreis Soest,Gymnasium,170150,"Erwitte, Gym Glasmerweg",2,51.6141631,8.3157888,"Glasmerweg, Stirpe, Erwitte, Kreis Soest, Nordrhein-Westfalen, 59597, Deutschland"
Arnsberg,Kreis Soest,Gymnasium,170173,"Rüthen, Gym Friedrich-Spee",1,51.4941632,8.4371522,"Friedrich-Spee-Gymnasium, 8, Lippstädter Straße, Rüthen, Kreis Soest, Nordrhein-Westfalen, 59602, Deutschland"
Arnsberg,Kreis Soest,Gymnasium,170380,"Soest, Gym Europaschule Aldegrever",2,,,
Arnsberg,Kreis Soest,Gymnasium,170392,"Soest, Gym Conrad-von-Soest",1,51.5700327,8.0820636,"Conrad-von-Soest-Gymnasium, Paradieser Weg, Ardey, Soest, Kreis Soest, Nordrhein-Westfalen, 59494, Deutschland"
Arnsberg,Kreis Soest,Gymnasium,170409,"Soest, Gym Archi",1,,,
Arnsberg,Kreis Soest,Gymnasium,170410,"Werl, Gym Marien",2,,,
Arnsberg,Kreis Unna,Gesamtschule,164290,"Fröndenberg/Ruhr, GE Im Wiesengrund",3,,,
Arnsberg,Kreis Unna,Gesamtschule,188517,"Lünen, GE Geschwister-Scholl-Schule",4,51.61,7.5218029,"Geschwister-Scholl-Gesamtschule, 2-6, Holtgrevenstraße, Geistviertel, Lünen, Kreis Unna, Nordrhein-Westfalen, 44532, Deutschland"
Arnsberg,Kreis Unna,Gesamtschule,189133,"Unna, GE Peter-Weiss",4,51.5329899,7.6954612,"Peter-Weiss-Gesamtschule, 16, Herderstraße, Unna, Kreis Unna, Nordrhein-Westfalen, 59423, Deutschland"
Arnsberg,Kreis Unna,Gesamtschule,190032,"Bergkamen, GE Willy-Brandt-Gesamtschule",5,51.6233971,7.649734,"Willy-Brandt-Gesamtschule, Albert-Schweitzer-Straße, Overberge, Bergkamen, Kreis Unna, Nordrhein-Westfalen, 59192, Deutschland"
Arnsberg,Kreis Unna,Gesamtschule,190986,"Lünen, GE Käthe-Kollwitz",5,51.5891864,7.5208927,"Käthe-Kollwitz-Gesamtschule, 8, Dammwiese, Lünen-Süd, Lünen, Kreis Unna, Nordrhein-Westfalen, 44532, Deutschland"
Arnsberg,Kreis Unna,Gesamtschule,191190,"Schwerte, GE Gänsewinkel",3,51.4475831,7.591661,"Im Gänsewinkel, Schwerte, Kreis Unna, Nordrhein-Westfalen, 58239, Deutschland"
Arnsberg,Kreis Unna,Gesamtschule,191231,"Unna, GE Werner-von-Siemens",4,51.4742852,7.7975661,"Werner-von-Siemens-Straße, Westick, Fröndenberg/Ruhr, Kreis Unna, Nordrhein-Westfalen, 58730, Deutschland"
Arnsberg,Kreis Unna,Gesamtschule,194487,"Kamen, GE Gutenbergstraße",4,51.5882074,7.6773861,"Fridtjof Nansen Realschule/Gesamtschule Kamen, 2, Gutenbergstraße, Südkamen, Kamen, Kreis Unna, Nordrhein-Westfalen, 59174, Deutschland"
Arnsberg,Kreis Unna,Gesamtschule,199825,"Schwerte, GE Theodor-Fleitmann",5,51.4450036,7.5542034,"Theodor-Fleitmann-Gesamtschule, Im Bohlgarten, Holzen-Rosen, Schwerte, Kreis Unna, Nordrhein-Westfalen, 58239, Deutschland"
Arnsberg,Kreis Unna,Gymnasium,168178,"Werne, Gym Anne-Frank",2,51.670293,7.6178101,"Anne-Frank-Gymnasium, Goetheweg, Werne, Kreis Unna, Nordrhein-Westfalen, 59368, Deutschland"
Arnsberg,Kreis Unna,Gymnasium,168180,"Lünen, Gym Altlünen",3,51.6333645,7.5204879,"Städtische Realschule Altlünen, Rudolph-Nagell-Straße, Nordlünen, Lünen, Kreis Unna, Nordrhein-Westfalen, 44534, Deutschland"
Arnsberg,Kreis Unna,Gymnasium,169663,"Lünen, Gym Freiherr-vom-Stein",3,51.6105164,7.5159813,"Freiherr-vom-Stein-Gymnasium, Friedenstraße, Geistviertel, Lünen, Kreis Unna, Nordrhein-Westfalen, 44532, Deutschland"
Arnsberg,Kreis Unna,Gymnasium,170070,"Schwerte, Gym Friedrich-Bährens",2,51.4458842,7.5728925,"Friedrich Bährens Gymnasium, Ostberger Straße, Villigst, Schwerte, Kreis Unna, Nordrhein-Westfalen, 58239, Deutschland"
Arnsberg,Kreis Unna,Gymnasium,170082,"Schwerte, Gym Ruhrtal",2,51.4433461,7.5705202,"Ruhrtal-Gymnasium Schwerte, 6, Wittekindstraße, Wandhofen, Schwerte, Kreis Unna, Nordrhein-Westfalen, 58239, Deutschland"
Arnsberg,Kreis Unna,Gymnasium,170434,"Kamen, Gym Hammer Str.",2,51.5955735,7.6670089,"Städtisches Gymnasium Kamen, 19, Hammer Straße, Kamen-Mitte, Kamen, Kreis Unna, Nordrhein-Westfalen, 59174, Deutschland"
Arnsberg,Kreis Unna,Gymnasium,170446,"Unna, Gym Geschwister-Scholl",3,51.61,7.5218029,"Geschwister-Scholl-Gesamtschule, 2-6, Holtgrevenstraße, Geistviertel, Lünen, Kreis Unna, Nordrhein-Westfalen, 44532, Deutschland"
Arnsberg,Kreis Unna,Gymnasium,170458,"Unna, Gym Ernst-Barlach",1,51.5305429,7.6947257,"Ernst-Barlach-Gymnasium, Pestalozzistraße, Unna, Kreis Unna, Nordrhein-Westfalen, 59423, Deutschland"
Arnsberg,Kreis Unna,Gymnasium,170460,"Unna, Gym Pestalozzi",2,51.5347132,7.6990025,"Pestalozzi-Gymasium (PGU), 47, Morgenstraße, Unna, Kreis Unna, Nordrhein-Westfalen, 59423, Deutschland"
Arnsberg,Kreis Unna,Gymnasium,170471,"Bergkamen, Gym Hubert-Biernat-Str.",3,51.6159332,7.6232685,"Städtisches Gymnasium Bergkamen, Hubert-Biernat-Straße, Bergkamen, Kreis Unna, Nordrhein-Westfalen, 59192, Deutschland"
Arnsberg,Kreis Unna,Gymnasium,190275,"Selm, Gym Campus",3,51.6966239,7.4644878,"Campus, Beifang, Selm, Kreis Unna, Nordrhein-Westfalen, 59379, Deutschland"
Arnsberg,Kreis Unna,Gymnasium,192168,"Holzwickede, Gym Clara-Schumann",2,51.4964018,7.6251038,"Clara-Schumann-Gymnasium, Im Bruch, Hengsen, Holzwickede, Kreis Unna, Nordrhein-Westfalen, 59439, Deutschland"
Arnsberg,Kreis Unna,Gymnasium,194130,"Bönen, Gym Marie-Curie",2,51.6028938,7.7644572,"Marie-Curie-Gymnasium, 5, Billy-Montigny-Platz, Alt-Bönen, Bönen, Kreis Unna, Nordrhein-Westfalen, 59199, Deutschland"
Arnsberg,Märkischen Kreis,Gesamtschule,164276,"Kierspe, GE Otto-Ruhe-Str.",3,51.1286916,7.5953488,"Otto-Ruhe-Straße, Höferhof, Kierspe-Dorf, Kierspe, Märkischer Kreis, Nordrhein-Westfalen, 58566, Deutschland"
Arnsberg,Märkischen Kreis,Gesamtschule,189560,"Lüdenscheid, GE Adolf-Reichwein",7,51.2341565,7.6267411,"Adolf-Reichwein-Gesamtschule, 2, Eulenweg, Wehberg, Lüdenscheid, Märkischer Kreis, Nordrhein-Westfalen, 58507, Deutschland"
Arnsberg,Märkischen Kreis,Gesamtschule,189571,"Iserlohn, GE Iserlohn",5,51.3894464,7.7003282,"Märkisches Gymnasium Iserlohn, Schulhof Schulzentrum, Iserlohner Heide, Nußberg, Iserlohn, Märkischer Kreis, Nordrhein-Westfalen, 58636, Deutschland"
Arnsberg,Märkischen Kreis,Gesamtschule,190676,"Werdohl, GE Albert-Einstein",4,,,
Arnsberg,Märkischen Kreis,Gesamtschule,195704,"Hemer, GE Europaschule am Friedenspark",3,,,
Arnsberg,Märkischen Kreis,Gesamtschule,197312,"Menden, GE Windthorststraße",4,51.4305634,7.7931116,"Gesamtschule Menden, 3, Windthorststraße, Menden (Sauerland), Märkischer Kreis, Nordrhein-Westfalen, 58706, Deutschland"
Arnsberg,Märkischen Kreis,Gesamtschule,199436,"Iserlohn, GE Seilersee",4,51.3841047,7.7185328,"Gesamtschule Seilersee, Reiterweg, Iserlohn, Märkischer Kreis, Nordrhein-Westfalen, 58636, Deutschland"
Arnsberg,Märkischen Kreis,Gymnasium,169638,"Iserlohn, Gym Märkisches",2,51.3894464,7.7003282,"Märkisches Gymnasium Iserlohn, Schulhof Schulzentrum, Iserlohner Heide, Nußberg, Iserlohn, Märkischer Kreis, Nordrhein-Westfalen, 58636, Deutschland"
Arnsberg,Märkischen Kreis,Gymnasium,169640,"Iserlohn, Gym An der Stenner",4,51.3781245,7.6974884,"Gymnasium An der Stenner, Gartenstraße, Nußberg, Iserlohn, Märkischer Kreis, Nordrhein-Westfalen, 58636, Deutschland"
Arnsberg,Märkischen Kreis,Gymnasium,169754,"Altena, Gym Burggymnasium",3,51.2985074,7.6696324,"Burggymnasium Altena, 10, Bismarckstraße, Mühlendorf, Altena, Märkischer Kreis, Nordrhein-Westfalen, 58762, Deutschland"
Arnsberg,Märkischen Kreis,Gymnasium,169766,"Plettenberg, Gym Albert-Schweitzer",2,51.2319909,7.8562828,"Albert-Schweitzer-Gymnasium, 2, Albert-Schweitzer-Straße, Böddinghausen, Ohle, Plettenberg, Märkischer Kreis, Nordrhein-Westfalen, 58840, Deutschland"
Arnsberg,Märkischen Kreis,Gymnasium,169778,"Halver, Gym Anne-Frank",2,51.1839104,7.4914442,"Anne-Frank-Gymnasium, Kantstraße, Neuemühle, Halver, Märkischer Kreis, Nordrhein-Westfalen, 58553, Deutschland"
Arnsberg,Märkischen Kreis,Gymnasium,169780,"Lüdenscheid, Gym Bergstadt",3,51.2203789,7.6453725,"Bergstadt-Gymnasium, 5, Saarlandstraße, Honsel, Lüdenscheid, Märkischer Kreis, Nordrhein-Westfalen, 58511, Deutschland"
Arnsberg,Märkischen Kreis,Gymnasium,169791,"Lüdenscheid, Gym Geschwister-Scholl",3,51.2131061,7.6347996,"Geschwister-Scholl-Gymnasium, 27-29, Hochstraße, Staberg, Lüdenscheid, Märkischer Kreis, Nordrhein-Westfalen, 58511, Deutschland"
Arnsberg,Märkischen Kreis,Gymnasium,169808,"Lüdenscheid, Gym Zeppelin-Gymnasium",4,51.212941,7.6361712,"Zeppelin-Gymnasium, 10, Staberger Straße, Staberg, Lüdenscheid, Märkischer Kreis, Nordrhein-Westfalen, 58511, Deutschland"
Arnsberg,Märkischen Kreis,Gymnasium,170033,"Iserlohn, Gym Letmathe",1,51.3654894,7.6163087,"Realschule Letmathe (Zweitgebäude), 2, Reinickendorfer Straße, Letmathe, Iserlohn, Märkischer Kreis, Nordrhein-Westfalen, 58642, Deutschland"
Arnsberg,Märkischen Kreis,Gymnasium,170094,"Hemer, Gym Friedrich-Leopold-Woeste",2,51.3850372,7.7563161,"Friedrich-Leopold-Woeste-Gymnasium, Feldstraße, Niederhemer, Höcklingsen, Hemer, Märkischer Kreis, Nordrhein-Westfalen, 58675, Deutschland"
Arnsberg,Märkischen Kreis,Gymnasium,199631,"Menden, Gym an der Hönne",2,51.4344791,7.7967667,"Städtisches Gymnasium an der Hönne, 2, Walramstraße, Menden (Sauerland), Märkischer Kreis, Nordrhein-Westfalen, 58706, Deutschland"
Arnsberg,Stadt Bochum,Gesamtschule,100048,"Bochum, GE Bochum-Mitte",8,51.4945855,7.2070245,"Gesamtschule Bochum-Mitte, 94, Feldsieper Straße, Hamme, Bochum-Mitte, Bochum, Nordrhein-Westfalen, 44809, Deutschland"
Arnsberg,Stadt Bochum,Gesamtschule,164239,"Bochum, GE Erich Kästner",4,51.4508728,7.2452595,"Erich-Kästner-Schule, 189, Markstraße, Querenburg, Bochum-Süd, Bochum, Nordrhein-Westfalen, 44799, Deutschland"
Arnsberg,Stadt Bochum,Gesamtschule,188311,"Bochum, GE Heinrich-Böll-Schule",5,51.4968709,7.2186059,"Heinrich-Böll-Gesamtschule Bochum, Lessingstraße, Grumme, Bochum-Mitte, Bochum, Nordrhein-Westfalen, 44791, Deutschland"
Arnsberg,Stadt Bochum,Gesamtschule,189935,"Bochum, GE Willy-Brandt",7,51.4846269,7.301282,"Willy-Brandt-Gesamtschule, Heinrich-Gustav-Straße, Werne, Bochum-Ost, Bochum, Nordrhein-Westfalen, 44894, Deutschland"
Arnsberg,Stadt Bochum,Gesamtschule,189947,"Bochum, GE Maria Sibylla Merian Schule",6,51.4704232,7.1496849,"Maria Sibylla Merian Gesamtschule, 15, Lohackerstraße, Westenfeld, Bochum-Wattenscheid, Bochum, Nordrhein-Westfalen, 44867, Deutschland"
Arnsberg,Stadt Bochum,Gymnasium,169158,"Bochum, Gym Hildegardis-Gymnasium",3,51.4863303,7.227728,"Hildegardis-Gymnasium Bochum, 1, Klinikstraße, Innenstadt, Bochum-Mitte, Bochum, Nordrhein-Westfalen, 44791, Deutschland"
Arnsberg,Stadt Bochum,Gymnasium,169160,"Bochum, Gym Graf-Engelbert-Gymnasium",2,51.4662929,7.2202622,"Graf-Engelbert-Gymnasium, 77-79, Königsallee, Ehrenfeld, Wiemelhausen, Bochum-Mitte, Bochum, Nordrhein-Westfalen, 44789, Deutschland"
Arnsberg,Stadt Bochum,Gymnasium,169171,"Bochum, Gym Schiller",1,51.4636256,7.2209842,"Schiller-Schule, 71, Waldring, Wiemelhausen, Bochum-Süd, Bochum, Nordrhein-Westfalen, 44789, Deutschland"
Arnsberg,Stadt Bochum,Gymnasium,169183,"Bochum, Gym Lessing-Gymnasium",3,51.4718894,7.31634,"Lessing-Gymnasium, 12, Ottilienstraße, Langendreer, Bochum-Ost, Bochum, Nordrhein-Westfalen, 44892, Deutschland"
Arnsberg,Stadt Bochum,Gymnasium,169213,"Bochum, Gym Goethe",3,51.4862233,7.2193393,"Goethe-Schule, 1, Goetheplatz, Innenstadt, Bochum-Mitte, Bochum, Nordrhein-Westfalen, 44791, Deutschland"
Arnsberg,Stadt Bochum,Gymnasium,169225,"Bochum, Gym Theodor-Körner",1,51.4276416,7.1511762,"Theodor-Körner Schule, 42-48, Keilstraße, Dahlhausen, Bochum-Südwest, Bochum, Nordrhein-Westfalen, 44879, Deutschland"
Arnsberg,Stadt Bochum,Gymnasium,169237,"Bochum, Gym Heinrich-v.-Kleist-Gymnasium",3,,,
Arnsberg,Stadt Bochum,Gymnasium,169699,"Bochum, Gym Märkisches Gymnasium",4,51.4778592,7.1364782,"Märkisches Gymnasium Wattenscheid, 42-44, Saarlandstraße, Wattenscheid, Bochum-Wattenscheid, Bochum, Nordrhein-Westfalen, 44866, Deutschland"
Arnsberg,Stadt Bochum,Gymnasium,169705,"Bochum, Gym Hellweg Europaschule",3,51.4863303,7.227728,"Hildegardis-Gymnasium Bochum, 1, Klinikstraße, Innenstadt, Bochum-Mitte, Bochum, Nordrhein-Westfalen, 44791, Deutschland"
Arnsberg,Stadt Bochum,Gymnasium,195947,"Bochum, Gym Neues Gymnasium",2,51.4676705,7.2316495,"Neues Gymnasium Bochum, 45, Querenburger Straße, Wiemelhausen, Bochum-Mitte, Bochum, Nordrhein-Westfalen, 44789, Deutschland"
Arnsberg,Stadt Dortmund,Gesamtschule,100132,"Dortmund, GE Reinoldi-Gesamtschule",6,51.545239,7.3685689,"Reinoldi-Gesamtschule, 107, Im Odemsloh, Westerfilde, Mengede, Dortmund, Nordrhein-Westfalen, 44357, Deutschland"
Arnsberg,Stadt Dortmund,Gesamtschule,100177,"Dortmund, GE im Süden",4,,,
Arnsberg,Stadt Dortmund,Gesamtschule,164240,"Dortmund, GE Scharnhorst",7,51.5506694,7.5453053,"Gesamtschule Scharnhorst, Hesseweg, Scharnhorst-Ost, Scharnhorst, Dortmund, Nordrhein-Westfalen, 44328, Deutschland"
Arnsberg,Stadt Dortmund,Gesamtschule,188207,"Dortmund, GE Heinrich-Böll",6,51.5036818,7.3361254,"Heinrich-Böll-Gesamtschule, Westricher Straße, Somborn, Lütgendortmund, Dortmund, Nordrhein-Westfalen, 44388, Deutschland"
Arnsberg,Stadt Dortmund,Gesamtschule,188219,"Dortmund, GE Geschwister-Scholl",4,51.5295718,7.554476,"Geschwister-Scholl-Gesamtschule, 3-5, Haferfeldstraße, Brackeler Feld, Brackel, Dortmund, Nordrhein-Westfalen, 44309, Deutschland"
Arnsberg,Stadt Dortmund,Gesamtschule,188220,"Dortmund, GE Anne-Frank-Schule",9,51.5305919,7.4628579,"Anne-Frank-Gesamtschule, Carl-Holtschneider-Straße, Nordmarkt, Innenstadt Nord, Dortmund, Nordrhein-Westfalen, 44145, Deutschland"
Arnsberg,Stadt Dortmund,Gesamtschule,188700,"Dortmund, GE Gartenstadt",8,51.4995272,7.5038346,"Gesamtschule Gartenstadt, Schwarze-Becker-Straße, Gartenstadt, Innenstadt Ost, Dortmund, Nordrhein-Westfalen, 44141, Deutschland"
Arnsberg,Stadt Dortmund,Gesamtschule,188827,"Dortmund, GE Gustav-Heinemann",8,51.5337093,7.4063159,"Gustav-Heinemann-Gesamtschule, Wispelbreite, Mailoh, Huckarde, Dortmund, Nordrhein-Westfalen, 44369, Deutschland"
Arnsberg,Stadt Dortmund,Gesamtschule,189960,"Dortmund, GE Brünninghausen",3,51.4805172,7.4561824,"Gesamtschule Brünninghausen, 15, Klüsenerskamp, Hombruch, Brünninghausen, Hombruch, Dortmund, Nordrhein-Westfalen, 44225, Deutschland"
Arnsberg,Stadt Dortmund,Gesamtschule,192820,"Dortmund, GE Martin-Luther-King",7,51.5017194,7.4054019,"Martin-Luther-King-Gesamtschule, Fine Frau, Oberdorstfeld, Innenstadt West, Dortmund, Nordrhein-Westfalen, 44149, Deutschland"
Arnsberg,Stadt Dortmund,Gesamtschule,193641,"Dortmund, GE Europaschule",4,51.5116805,7.5323452,"Europaschule Dortmund, 64, Am Gottesacker, Wambel, Brackel, Dortmund, Nordrhein-Westfalen, 44143, Deutschland"
Arnsberg,Stadt Dortmund,Gymnasium,169274,"Dortmund, Gym Bert-Brecht-Gymnasium",3,51.517881,7.3611255,"Bert-Brecht-Gymnasium, 5, Sumbecks Holz, Hangeney, Kirchlinde, Huckarde, Dortmund, Nordrhein-Westfalen, 44379, Deutschland"
Arnsberg,Stadt Dortmund,Gymnasium,169286,"Dortmund, Gym Heisenberg",5,51.553311,7.4957741,"Heisenberg Gymnasium, Derner Straße, Kemminghausen, Eving, Dortmund, Nordrhein-Westfalen, 44339, Deutschland"
Arnsberg,Stadt Dortmund,Gymnasium,169298,"Dortmund, Gym Immanuel-Kant",3,51.5319404,7.5952493,"Immanuel-Kant-Gymnasium, 42, Grüningsweg, Asseln-Süd, Asseln, Brackel, Dortmund, Nordrhein-Westfalen, 44319, Deutschland"
Arnsberg,Stadt Dortmund,Gymnasium,169304,"Dortmund, Gym Max-Planck-Gymnasium",2,51.4898492,7.4605139,"Max-Planck-Gymnasium, 70-72, Ardeystraße, Innenstadt Ost, Dortmund, Nordrhein-Westfalen, 44139, Deutschland"
Arnsberg,Stadt Dortmund,Gymnasium,169328,"Dortmund, Gym Helene-Lange",2,51.4748223,7.450762,"Helene-Lange-Gymnasium, 55a, Am Hombruchsfeld, Hombruch, Kirchhörde, Hombruch, Dortmund, Nordrhein-Westfalen, 44225, Deutschland"
Arnsberg,Stadt Dortmund,Gymnasium,169330,"Dortmund, Gym Käthe-Kollwitz",3,51.5102825,7.4721548,"Käthe-Kollwitz-Gymnasium, Rosental, Mitte, Innenstadt West, Dortmund, Nordrhein-Westfalen, 44135, Deutschland"
Arnsberg,Stadt Dortmund,Gymnasium,169341,"Dortmund, Gym Stadtgymnasium Dortmund",6,51.5113834,7.473218,"Stadtgymnasium, Ostwall, Mitte, Innenstadt West, Dortmund, Nordrhein-Westfalen, 44135, Deutschland"
Arnsberg,Stadt Dortmund,Gymnasium,169353,"Dortmund, Gym Reinoldus u. Schiller",4,51.5267628,7.4592778,"Helmholtz-Gymnasium Dortmund, 122, Münsterstraße, Nordmarkt, Innenstadt Nord, Dortmund, Nordrhein-Westfalen, 44145, Deutschland"
Arnsberg,Stadt Dortmund,Gymnasium,169390,"Dortmund, Gym Schweizer Allee",2,51.4915923,7.5646596,"Gymnasium an der Schweizer Allee, 18-20, Schweizer Allee, Aplerbeck, Dortmund, Nordrhein-Westfalen, 44287, Deutschland"
Arnsberg,Stadt Dortmund,Gymnasium,169407,"Dortmund, Gym Leibniz",3,51.501202,7.4419695,"Leibniz-Gymnasium | Dortmund International School, 163, Kreuzstraße, Kreuzviertel, Innenstadt West, Dortmund, Nordrhein-Westfalen, 44137, Deutschland"
Arnsberg,Stadt Dortmund,Gymnasium,169419,"Dortmund, Gym Goethe",3,51.4798682,7.4924666,"Goethe-Gymnasium, 12, Stettiner Straße, Pferdebachtal, Wellinghofen, Hörde, Dortmund, Nordrhein-Westfalen, 44263, Deutschland"
Arnsberg,Stadt Dortmund,Gymnasium,169420,"Dortmund, Gym Helmholtz",8,51.5267628,7.4592778,"Helmholtz-Gymnasium Dortmund, 122, Münsterstraße, Nordmarkt, Innenstadt Nord, Dortmund, Nordrhein-Westfalen, 44145, Deutschland"
Arnsberg,Stadt Dortmund,Gymnasium,169456,"Dortmund, Gym Phoenix",3,51.4926928,7.4999532,"Phoenix-Gymnasium, Seekante, Hörde, Dortmund, Nordrhein-Westfalen, 44263, Deutschland"
Arnsberg,Stadt Dortmund,Gymnasium,183167,"Dortmund, Gym Heinrich-Heine",4,51.5588554,7.3903767,"Heinrich-Heine-Gymnasium, 34, Dörwerstraße, Nette, Mengede, Dortmund, Nordrhein-Westfalen, 44359, Deutschland"
Arnsberg,Stadt Hagen,Gesamtschule,184019,"Hagen, GE Fritz-Steinhoff-Schule",6,51.3978261,7.4781857,"Fritz-Steinhoff-Gesamtschule, Hammersteinstraße, Boele, Hagen-Nord, Hagen, Nordrhein-Westfalen, 58099, Deutschland"
Arnsberg,Stadt Hagen,Gesamtschule,189170,"Hagen, GE Haspe",6,51.3472301,7.4172367,"Gesamtschule Haspe, 2, Kirmesplatz, Hestert, Haspe, Hagen, Nordrhein-Westfalen, 58135, Deutschland"
Arnsberg,Stadt Hagen,Gesamtschule,189984,"Hagen, GE Eilpe",5,51.3396834,7.4894773,"Gesamtschule Eilpe, Wörthstraße, Eilperfeld, Eilpe, Eilpe/Dahl, Hagen, Nordrhein-Westfalen, 58091, Deutschland"
Arnsberg,Stadt Hagen,Gymnasium,169468,"Hagen, Gym Fichte",4,51.3560884,7.468871,"Fichte-Gymnasium, Bergischer Ring, Oberhagen, Mittelstadt, Hagen-Mitte, Hagen, Nordrhein-Westfalen, 58095, Deutschland"
Arnsberg,Stadt Hagen,Gymnasium,169470,"Hagen, Gym Albrecht-Dürer",3,51.3677987,7.4836743,"Albrecht-Dürer-Gymnasium, 73, Heinitzstraße, Eppenhausen, Hochschulviertel, Hagen-Mitte, Hagen, Nordrhein-Westfalen, 58097, Deutschland"
Arnsberg,Stadt Hagen,Gymnasium,169481,"Hagen, Gym Theodor-Heuss",3,51.3695454,7.478115,"Theodor-Heuss-Gymnasium, Am Höing, Eppenhausen, Hochschulviertel, Hagen-Mitte, Hagen, Nordrhein-Westfalen, 58097, Deutschland"
Arnsberg,Stadt Hagen,Gymnasium,169511,"Hagen, Gym Christian-Rohlfs",5,51.3517069,7.4245725,"Christian-Rohlfs-Gymnasium, Am Hasper Bahnhof, Hestert, Haspe, Hagen, Nordrhein-Westfalen, 58135, Deutschland"
Arnsberg,Stadt Hagen,Gymnasium,169523,"Hagen, Gym Ricarda-Huch",5,51.3611193,7.4742931,"Ricarda-Huch-Gymnasium, 1, Voswinckelstraße, Oberhagen, Mittelstadt, Hagen-Mitte, Hagen, Nordrhein-Westfalen, 58095, Deutschland"
Arnsberg,Stadt Hagen,Gymnasium,170021,"Hagen, Gym Hohenlimburg",3,51.3630634,7.5707124,"Gymnasium Hohenlimburg, 27, Wiesenstraße, Elsey, Hohenlimburg, Hagen, Nordrhein-Westfalen, 58119, Deutschland"
Arnsberg,Stadt Hamm,Gesamtschule,100051,"Hamm, GE Arnold-Freymuth-Gesamtschule",6,51.2401233,6.4010013,"Anne-Frank-Gesamtschule Viersen, Unter-Beberich, Hamm, Viersen, Tönisvorst, Kreis Viersen, Nordrhein-Westfalen, 41748, Deutschland"
Arnsberg,Stadt Hamm,Gesamtschule,189250,"Hamm, GE Friedens",5,,,
Arnsberg,Stadt Hamm,Gesamtschule,189807,"Hamm, GE Sophie-Scholl-Schule",5,51.6962744,7.749125,"Sophie-Scholl-Gesamtschule, Marinestraße, Hövel, Bockum-Hövel, Hamm, Nordrhein-Westfalen, 59075, Deutschland"
Arnsberg,Stadt Hamm,Gymnasium,169559,"Hamm, Gym Galilei",4,51.6904412,7.7837116,"Galilei-Gymnasium, Pfarrer-Erich-Büscher-Weg, Bockum-Hövel, Hamm, Nordrhein-Westfalen, 59065, Deutschland"
Arnsberg,Stadt Hamm,Gymnasium,169560,"Hamm, Gym Beisenkamp-Gymnasium",2,51.671796,7.8308051,"Beisenkamp-Gymnasium, 1, Am Beisenkamp, Hamm-Mitte, Hamm, Nordrhein-Westfalen, 59063, Deutschland"
Arnsberg,Stadt Hamm,Gymnasium,169572,"Hamm, Gym Hammonense",2,51.685107,7.8199111,"Gymnasium Hammonense, Adenauerallee, Hamm-Mitte, Hamm, Nordrhein-Westfalen, 59065, Deutschland"
Arnsberg,Stadt Hamm,Gymnasium,169584,"Hamm, Gym Märkisches",4,51.6634886,7.7922063,"Märkisches Gymnasium Hamm, Uranusstraße, Daberg, Pelkum, Hamm, Nordrhein-Westfalen, 59067, Deutschland"
Arnsberg,Stadt Hamm,Gymnasium,169596,"Hamm, Gym Freiherr-vom-Stein",1,51.684678,7.8852135,"Freiherr-vom-Stein Gymnasium, Werner-Figgen-Weg, Werries, Uentrop, Hamm, Nordrhein-Westfalen, 59071, Deutschland"
Arnsberg,Stadt Herne,Gesamtschule,186740,"Herne, GE Wanne-Eickel",9,51.5305079,7.1548001,"Gesamtschule Wanne-Eickel, 41, Stöckstraße, Wanne-Bickern, Wanne, Herne, Nordrhein-Westfalen, 44649, Deutschland"
Arnsberg,Stadt Herne,Gesamtschule,188748,"Herne, GE Mont-Cenis",7,51.5377919,7.2468727,"Mont-Cenis-Gesamtschule, 180, Mont-Cenis-Straße, Sodingen, Herne, Nordrhein-Westfalen, 44627, Deutschland"
Arnsberg,Stadt Herne,Gesamtschule,189339,"Herne, GE Erich-Fried",6,51.535803,7.2007609,"Erich-Fried-Gesamtschule, Grabenstraße, Holsterhausen, Herne-Mitte, Herne, Nordrhein-Westfalen, 44625, Deutschland"
Arnsberg,Stadt Herne,Gymnasium,169602,"Herne, Gym Haranni",5,51.542395,7.2275468,"Haranni-Gymnasium, 58, Hermann-Löns-Straße, Herne-Mitte, Herne, Nordrhein-Westfalen, 44623, Deutschland"
Arnsberg,Stadt Herne,Gymnasium,169614,"Herne, Gym Pestalozzi",5,51.54416,7.2127095,"Pestalozzi Gymnasium, 6, Harpener Weg, Baukau, Baukau-Ost, Herne-Mitte, Herne, Nordrhein-Westfalen, 44629, Deutschland"
Arnsberg,Stadt Herne,Gymnasium,169626,"Herne, Gym Otto-Hahn",3,51.5388387,7.241408,"Otto-Hahn-Gymnasium, 168, Hölkeskampring, Sodingen, Herne, Nordrhein-Westfalen, 44625, Deutschland"
Arnsberg,Stadt Herne,Gymnasium,169675,"Herne, Gym Wanne",5,51.5305079,7.1548001,"Gesamtschule Wanne-Eickel, 41, Stöckstraße, Wanne-Bickern, Wanne, Herne, Nordrhein-Westfalen, 44649, Deutschland"
Arnsberg,Stadt Herne,Gymnasium,169687,"Herne, Gym Eickel",3,51.5305079,7.1548001,"Gesamtschule Wanne-Eickel, 41, Stöckstraße, Wanne-Bickern, Wanne, Herne, Nordrhein-Westfalen, 44649, Deutschland"
Detmold,Kreis Gütersloh,Gesamtschule,100044,"Gütersloh, GE an der Ahornallee",3,51.927107,8.3926477,"Gesamtschule an der Ahornallee, Ahornallee, Blankenhagen, Gütersloh, Kreis Gütersloh, Nordrhein-Westfalen, 33330, Deutschland"
Detmold,Kreis Gütersloh,Gesamtschule,188839,"Gütersloh, GE Anne-Frank-Schule",6,51.9078894,8.3609286,"Anne-Frank-Gesamtschule, Westring, Pavenstädt, Gütersloh, Kreis Gütersloh, Nordrhein-Westfalen, 33334, Deutschland"
Detmold,Kreis Gütersloh,Gesamtschule,192739,"Borgholzhausen, GE Peter-A.-Böckstiegel",2,,,
Detmold,Kreis Gütersloh,Gesamtschule,193630,"Gütersloh, GE Janusz-Korczak",3,51.8844704,8.3664482,"Janusz Korczak-Gesamtschule, Schledebrückstraße, Kattenstroth, Gütersloh, Kreis Gütersloh, Nordrhein-Westfalen, 33334, Deutschland"
Detmold,Kreis Gütersloh,Gesamtschule,196824,"Harsewinkel, GE Tecklenburger Weg",3,51.9621852,8.2192409,"Gesamtschule Harsewinkel, 4, Tecklenburger Weg, Harsewinkel, Kreis Gütersloh, Nordrhein-Westfalen, 33428, Deutschland"
Detmold,Kreis Gütersloh,Gesamtschule,196885,"Herzebrock-Clarholz, GE Von-Zumbusch",3,51.8877498,8.2453261,"Von-Zumbusch-Schule, Am Hallenbad, Herzebrock, Herzebrock-Clarholz, Kreis Gütersloh, Nordrhein-Westfalen, 33442, Deutschland"
Detmold,Kreis Gütersloh,Gesamtschule,197622,"Rheda-Wiedenbrück, GE Moritz-Fontaine",5,51.8480789,8.2765656,"Moritz-Fontaine-Gesamtschule, Mergelstraße, Rheda, Rheda-Wiedenbrück, Kreis Gütersloh, Nordrhein-Westfalen, 33378, Deutschland"
Detmold,Kreis Gütersloh,Gesamtschule,197634,"Rietberg, GE Richard-von-Weizsäcker",3,51.8096615,8.4311892,"Richard-von-Weizsäcker-Gesamtschule der Stadt Rietberg, 24, Teichweg, Rietberg, Kreis Gütersloh, Nordrhein-Westfalen, 33397, Deutschland"
Detmold,Kreis Gütersloh,Gesamtschule,197658,"Verl, GE St.-Anna-Straße",2,51.884271,8.5033532,"Gesamtschule Verl, 28, Sankt-Anna-Straße, Verl, Kreis Gütersloh, Nordrhein-Westfalen, 33415, Deutschland"
Detmold,Kreis Gütersloh,Gesamtschule,198699,"Schloß Holte-Stukenbrock, GE Jahnstraße",2,51.9040072,8.6101442,"Gesamtschule Schloß Holte-Stukenbrock, 11, Jahnstraße, Schloß Holte, Schloß Holte-Stukenbrock, Kreis Gütersloh, Nordrhein-Westfalen, 33758, Deutschland"
Detmold,Kreis Gütersloh,Gesamtschule,198973,"Halle, GE Wasserwerkstraße",3,52.0492524,8.3538725,"Gesamtschule Halle Westfalen, Wasserwerkstraße, Gartnisch, Halle (Westf.), Kreis Gütersloh, Nordrhein-Westfalen, 33790, Deutschland"
Detmold,Kreis Gütersloh,Gymnasium,168713,"Halle, Gym Kreis",2,,,
Detmold,Kreis Gütersloh,Gymnasium,169109,"Gütersloh, Gym Schulstr.",3,,,
Detmold,Kreis Gütersloh,Gymnasium,169110,"Rheda-Wiedenbrück, Gym Rats",2,51.8548807,8.2878444,"Rats-Apotheke, 13, Bahnhofstraße, Rheda, Rheda-Wiedenbrück, Kreis Gütersloh, Nordrhein-Westfalen, 33378, Deutschland"
Detmold,Kreis Gütersloh,Gymnasium,169122,"Rheda-Wiedenbrück, Gym Einstein",3,51.8508306,8.2727152,"Einstein-Gymnasium, Erich-Kästner-Straße, Rheda, Rheda-Wiedenbrück, Kreis Gütersloh, Nordrhein-Westfalen, 33378, Deutschland"
Detmold,Kreis Gütersloh,Gymnasium,169134,"Rietberg, Gym Nepomucenum",1,51.808953,8.4345559,"Gymnasium Nepomucenum Rietberg, 65, Torfweg, Rietberg, Kreis Gütersloh, Nordrhein-Westfalen, 33397, Deutschland"
Detmold,Kreis Gütersloh,Gymnasium,186004,"Verl, Gym St.-Anna-Straße",1,51.8827159,8.5040697,"Sankt-Anna-Straße, Verl, Kreis Gütersloh, Nordrhein-Westfalen, 33415, Deutschland"
Detmold,Kreis Gütersloh,Gymnasium,191589,"Harsewinkel, Gym Dechant-Budde-Weg",2,51.9633289,8.2244812,"Dechant-Budde-Weg, Harsewinkel, Kreis Gütersloh, Nordrhein-Westfalen, 33428, Deutschland"
Detmold,Kreis Gütersloh,Gymnasium,194219,"Steinhagen, Gym Am Cronsbach",1,51.9994818,8.4235097,"Am Cronsbach, Steinhagen, Kreis Gütersloh, Nordrhein-Westfalen, 33803, Deutschland"
Detmold,Kreis Gütersloh,Gymnasium,194256,"Schloß Holte-Stukenbrock, Gym Holter Str",1,51.90101,8.634783,"Gymnasium Schloß Holte-Stukenbrock, Holter Straße, Stukenbrock, Schloß Holte-Stukenbrock, Kreis Gütersloh, Nordrhein-Westfalen, 33758, Deutschland"
Detmold,Kreis Herford,Gesamtschule,189315,"Hiddenhausen, GE Olof-Palme",2,52.1526281,8.6359633,"Olof-Palme-Gesamtschule, 5, Pestalozzistraße, Lippinghausen, Hiddenhausen, Kreis Herford, Nordrhein-Westfalen, 32120, Deutschland"
Detmold,Kreis Herford,Gesamtschule,189509,"Herford, GE Salzufler Str.",7,52.1136233,8.6814714,"Salzufler Straße, Stiftberg, Neustädter Feldmark, Herford, Kreis Herford, Nordrhein-Westfalen, 32052, Deutschland"
Detmold,Kreis Herford,Gesamtschule,190263,"Bünde, GE Erich Kästner-Gesamtschule",3,52.2054945,8.5597182,"Erich Kästner Gesamtschule, Ravensberger Straße, Ennigloh, Gewinghausen, Bünde, Kreis Herford, Nordrhein-Westfalen, 32257, Deutschland"
Detmold,Kreis Herford,Gesamtschule,190287,"Löhne, GE Bertolt-Brecht",4,52.2205817,8.7098752,"Bertolt-Brecht-Gesamtschule, Zur Schule, Mennighüffen, Westscheid, Löhne, Kreis Herford, Nordrhein-Westfalen, 32584, Deutschland"
Detmold,Kreis Herford,Gesamtschule,190330,"Spenge, GE Regenbogen",3,52.1444506,8.4869861,"Regenbogen-Gesamtschule Spenge, Charlottenburg, Spenge, Hückerkreuz, Spenge, Kreis Herford, Nordrhein-Westfalen, 32139, Deutschland"
Detmold,Kreis Herford,Gesamtschule,190378,"Rödinghausen, GE An der Stertwelle",2,52.2476137,8.5056908,"Gesamtschule Rödinghausen, An der Stertwelle, Schwenningdorf, Rödinghausen, Kreis Herford, Nordrhein-Westfalen, 32289, Deutschland"
Detmold,Kreis Herford,Gymnasium,168749,"Bünde, Gym am Markt",2,52.1949625,8.5854148,"Gymnasium am Markt, 12, Marktstraße, Bünde-Mitte, Bünde, Kreis Herford, Nordrhein-Westfalen, 32257, Deutschland"
Detmold,Kreis Herford,Gymnasium,168750,"Bünde, Gym Freiherr-vom-Stein",1,52.2051085,8.5569154,"Freiherr vom Stein Gymnasium, Ringstraße, Ennigloh, Gewinghausen, Bünde, Kreis Herford, Nordrhein-Westfalen, 32257, Deutschland"
Detmold,Kreis Herford,Gymnasium,168762,"Enger, Gym Widukind",1,52.1415079,8.5484871,"Widukind-Gymnasium Enger, 22, Tiefenbruchstraße, Enger, Kreis Herford, Nordrhein-Westfalen, 32130, Deutschland"
Detmold,Kreis Herford,Gymnasium,168774,"Herford, Gym Ravensberger",2,52.1205752,8.6777407,"Ravensberger Gymnasium, 10, Werrestraße, Stiftberg, Herford-Stadt, Herford, Kreis Herford, Nordrhein-Westfalen, 32049, Deutschland"
Detmold,Kreis Herford,Gymnasium,168786,"Herford, Gym Königin-Mathilde",2,52.1165944,8.6893766,"Königin-Mathilde-Gymnasium, Kattenschling, Stiftberg, Herford-Stadt, Herford, Kreis Herford, Nordrhein-Westfalen, 32049, Deutschland"
Detmold,Kreis Herford,Gymnasium,168798,"Herford, Gym Friedrichs",2,52.1206052,8.6738574,"Friedrichs Gymnasium Herford, Rischmüllerufer, Neustädter Feldmark, Herford, Kreis Herford, Nordrhein-Westfalen, 32049, Deutschland"
Detmold,Kreis Herford,Gymnasium,168804,"Löhne, Gym Albert-Schweitzer-Str.",2,52.2035989,8.7205418,"Städtisches Gymnasium Löhne, 16, Albert-Schweitzer-Straße, Ulenburg, Löhne, Kreis Herford, Nordrhein-Westfalen, 32584, Deutschland"
Detmold,Kreis Herford,Gymnasium,168816,"Vlotho, Gym Weser",1,52.1638935,8.8698711,"Weser-Gymnasium Vlotho, 12, Prof.-Domagk-Straße, Winterberg, Vlotho, Kreis Herford, Nordrhein-Westfalen, 32602, Deutschland"
Detmold,Kreis Höxter,Gesamtschule,197695,"Bad Driburg, GE Geschwister-Scholl-Str.",4,51.7270239,9.0203912,"Geschwister-Scholl-Straße, Widukind-Siedlung, Bad Driburg, Kreis Höxter, Nordrhein-Westfalen, 33014, Deutschland"
Detmold,Kreis Höxter,Gesamtschule,197890,"Brakel, GE Am Bahndamm",2,51.7136965,9.184974,"Gesamtschule Brakel, Am Bahndamm, Brakel, Kreis Höxter, Nordrhein-Westfalen, 33034, Deutschland"
Detmold,Kreis Höxter,Gymnasium,168865,"Höxter, Gym König-Wilhelm",2,51.7764442,9.3715188,"König-Wilhelm-Gymnasium, 11, Im Flor, Höxter, Kreis Höxter, Nordrhein-Westfalen, 37671, Deutschland"
Detmold,Kreis Höxter,Gymnasium,169067,"Warburg, Gym Marianum",1,51.4871431,9.1489505,"Gymnasium Marianum, 7, Hinter der Mauer Süd, Warburg, Kreis Höxter, Nordrhein-Westfalen, 34414, Deutschland"
Detmold,Kreis Höxter,Gymnasium,169079,"Warburg, Gym Hüffert",1,51.4891992,9.1393779,"Hüffertstraße, Warburg, Kreis Höxter, Nordrhein-Westfalen, 34414, Deutschland"
Detmold,Kreis Höxter,Gymnasium,183714,"Steinheim, Gym Stettiner Str.",1,51.8758064,9.0829776,"Stettiner Straße, Steinheim, Kreis Höxter, Nordrhein-Westfalen, 32839, Deutschland"
Detmold,Kreis Höxter,Gymnasium,184652,"Beverungen, Gym Birkenstraße",2,51.6663324,9.3683377,"Städt. Gymnasium Beverungen, 5, Birkenstraße, Beverungen, Kreis Höxter, Nordrhein-Westfalen, 37688, Deutschland"
Detmold,Kreis Lippe,Gesamtschule,186375,"Leopoldshöhe, GE Felix-Fechenbach",1,52.0186491,8.6907463,"Felix-Fechenbach-Gesamtschule, 25, Schulstraße, Leopoldshöhe, Kreis Lippe, Nordrhein-Westfalen, 33818, Deutschland"
Detmold,Kreis Lippe,Gesamtschule,189108,"Detmold, GE Geschwister-Scholl",5,51.939593,8.8547409,"Geschwister-Scholl-Gesamtschule, 9, Sprottauer Straße, Hiddeser Berg, Detmold-Süd, Detmold, Kreis Lippe, Nordrhein-Westfalen, 32756, Deutschland"
Detmold,Kreis Lippe,Gesamtschule,192624,"Lemgo, GE Karla-Raveh",2,52.0353384,8.9125276,"Karla-Raveh-Gesamtschule, 31, Vogelsang, Spiegelberg, Lemgo, Kreis Lippe, Nordrhein-Westfalen, 32657, Deutschland"
Detmold,Kreis Lippe,Gesamtschule,195911,"Bad Salzuflen, GE Schulzentrum Aspe",5,52.0640525,8.7334421,"Schulzentrum Aspe, 5, Paul-Schneider-Straße, Werl-Aspe, Knetterheide, Bad Salzuflen, Kreis Lippe, Nordrhein-Westfalen, 32107, Deutschland"
Detmold,Kreis Lippe,Gymnasium,168658,"Blomberg, Gym Hermann-Vöchting",1,51.9469398,9.1055911,"Hermann-Vöchting-Gymnasium, 20, Ostring, Blomberg, Kreis Lippe, Nordrhein-Westfalen, 32825, Deutschland"
Detmold,Kreis Lippe,Gymnasium,168660,"Detmold, Gym Martin-Luther-Str.",2,51.9348288,8.8585945,"Martin-Luther-Straße, Hiddeser Berg, Detmold-Süd, Detmold, Kreis Lippe, Nordrhein-Westfalen, 32756, Deutschland"
Detmold,Kreis Lippe,Gymnasium,168683,"Detmold, Gym Leopoldinum",2,51.9313881,8.8834811,"Gymnasium Leopoldinum, Hornsche Straße, Detmold-Nord, Detmold, Kreis Lippe, Nordrhein-Westfalen, 32756, Deutschland"
Detmold,Kreis Lippe,Gymnasium,168695,"Detmold, Gym Christian-Dietrich-Grabbe",2,,,
Detmold,Kreis Lippe,Gymnasium,168701,"Lage, Gym Gebrüder Humboldt",3,,,
Detmold,Kreis Lippe,Gymnasium,168877,"Barntrup, Gym Große Twete",2,51.9874024,9.1180823,"Städtisches Gymnasium Barntrup, 5, Große Twete, Bellenbruch, Barntrup, Kreis Lippe, Nordrhein-Westfalen, 32683, Deutschland"
Detmold,Kreis Lippe,Gymnasium,168889,"Lemgo, Gym Marianne-Weber-Gymnasium",2,52.0324107,8.8958409,"Marianne-Weber-Gymnasium, 34, Franz-Liszt-Straße, Innenstadt, Lemgo, Kreis Lippe, Nordrhein-Westfalen, 32657, Deutschland"
Detmold,Kreis Lippe,Gymnasium,168890,"Lemgo, Gym Engelbert-Kaempfer",2,52.0271555,8.8960322,"Engelbert-Kaempfer-Gymnasium, Hinter dem Kloster, Innenstadt, Lemgo, Kreis Lippe, Nordrhein-Westfalen, 32657, Deutschland"
Detmold,Kreis Lippe,Gymnasium,168907,"Oerlinghausen, Gym Niklas-Luhmann",1,51.962723,8.6600077,"Niklas-Luhmann-Gymnasium, Ravensberger Straße, Oerlinghausen, Kreis Lippe, Nordrhein-Westfalen, 33813, Deutschland"
Detmold,Kreis Lippe,Gymnasium,168920,"Bad Salzuflen, Gym Rudolph-Brandes",3,52.0771974,8.7636738,"Rudolph-Brandes-Gymnasium, 25e, Wasserfuhr, Schötmar, Ehrsen, Bad Salzuflen, Kreis Lippe, Nordrhein-Westfalen, 32108, Deutschland"
Detmold,Kreis Lippe,Gymnasium,192600,"Horn-Bad Meinberg, Gym Südholzweg",2,51.8666158,8.9411954,"Gymnasium Horn-Bad Meinberg, Südholzweg, Horn, Horn-Bad Meinberg, Kreis Lippe, Nordrhein-Westfalen, 32805, Deutschland"
Detmold,Kreis Minden-Lübbecke,Gesamtschule,189121,"Minden, GE Kurt-Tucholsky",8,52.2889337,8.9100845,"Kurt-Tucholsky-Gesamtschule, Videbullenstraße, Innenstadt, Minden, Kreis Minden-Lübbecke, Nordrhein-Westfalen, 32423, Deutschland"
Detmold,Kreis Minden-Lübbecke,Gesamtschule,190081,"Hüllhorst, GE Osterstraße",1,52.27416,8.6712319,"Osterstraße, Hüllhorst, Büttendorf, Hüllhorst, Kreis Minden-Lübbecke, Nordrhein-Westfalen, 32609, Deutschland"
Detmold,Kreis Minden-Lübbecke,Gesamtschule,190354,"Hille, GE (Gym) Von Oeynhausen Straße",1,,,
Detmold,Kreis Minden-Lübbecke,Gesamtschule,192685,"Porta Westfalica, GE Bruchstr.",4,52.2531068,8.9458435,"Gesamtschule Porta-Westfalica, Bruchstraße, Neesen, Lerbeck, Porta Westfalica, Kreis Minden-Lübbecke, Nordrhein-Westfalen, 32457, Deutschland"
Detmold,Kreis Minden-Lübbecke,Gesamtschule,193872,"Bad Oeynhausen, GE Europaschule",5,52.2195315,8.7936453,"Europaschule Bad Oeynhausen, In der Wiehwisch, Eidinghausen, Bad Oeynhausen, Kreis Minden-Lübbecke, Nordrhein-Westfalen, 32549, Deutschland"
Detmold,Kreis Minden-Lübbecke,Gymnasium,168932,"Lübbecke, Gym Wittekind-Gymnasium",2,52.3029705,8.6236795,"Wittekind-Gymnasium, 14, Ziegeleiweg, Lübbecke Innenstadt, Lübbecke, Kreis Minden-Lübbecke, Nordrhein-Westfalen, 32312, Deutschland"
Detmold,Kreis Minden-Lübbecke,Gymnasium,168956,"Minden, Gym Herder u.Caroline v.Humboldt",3,52.3118481,8.8818671,"FES Minden Gesamtschule und Gymnasium, Kingsleyallee, Kuhlenkamp, Minderheide, Minden, Kreis Minden-Lübbecke, Nordrhein-Westfalen, 32425, Deutschland"
Detmold,Kreis Minden-Lübbecke,Gymnasium,168970,"Minden, Gym Besselgymnasium",3,52.2981042,8.8849205,"Besselgymnasium, Wagnerstraße, Bärenkämpen, Minden, Kreis Minden-Lübbecke, Nordrhein-Westfalen, 32427, Deutschland"
Detmold,Kreis Minden-Lübbecke,Gymnasium,168981,"Minden, Gym Rats",3,,,
Detmold,Kreis Minden-Lübbecke,Gymnasium,168993,"Bad Oeynhausen, Gym Immanuel-Kant",2,52.2024914,8.8143918,"Immanuel-Kant-Gymnasium, Grüner Weg, Bad Oeynhausen, Kreis Minden-Lübbecke, Nordrhein-Westfalen, 32547, Deutschland"
Detmold,Kreis Minden-Lübbecke,Gymnasium,169006,"Petershagen, Gym Hauptstr.",1,52.3788396,8.9661062,"Städtisches Gymnasium Petershagen, 15, Hauptstraße, Altstadt, Petershagen, Kreis Minden-Lübbecke, Nordrhein-Westfalen, 32469, Deutschland"
Detmold,Kreis Minden-Lübbecke,Gymnasium,186831,"Porta Westfalica, Gym Hoppenstr.",1,52.2359968,8.918993,"Hoppenstraße, Hausberge, Porta Westfalica, Kreis Minden-Lübbecke, Nordrhein-Westfalen, 32457, Deutschland"
Detmold,Kreis Minden-Lübbecke,Gymnasium,192491,"Rahden, Gym Freiherr-vom-Stein-Str.",1,52.4364353,8.6194211,"Gymnasium Rahden, 5, Freiherr-vom-Stein-Straße, Rahden, Kreis Minden-Lübbecke, Nordrhein-Westfalen, 32369, Deutschland"
Detmold,Kreis Paderborn,Gesamtschule,190809,"Paderborn, GE Elsen",4,51.7342141,8.6840214,"Elsen Schule, Von-Ketteler-Straße, Elsen, Paderborn, Kreis Paderborn, Nordrhein-Westfalen, 33106, Deutschland"
Detmold,Kreis Paderborn,Gesamtschule,192132,"Paderborn, GE Friedrich-Spee",5,51.7191114,8.7948256,"Friedrich-Spee-Gesamtschule, 6, Weißdornweg, Kaukenberg, Paderborn, Kreis Paderborn, Nordrhein-Westfalen, 33100, Deutschland"
Detmold,Kreis Paderborn,Gesamtschule,196484,"Salzkotten, GE Upsprunger Straße",2,51.6608679,8.6025956,"Gesamtschule Salzkotten, Upsprunger Straße, Salzkotten, Kreis Paderborn, Nordrhein-Westfalen, 33154, Deutschland"
Detmold,Kreis Paderborn,Gesamtschule,196861,"Paderborn, GE Heinz-Nixdorf-Gesamtschule",5,51.7340418,8.7743441,"Heinz-Nixdorf-Gesamtschule, 6-8, An den Lothewiesen, Paderborn, Kreis Paderborn, Nordrhein-Westfalen, 33100, Deutschland"
Detmold,Kreis Paderborn,Gesamtschule,197490,"Bad Lippspringe, GE an der Lippequelle",5,,,
Detmold,Kreis Paderborn,Gesamtschule,198705,"Delbrück, GE Driftweg",2,51.7669831,8.5567093,"Driftweg, Delbrück, Kreis Paderborn, Nordrhein-Westfalen, 33129, Deutschland"
Detmold,Kreis Paderborn,Gesamtschule,199930,"Büren, GE Kleffnerstraße",3,51.5490504,8.5541883,"Gesamtschule Büren, 4, Kleffnerstraße, Büren, Kreis Paderborn, Nordrhein-Westfalen, 33142, Deutschland"
Detmold,Kreis Paderborn,Gymnasium,169018,"Paderborn, Gym Goerdeler-Gymnasium",2,51.7221982,8.7247087,"Goerdeler-Gymnasium, 35, Goerdelerstraße, Paderborn, Kreis Paderborn, Nordrhein-Westfalen, 33102, Deutschland"
Detmold,Kreis Paderborn,Gymnasium,169020,"Paderborn, Gym Pelizaeus",2,51.7213461,8.7622947,"Pelizaeus-Gymnasium, Reismannweg, Paderborn, Kreis Paderborn, Nordrhein-Westfalen, 33102, Deutschland"
Detmold,Kreis Paderborn,Gymnasium,169031,"Paderborn, Gym Reismann",3,51.7207421,8.7634739,"Reismann-Gymnasium, 2, Reismannweg, Paderborn, Kreis Paderborn, Nordrhein-Westfalen, 33100, Deutschland"
Detmold,Kreis Paderborn,Gymnasium,169055,"Paderborn, Gym Theodorianum",2,51.7162536,8.7544212,"Gymnasium Theodorianum, Kötterhagen, Paderborn, Kreis Paderborn, Nordrhein-Westfalen, 33098, Deutschland"
Detmold,Kreis Paderborn,Gymnasium,183283,"Paderborn, Gym Schloß Neuhaus",2,51.7382827,8.7259363,"Berufskolleg Schloß Neuhaus, An der Kapelle, Schloß Neuhaus, Paderborn, Kreis Paderborn, Nordrhein-Westfalen, 33104, Deutschland"
Detmold,Kreis Paderborn,Gymnasium,194025,"Delbrück, Gym Marktstr.",2,51.7651018,8.5598378,"Marktstraße, Delbrück, Kreis Paderborn, Nordrhein-Westfalen, 33129, Deutschland"
Detmold,Stadt Bielefeld,Gesamtschule,164203,"Bielefeld, GE Martin-Niemöller",8,52.0543963,8.5448312,"Martin-Niemöller-Gesamtschule, 210, Apfelstraße, Schildesche, Bielefeld, Nordrhein-Westfalen, 33611, Deutschland"
Detmold,Stadt Bielefeld,Gesamtschule,184883,"Bielefeld, GE Laborschule d. Landes NRW",3,52.002149,8.5845935,"Stieghorst Gesamtschule, Am Wortkamp, Stieghorst, Bielefeld, Nordrhein-Westfalen, 33605, Deutschland"
Detmold,Stadt Bielefeld,Gesamtschule,188128,"Bielefeld, GE Friedrich Wilhelm Murnau",7,52.0006324,8.5832849,"Friedrich Wilhelm Murnau-Gesamtschule, 3, Am Wortkamp, Stieghorst, Bielefeld, Nordrhein-Westfalen, 33605, Deutschland"
Detmold,Stadt Bielefeld,Gesamtschule,189996,"Bielefeld, GE GesamtSchule Quelle",3,,,
Detmold,Stadt Bielefeld,Gesamtschule,193495,"Bielefeld, GE Rosenhöhe",7,51.9854904,8.5280945,"Gesamtschule Rosenhöhe, 11, An der Rosenhöhe, Brackwede, Bielefeld, Nordrhein-Westfalen, 33647, Deutschland"
Detmold,Stadt Bielefeld,Gymnasium,168520,"Bielefeld, Gym Cecilien",4,,,
Detmold,Stadt Bielefeld,Gymnasium,168531,"Bielefeld, Gym Ratsgymnasium",2,52.0185875,8.527525,"Ratsgymnasium zu Bielefeld, 1, Nebelswall, Neustadt, Mitte, Bielefeld, Nordrhein-Westfalen, 33602, Deutschland"
Detmold,Stadt Bielefeld,Gymnasium,168543,"Bielefeld, Gym Helmholtz",3,52.0184477,8.5473673,"Helmholtz-Gymnasium, 131, Ravensberger Straße, Mitte, Bielefeld, Nordrhein-Westfalen, 33607, Deutschland"
Detmold,Stadt Bielefeld,Gymnasium,168555,"Bielefeld, Gym am Waldhof",2,52.0186597,8.5289951,"Gymnasium am Waldhof, 8, Waldhof, Mitte, Bielefeld, Nordrhein-Westfalen, 33602, Deutschland"
Detmold,Stadt Bielefeld,Gymnasium,168579,"Bielefeld, Gym Max-Planck",3,52.0294835,8.5151197,"Max-Planck-Gymnasium, Stapenhorststraße, Mitte, Bielefeld, Nordrhein-Westfalen, 33615, Deutschland"
Detmold,Stadt Bielefeld,Gymnasium,168580,"Bielefeld, Gym Brackweder",4,51.98401,8.514032,"Brackweder Realschule 2, 39, Stadtring, Brackwede, Bielefeld, Nordrhein-Westfalen, 33647, Deutschland"
Detmold,Stadt Bielefeld,Gymnasium,168622,"Bielefeld, Gym Heepen",3,52.0292398,8.6021218,"Gymnasium Heepen, 37, Alter Postweg, Tieplatz, Heepen, Bielefeld, Nordrhein-Westfalen, 33719, Deutschland"
Düsseldorf,Kreis Kleve,Gesamtschule,100019,"Kleve, GE Joseph Beuys",7,51.7809083,6.1225394,"Joseph-Beuys-Gesamtschule - Teilstandort, 80, Ackerstraße, Unterstadt, Kleve, Bedburg-Hau, Kreis Kleve, Nordrhein-Westfalen, 47533, Deutschland"
Düsseldorf,Kreis Kleve,Gesamtschule,100042,"Geldern, GE Königsberger Straße",4,51.5264152,6.3300265,"Gesamtschule der Stadt Geldern, 60, Königsberger Straße, Geldern, Kreis Kleve, Nordrhein-Westfalen, 47608, Deutschland"
Düsseldorf,Kreis Kleve,Gesamtschule,193586,"Goch, GE Mittelkreis",2,51.6723855,6.1572783,"Gesamtschule Mittelkreis, 28, Südring, Goch, Bedburg-Hau, Kreis Kleve, Nordrhein-Westfalen, 47574, Deutschland"
Düsseldorf,Kreis Kleve,Gesamtschule,196757,"Kleve, GE am Forstgarten",5,51.8009765,6.133436,"Gesamtschule am Forstgarten, 4-6, Landwehr, Unterstadt, Kleve, Rindern, Kleve, Bedburg-Hau, Kreis Kleve, Nordrhein-Westfalen, 47533, Deutschland"
Düsseldorf,Kreis Kleve,Gesamtschule,198730,"Emmerich am Rhein, GE Paaltjessteege",5,51.8325184,6.2439023,"Gesamtschule Emmerich am Rhein, 1, Paaltjessteege, Emmerich am Rhein, Bedburg-Hau, Kreis Kleve, Nordrhein-Westfalen, 46446, Deutschland"
Düsseldorf,Kreis Kleve,Gesamtschule,198997,"Kevelaer, GE Kevelaer",5,51.5806875,6.2347707,"Gesamtschule Kevelaer, 20, Jahnstraße, Kevelaer Mitte, Kevelaer, Kreis Kleve, Nordrhein-Westfalen, 47623, Deutschland"
Düsseldorf,Kreis Kleve,Gymnasium,165682,"Geldern, Gym Friedrich-Spee-Gymnasium",1,51.5160868,6.3302882,"Friedrich-Spee-Gymnasium, 25, Friedrich-Spee-Straße, Geldern, Kreis Kleve, Nordrhein-Westfalen, 47608, Deutschland"
Düsseldorf,Kreis Kleve,Gymnasium,165694,"Geldern, Gym Lise-Meitner",2,51.5173529,6.3324385,"Lise-Meitner-Gymnasium, 6-8, Friedrich-Nettesheim-Weg, Geldern, Kreis Kleve, Nordrhein-Westfalen, 47608, Deutschland"
Düsseldorf,Kreis Kleve,Gymnasium,165700,"Kevelaer, Gym Kardinal-von-Galen",2,51.583941,6.2388693,"Kardinal-von-Galen-Straße, Kevelaer Mitte, Kevelaer, Kreis Kleve, Nordrhein-Westfalen, 47623, Deutschland"
Düsseldorf,Kreis Kleve,Gymnasium,165906,"Goch, Gym Hubert-Houben-Str.",3,51.6667221,6.1681125,"Städtisches Gymnasium Goch, 9, Hubert-Houben-Straße, Goch, Bedburg-Hau, Kreis Kleve, Nordrhein-Westfalen, 47574, Deutschland"
Düsseldorf,Kreis Kleve,Gymnasium,165920,"Kalkar, Gym Jan-Joest",1,51.7345677,6.2987148,"Jan-Joest-Gymnasium, 16, Am Bollwerk, Kalkar, Bedburg-Hau, Kreis Kleve, Nordrhein-Westfalen, 47546, Deutschland"
Düsseldorf,Kreis Kleve,Gymnasium,165931,"Kleve, Gym Freiherr-vom-Stein",3,51.7865734,6.1283271,"Freiherr-vom-Stein Gymnasium Kleve, 9, Römerstraße, Unterstadt, Kleve, Bedburg-Hau, Kreis Kleve, Nordrhein-Westfalen, 47533, Deutschland"
Düsseldorf,Kreis Kleve,Gymnasium,165955,"Kleve, Gym Konrad-Adenauer",3,51.8040832,6.1607738,"Konrad-Adenauer-Gymnasium, 41, Köstersweg, Kellen, Kleve, Bedburg-Hau, Kreis Kleve, Nordrhein-Westfalen, 47533, Deutschland"
Düsseldorf,Kreis Kleve,Gymnasium,166091,"Emmerich am Rhein, Gym Willibrord",3,51.8421118,6.2437513,"Städtisches Willibrord-Gymnasium, 3, Hansastraße, Klein-Netterden, Emmerich am Rhein, Bedburg-Hau, Kreis Kleve, Nordrhein-Westfalen, 46446, Deutschland"
Düsseldorf,Kreis Kleve,Gymnasium,166133,"Rees, Gym Aspel",1,51.7606965,6.3894804,"Gymnasium Aspel, 8, Westring, Esserden, Rees, Kreis Kleve, Nordrhein-Westfalen, 46459, Deutschland"
Düsseldorf,Kreis Kleve,Gymnasium,192053,"Straelen, Gym Fontanestraße",1,51.4447457,6.261272,"Städtisches Gymnasium Straelen, 7, Fontanestraße, Straelen, Kreis Kleve, Nordrhein-Westfalen, 47638, Deutschland"
Düsseldorf,Kreis Mettmann,Gesamtschule,100011,"Haan, GE Walder Straße",4,51.1936168,7.0179009,"Schulzentrum Walder Straße, 15, Walder Straße, Musikantenviertel, Haan, Kreis Mettmann, Nordrhein-Westfalen, 42781, Deutschland"
Düsseldorf,Kreis Mettmann,Gesamtschule,100069,"Monheim am Rhein, GE Ulla-Hahn",6,,,
Düsseldorf,Kreis Mettmann,Gesamtschule,100070,"Velbert, GE Waldschlösschen",2,51.304721,7.0804109,"Velbert Gesamtschule Waldschlösschen, Waldschlößchen, Pöthen, Neviges, Velbert, Kreis Mettmann, Nordrhein-Westfalen, 42553, Deutschland"
Düsseldorf,Kreis Mettmann,Gesamtschule,100131,"Mettmann, GE Borner Weg",5,51.2569075,6.9727383,"Borner Weg, Kaldenberg, Mettmann, Kreis Mettmann, Nordrhein-Westfalen, 40822, Deutschland"
Düsseldorf,Kreis Mettmann,Gesamtschule,188293,"Monheim, GE Peter-Ustinov",4,51.0954852,6.9004547,"Peter-Ustinov-Gesamtschule, 8, Falkenstraße, Monheim am Rhein, Kreis Mettmann, Nordrhein-Westfalen, 40789, Deutschland"
Düsseldorf,Kreis Mettmann,Gesamtschule,189297,"Velbert, GE Mitte",6,51.3345595,7.0360532,"Gesamtschule Velbert, Birkenstraße, Kostenberg, Velbert-Mitte, Velbert, Kreis Mettmann, Nordrhein-Westfalen, 42549, Deutschland"
Düsseldorf,Kreis Mettmann,Gesamtschule,189601,"Ratingen, GE Martin-Luther-King",6,51.2920948,6.8178003,"Martin-Luther-King-Gesamtschule, 36, Erfurter Straße, EKZ Ratingen-West, West, Ratingen, Kreis Mettmann, Nordrhein-Westfalen, 40880, Deutschland"
Düsseldorf,Kreis Mettmann,Gesamtschule,191000,"Langenfeld, GE Bettine-von-Arnim",4,51.1348028,6.9473291,"Bettine-von-Arnim-Gesamtschule, Dorotheenstraße, Richrath, Langenfeld (Rheinland), Kreis Mettmann, Nordrhein-Westfalen, 40764, Deutschland"
Düsseldorf,Kreis Mettmann,Gesamtschule,191917,"Heiligenhaus, GE Hülsbecker Straße",3,51.3218232,6.965686,"Gesamtschule Heiligenhaus, 5, Hülsbecker Straße, Unterstadt, Nonnenbruch, Heiligenhaus, Kreis Mettmann, Nordrhein-Westfalen, 42579, Deutschland"
Düsseldorf,Kreis Mettmann,Gesamtschule,197907,"Langenfeld, GE Prismaschule",4,51.1065067,6.9505348,"Prismaschule Gesamtschule, 25, Fröbelstraße, Immigrath, Langenfeld (Rheinland), Kreis Mettmann, Nordrhein-Westfalen, 40764, Deutschland"
Düsseldorf,Kreis Mettmann,Gymnasium,165530,"Haan, Gym Adlerstr.",2,51.1958133,6.997959,"Gymnasium Haan, 3-5, Adlerstraße, Haan, Kreis Mettmann, Nordrhein-Westfalen, 42781, Deutschland"
Düsseldorf,Kreis Mettmann,Gymnasium,165542,"Heiligenhaus, Gym Immanuel-Kant",2,51.3233862,6.9716275,"Immanuel-Kant-Gymnasium, Herzogstraße, Oberstadt, Heide, Heiligenhaus, Kreis Mettmann, Nordrhein-Westfalen, 42579, Deutschland"
Düsseldorf,Kreis Mettmann,Gymnasium,165554,"Hilden, Gym Helmholtz",3,51.1653183,6.9475414,"Helmholtz-Gymnasium, 30, Am Holterhöfchen, Pungshaus, Hilden, Kreis Mettmann, Nordrhein-Westfalen, 40724, Deutschland"
Düsseldorf,Kreis Mettmann,Gymnasium,165580,"Velbert, Gym Langenberg",2,51.3459102,7.1303606,"Städtisches Gymnasium Velbert-Langenberg, Panner Straße, Langenberg, Velbert, Kreis Mettmann, Nordrhein-Westfalen, 42555, Deutschland"
Düsseldorf,Kreis Mettmann,Gymnasium,165591,"Mettmann, Gym Konrad-Heresbach",2,51.2467477,6.9725317,"Konrad-Heresbach-Gymnasium, Laubacher Straße, Süd, Mettmann, Kreis Mettmann, Nordrhein-Westfalen, 40822, Deutschland"
Düsseldorf,Kreis Mettmann,Gymnasium,165608,"Ratingen, Gym C.F. von Weizsäcker",3,,,
Düsseldorf,Kreis Mettmann,Gymnasium,165621,"Velbert, Gym Nikolaus-Ehlen",3,51.3369184,7.0445753,"Nikolaus-Ehlen-Gymnasium, Friedrich-Ebert-Straße, Nordstadt, Velbert-Mitte, Velbert, Kreis Mettmann, Nordrhein-Westfalen, 42549, Deutschland"
Düsseldorf,Kreis Mettmann,Gymnasium,165633,"Velbert, Gym Geschwister-Scholl",3,51.3425515,7.0168751,"Geschwister-Scholl-Gymnasium, 54-58, Von-Humboldt-Straße, Birth, Velbert-Mitte, Velbert, Kreis Mettmann, Nordrhein-Westfalen, 42549, Deutschland"
Düsseldorf,Kreis Mettmann,Gymnasium,165645,"Wülfrath, Gym Kastanienallee",2,51.2748095,7.0285862,"Gymnasium Wülfrath, 63, Kastanienallee, Süd - Erbach, Wülfrath, Kreis Mettmann, Nordrhein-Westfalen, 42489, Deutschland"
Düsseldorf,Kreis Mettmann,Gymnasium,165657,"Erkrath, Gym am Neandertal",1,51.2258265,6.9099922,"Gymnasium am Neandertal, Rolandstraße, Alt-Erkrath, Erkrath, Kreis Mettmann, Nordrhein-Westfalen, 40699, Deutschland"
Düsseldorf,Kreis Mettmann,Gymnasium,165670,"Mettmann, Gym Heinrich-Heine",2,51.2660938,6.9643105,"Heinrich-Heine-Gymnasium, Hasselbeckstraße, Metzkausen, Mettmann, Kreis Mettmann, Nordrhein-Westfalen, 40822, Deutschland"
Düsseldorf,Kreis Mettmann,Gymnasium,166145,"Langenfeld, Gym Konrad-Adenauer",2,51.1129039,6.9462512,"Konrad-Adenauer-Gymnasium, Auf dem Sändchen, Immigrath, Langenfeld (Rheinland), Kreis Mettmann, Nordrhein-Westfalen, 40764, Deutschland"
Düsseldorf,Kreis Mettmann,Gymnasium,166169,"Monheim, Gym Otto-Hahn",2,51.0856576,6.8872294,"Otto-Hahn-Gymnasium, 7, Berliner Ring, Berliner-Viertel, Monheim am Rhein, Kreis Mettmann, Nordrhein-Westfalen, 40789, Deutschland"
Düsseldorf,Kreis Mettmann,Gymnasium,183532,"Ratingen, Gym Kopernikus",2,51.34318,6.8283429,"Kopernikus-Gymnasium-Lintorf, 112, Duisburger Straße, Lintorf, Lintorf/Breitscheid, Ratingen, Kreis Mettmann, Nordrhein-Westfalen, 40885, Deutschland"
Düsseldorf,Kreis Mettmann,Gymnasium,186016,"Ratingen, Gym Dietrich-Bonhoeffer",4,51.2916617,6.8187447,"Dietrich-Bonhoeffer-Gymnasium, 30, Erfurter Straße, EKZ Ratingen-West, West, Ratingen, Kreis Mettmann, Nordrhein-Westfalen, 40880, Deutschland"
Düsseldorf,Kreis Viersen,Gesamtschule,100021,"Tönisvorst, GE Rupert-Neudeck",4,51.3172233,6.4923985,"Rupert Neudeck Gesamtschule, Corneliusstraße, St. Tönis, Tönisvorst, Kreis Viersen, Nordrhein-Westfalen, 47918, Deutschland"
Düsseldorf,Kreis Viersen,Gesamtschule,190718,"Brüggen, GE Brüggen",2,51.239761,6.1824248,"Gemeinschaftsgrundschule Brüggen, 1, Nikolausplatz, Brüggen, Kreis Viersen, Nordrhein-Westfalen, 41379, Deutschland"
Düsseldorf,Kreis Viersen,Gesamtschule,190871,"Viersen, GE Anne-Frank-Schule",4,51.2669773,6.3921113,"Anne-Frank-Gesamtschule, Rahserstraße, Rahser, Süchteln, Viersen, Tönisvorst, Kreis Viersen, Nordrhein-Westfalen, 41748, Deutschland"
Düsseldorf,Kreis Viersen,Gesamtschule,191644,"Willich, GE Robert-Schuman",2,51.2703091,6.5412087,"Robert-Schuman-Europaschule Willich, 2 - 6, Kantstraße, Wekeln, Willich, Tönisvorst, Kreis Viersen, Nordrhein-Westfalen, 47877, Deutschland"
Düsseldorf,Kreis Viersen,Gesamtschule,191668,"Nettetal, GE Von-Waldois-Str.",2,51.2923268,6.2499722,"Von-Waldois-Straße, Breyell, Nettetal, Kreis Viersen, Nordrhein-Westfalen, 41334, Deutschland"
Düsseldorf,Kreis Viersen,Gesamtschule,196794,"Willich, GE Leonardo-da-Vinci",3,51.2482309,6.521715,"Leonardo-da-Vinci-Gesamtschule, Klosterweg, Schiefbahn, Wekeln, Willich, Tönisvorst, Kreis Viersen, Nordrhein-Westfalen, 47877, Deutschland"
Düsseldorf,Kreis Viersen,Gesamtschule,198729,"Kempen, GE Wachtendonker Straße",2,51.3679811,6.4137755,"Gesamtschule Kempen, 38, Wachtendonker Straße, Kempen, Tönisvorst, Kreis Viersen, Nordrhein-Westfalen, 47906, Deutschland"
Düsseldorf,Kreis Viersen,Gymnasium,165803,"Kempen, Gym Thomaeum",1,51.3656632,6.4135354,"Gymnasium Thomaeum, Am Gymnasium, Kempen, Tönisvorst, Kreis Viersen, Nordrhein-Westfalen, 47906, Deutschland"
Düsseldorf,Kreis Viersen,Gymnasium,165815,"Kempen, Gym Luise-von-Duesberg",2,51.3674549,6.4110029,"Luise-von-Duesberg-Gymnasium, Berliner Allee, Kempen, Tönisvorst, Kreis Viersen, Nordrhein-Westfalen, 47906, Deutschland"
Düsseldorf,Kreis Viersen,Gymnasium,165827,"Nettetal, Gym Werner-Jaeger",1,51.3121111,6.2709013,"Werner-Jaeger-Gymnasium, 7, An den Sportplätzen, Lobberich, Nettetal, Kreis Viersen, Nordrhein-Westfalen, 41334, Deutschland"
Düsseldorf,Kreis Viersen,Gymnasium,165839,"Schwalmtal, Gym St.Wolfhelm",1,51.216291,6.2811487,"Gymnasium St. Wolfhelm, Turmstraße, Waldniel, Schwalmtal, Kreis Viersen, Nordrhein-Westfalen, 41366, Deutschland"
Düsseldorf,Kreis Viersen,Gymnasium,165852,"Viersen, Gym Erasmus-von-Rotterdam",3,51.256094,6.3817916,"Erasmus-von-Rotterdam-Gymnasium, Konrad-Adenauer-Ring, Noppdorf, Hoser, Viersen, Tönisvorst, Kreis Viersen, Nordrhein-Westfalen, 41747, Deutschland"
Düsseldorf,Kreis Viersen,Gymnasium,165876,"Viersen, Gym Clara-Schumann-Gymnasium",4,51.2473504,6.3280872,"Clara-Schumann-Gymnasium, 1, Brandenburger Straße, Dülken, Viersen, Tönisvorst, Kreis Viersen, Nordrhein-Westfalen, 41751, Deutschland"
Düsseldorf,Kreis Viersen,Gymnasium,189194,"Tönisvorst, Gym Michael-Ende-Gymnasium",2,51.3175774,6.4855915,"Michael-Ende-Gymnasium, 25, Corneliusstraße, St. Tönis, Tönisvorst, Kreis Viersen, Nordrhein-Westfalen, 47918, Deutschland"
Düsseldorf,Kreis Viersen,Gymnasium,193550,"Willich, Gym Lise-Meitner",1,51.2776231,6.4681112,"Lise-Meitner-Gymnasium, Fadheider Straße, Eschert, Fadheide, Willich, Tönisvorst, Kreis Viersen, Nordrhein-Westfalen, 47877, Deutschland"
Düsseldorf,Kreis Wesel,Gesamtschule,100063,"Wesel, GE Ida Noddack",7,51.6600937,6.6118518,"Ida-Noddack Gesamtschule, 12, Martinistraße, Zitadellenviertel, Wesel, Kreis Wesel, Nordrhein-Westfalen, 46483, Deutschland"
Düsseldorf,Kreis Wesel,Gesamtschule,100077,"Dinslaken, GE Hiesfeld",3,51.5645073,6.7686672,"Schulzentrum Hiesfeld, Campus Nord, 63-65, Kirchstraße, Hiesfeld, Dinslaken, Kreis Wesel, Nordrhein-Westfalen, 46539, Deutschland"
Düsseldorf,Kreis Wesel,Gesamtschule,100103,"Rheinberg, GE Europaschule Rheinberg",3,51.5520583,6.592654,"Europaschule Rheinberg, 11, Dr.-Aloys-Wittrup-Straße, Rheinberg, Kreis Wesel, Nordrhein-Westfalen, 47495, Deutschland"
Düsseldorf,Kreis Wesel,Gesamtschule,188712,"Moers, GE Geschwister-Scholl",6,51.4489806,6.6601559,"Geschwister-Scholl-Gesamtschule Moers, 522, Römerstraße, Hochstraß, Moers, Kreis Wesel, Nordrhein-Westfalen, 47443, Deutschland"
Düsseldorf,Kreis Wesel,Gesamtschule,188888,"Dinslaken, GE Ernst-Barlach",4,51.5681388,6.7324586,"Ernst-Barlach-Gesamtschule, Wilhelm-Lantermann-Straße, Innenstadt, Dinslaken, Kreis Wesel, Nordrhein-Westfalen, 46535, Deutschland"
Düsseldorf,Kreis Wesel,Gesamtschule,189303,"Wesel, GE Am Lauerhaas",4,51.6701062,6.6499553,"Gesamtschule ""Am Lauerhaas"" Wesel, Kirchturmstraße, Obrighoven, Obrighoven-Lackhausen, Wesel, Kreis Wesel, Nordrhein-Westfalen, 46485, Deutschland"
Düsseldorf,Kreis Wesel,Gesamtschule,189870,"Moers, GE Anne-Frank",5,51.4832858,6.6110417,"Anne-Frank-Gesamtschule Rheinkamp, 9, Kopernikusstraße, Rheinkamp-Mitte, Rheinkamp, Moers, Kreis Wesel, Nordrhein-Westfalen, 47445, Deutschland"
Düsseldorf,Kreis Wesel,Gesamtschule,190317,"Schermbeck, GE Schloßstr.",2,51.6960446,6.8764149,"Gesamtschule Schermbeck, 20, Schloßstraße, Alt-Schermbeck, Schermbeck, Kreis Wesel, Nordrhein-Westfalen, 46514, Deutschland"
Düsseldorf,Kreis Wesel,Gesamtschule,191553,"Kamp-Lintfort, GE UNESCO-Schule",3,51.5063957,6.5401691,"UNESCO-Schule, 167, Moerser Straße, Stadtmitte, Niersenbruch, Kamp-Lintfort, Kreis Wesel, Nordrhein-Westfalen, 47475, Deutschland"
Düsseldorf,Kreis Wesel,Gesamtschule,193033,"Moers, GE Hermann-Runge",3,51.4540824,6.6319223,"Hermann-Runge-Gesamtschule, Gabelsbergerstraße, Altstadt Moers, Moers-Mitte, Moers, Kreis Wesel, Nordrhein-Westfalen, 47441, Deutschland"
Düsseldorf,Kreis Wesel,Gesamtschule,193744,"Hünxe, GE In den Elsen",1,51.6379553,6.7704298,"Gesamtschule Hünxe, 34, In den Elsen, Krudenburg, Hünxe, Kreis Wesel, Nordrhein-Westfalen, 46569, Deutschland"
Düsseldorf,Kreis Wesel,Gesamtschule,198158,"Hamminkeln, GE Diersfordter Straße",2,51.7274453,6.5891606,"Gesamtschule Hamminkeln, Diersfordter Straße, Hamminkeln, Kreis Wesel, Nordrhein-Westfalen, 46499, Deutschland"
Düsseldorf,Kreis Wesel,Gesamtschule,198213,"Xanten, GE Willi-Fährmann-Gesamtschule",3,51.6562406,6.4470704,"Willi-Fährmann-Gesamtschule, 3, Heinrich-Lensing-Straße, Hochbruch, Xanten, Kreis Wesel, Nordrhein-Westfalen, 46509, Deutschland"
Düsseldorf,Kreis Wesel,Gesamtschule,199333,"Neukirchen-Vluyn, GE Tersteegenstraße",3,51.4462981,6.5437827,"Tersteegenstraße, Hochkamer, Vluyn, Neukirchen-Vluyn, Kreis Wesel, Nordrhein-Westfalen, 47506, Deutschland"
Düsseldorf,Kreis Wesel,Gesamtschule,199497,"Voerde, GE Comenius",3,51.5950013,6.6791677,"Comenius-Gesamtschule, 1, Allee, Voerde, Voerde (Niederrhein), Kreis Wesel, Nordrhein-Westfalen, 46562, Deutschland"
Düsseldorf,Kreis Wesel,Gymnasium,165487,"Dinslaken, Gym Otto-Hahn",2,51.5702442,6.7254921,"Otto-Hahn-Gymnasium, 12, Hagenstraße, Hagenviertel, Dinslaken, Kreis Wesel, Nordrhein-Westfalen, 46535, Deutschland"
Düsseldorf,Kreis Wesel,Gymnasium,165505,"Dinslaken, Gym Theodor-Heuss",2,51.5631883,6.7301447,"Theodor-Heuss-Gymnasium, 30, Voerder Straße, Innenstadt, Dinslaken, Kreis Wesel, Nordrhein-Westfalen, 46535, Deutschland"
Düsseldorf,Kreis Wesel,Gymnasium,165529,"Voerde, Gym Am Hallenbad",1,51.6160767,6.6473318,"Gymnasium Voerde, 33, Am Hallenbad, Friedrichsfeld, Voerde (Niederrhein), Kreis Wesel, Nordrhein-Westfalen, 46562, Deutschland"
Düsseldorf,Kreis Wesel,Gymnasium,165980,"Kamp-Lintfort, Gym Georg-Forster",3,51.5062453,6.5417003,"Georg-Forster-Gymnasium, 167, Moerser Straße, Stadtmitte, Niersenbruch, Kamp-Lintfort, Kreis Wesel, Nordrhein-Westfalen, 47475, Deutschland"
Düsseldorf,Kreis Wesel,Gymnasium,165992,"Moers, Gym Grafschafter",4,51.4509139,6.6337358,"Grafschafter Gymnasium, Bankstraße, Altstadt Moers, Moers-Mitte, Moers, Kreis Wesel, Nordrhein-Westfalen, 47441, Deutschland"
Düsseldorf,Kreis Wesel,Gymnasium,166005,"Moers, Gym Adolfinum",2,51.4536582,6.6303081,"Gymnasium Adolfinum, Seminarstraße, Altstadt Moers, Moers-Mitte, Moers, Kreis Wesel, Nordrhein-Westfalen, 47441, Deutschland"
Düsseldorf,Kreis Wesel,Gymnasium,166017,"Moers, Gym in den Filder Benden",2,51.4423565,6.6201818,"Gymnasium in den Filder Benden, 43, Zahnstraße, Altstadt Moers, Vinn, Moers, Kreis Wesel, Nordrhein-Westfalen, 47447, Deutschland"
Düsseldorf,Kreis Wesel,Gymnasium,166029,"Rheinberg, Gym Amplonius",1,51.5495723,6.5943982,"Amplonius-Gymnasium, 18, Friedrich-Stender-Weg, Rheinberg, Kreis Wesel, Nordrhein-Westfalen, 47495, Deutschland"
Düsseldorf,Kreis Wesel,Gymnasium,166054,"Xanten, Gym Stiftsgymnasium",1,51.6579993,6.4521502,"Städtisches Stiftsgymnasium, 6, Johannes-Janssen-Straße, Beek, Xanten, Kreis Wesel, Nordrhein-Westfalen, 46509, Deutschland"
Düsseldorf,Kreis Wesel,Gymnasium,166066,"Neukirchen-Vluyn, Gym Julius-Stursberg",1,51.4468492,6.5496735,"Julius-Stursberg-Gymnasium, 85a, Tersteegenstraße, Vluyn, Neukirchen-Vluyn, Kreis Wesel, Nordrhein-Westfalen, 47506, Deutschland"
Düsseldorf,Kreis Wesel,Gymnasium,166078,"Moers, Gym Rheinkamp, Europaschule",3,51.4820114,6.6132023,"Gymnasium Rheinkamp Europaschule Moers, 8, Kopernikusstraße, Rheinkamp-Mitte, Rheinkamp, Moers, Kreis Wesel, Nordrhein-Westfalen, 47445, Deutschland"
Düsseldorf,Kreis Wesel,Gymnasium,166110,"Wesel, Gym Andreas-Vesalius",2,51.6591534,6.6134308,"Andreas-Vesalius-Gymnasium, 4, Ritterstraße, Zitadellenviertel, Wesel, Kreis Wesel, Nordrhein-Westfalen, 46483, Deutschland"
Düsseldorf,Kreis Wesel,Gymnasium,166121,"Wesel, Gym Konrad-Duden",2,51.6802858,6.6001696,"Konrad-Duden-Schulzentrum, 54, Barthel-Bruyn-Weg, Feldmark, Wesel, Kreis Wesel, Nordrhein-Westfalen, 46483, Deutschland"
Düsseldorf,Kreis Wesel,Gymnasium,191139,"Dinslaken, Gym Gustav-Heinemann",2,51.5777539,6.7346025,"Gustav-Heinemann-Realschule, Am Stadtbad, Bruch, Feldmark, Bruch, Dinslaken, Kreis Wesel, Nordrhein-Westfalen, 46537, Deutschland"
Düsseldorf,Rhein-Kreis Neuss,Gesamtschule,100052,"Neuss, GE Comenius-Gesamtschule",6,51.183797,6.6897139,"Comenius-Gesamtschule Städt. Schule der Sekundarstufe I + II, 213, Bergheimer Straße, Pomona, Neuss, Rhein-Kreis Neuss, Nordrhein-Westfalen, 41464, Deutschland"
Düsseldorf,Rhein-Kreis Neuss,Gesamtschule,100172,"Grevenbroich, GE 3. Gesamtschule",3,,,
Düsseldorf,Rhein-Kreis Neuss,Gesamtschule,189480,"Dormagen, GE Bertha-von-Suttner",2,51.1188449,6.7791545,"Bertha-von-Suttner-Gesamtschule, 6, Marie-Schlei-Straße, Nievenheim, Dormagen, Rhein-Kreis Neuss, Nordrhein-Westfalen, 41542, Deutschland"
Düsseldorf,Rhein-Kreis Neuss,Gesamtschule,189868,"Neuss, GE Janusz-Korczak",5,51.2005676,6.6850614,"Janusz-Korczak-Gesamtschule Neuss (Abteilung 2), 6, Platz am Niedertor, Marienviertel, Innenstadt, Neuss, Rhein-Kreis Neuss, Nordrhein-Westfalen, 41460, Deutschland"
Düsseldorf,Rhein-Kreis Neuss,Gesamtschule,190720,"Meerbusch, GE Maria-Montessori",3,51.2379054,6.6850385,"Maria-Montessori-Gesamtschule, Weißenberger Weg, Niederdonk, Büderich, Meerbusch, Rhein-Kreis Neuss, Nordrhein-Westfalen, 40667, Deutschland"
Düsseldorf,Rhein-Kreis Neuss,Gesamtschule,191486,"Neuss, GE an der Erft",4,51.1650684,6.6910858,"Gesamtschule An der Erft, 59, Aurinstraße, Reuschenberg, Neuss, Rhein-Kreis Neuss, Nordrhein-Westfalen, 41466, Deutschland"
Düsseldorf,Rhein-Kreis Neuss,Gesamtschule,191504,"Grevenbroich,GE Käthe-Kollwitz-Gesamtsch",4,,,
Düsseldorf,Rhein-Kreis Neuss,Gesamtschule,196174,"Neuss, GE Nordstadt",8,51.2112753,6.6752331,"Gesamtschule Nordstadt, 37, Leostraße, Furth-Mitte, Neuss, Rhein-Kreis Neuss, Nordrhein-Westfalen, 41462, Deutschland"
Düsseldorf,Rhein-Kreis Neuss,Gesamtschule,198146,"Grevenbroich, GE Wilhelm-von-Humboldt",4,51.0947857,6.5743074,"Wilhelm-von-Humboldt-Gesamtschule, 30-32, Hans-Sachs-Straße, Orken, Elsen, Fürth, Grevenbroich, Rhein-Kreis Neuss, Nordrhein-Westfalen, 41515, Deutschland"
Düsseldorf,Rhein-Kreis Neuss,Gesamtschule,198160,"Kaarst, GE Emmy-Noether",3,,,
Düsseldorf,Rhein-Kreis Neuss,Gesamtschule,198894,"Neuss, GE Norf",3,51.1524073,6.722756,"Gymnasium Norf, Graf-von-Pfeil-Straße, Norf, Neuss, Rhein-Kreis Neuss, Nordrhein-Westfalen, 41469, Deutschland"
Düsseldorf,Rhein-Kreis Neuss,Gesamtschule,199904,"Jüchen, GE Stadionstraße",3,51.1056603,6.516118,"Gesamtschule Jüchen, Stadionstraße, Jüchen, Rhein-Kreis Neuss, Nordrhein-Westfalen, 41363, Deutschland"
Düsseldorf,Rhein-Kreis Neuss,Gymnasium,165130,"Neuss, Gym Quirinus",4,51.196615,6.68339,"Quirinus-Gymnasium Neuss, 49, Sternstraße, Gründerzeitviertel, Innenstadt, Neuss, Rhein-Kreis Neuss, Nordrhein-Westfalen, 41460, Deutschland"
Düsseldorf,Rhein-Kreis Neuss,Gymnasium,165141,"Neuss, Gym Nelly-Sachs-Gymnasium",2,51.1850427,6.6958323,"Nelly-Sachs-Gymnasium, 65, Eichendorffstraße, Dreikönigenviertel, Neuss, Rhein-Kreis Neuss, Nordrhein-Westfalen, 41464, Deutschland"
Düsseldorf,Rhein-Kreis Neuss,Gymnasium,165165,"Neuss, Gym Alexander-von-Humboldt",4,51.1820744,6.690217,"Alexander-von-Humboldt-Gymnasium, 233, Bergheimer Straße, Pomona, Neuss, Rhein-Kreis Neuss, Nordrhein-Westfalen, 41464, Deutschland"
Düsseldorf,Rhein-Kreis Neuss,Gymnasium,165189,"Neuss, Gym Marie-Curie",5,51.2094973,6.6657935,"Europaschule Marie-Curie-Gymnasium (Standort Jostenallee), 51, Jostenallee, Buschhausen, Furth-Mitte, Neuss, Rhein-Kreis Neuss, Nordrhein-Westfalen, 41462, Deutschland"
Düsseldorf,Rhein-Kreis Neuss,Gymnasium,165712,"Grevenbroich, Gym Erasmus-Gymnasium",2,,,
Düsseldorf,Rhein-Kreis Neuss,Gymnasium,165724,"Grevenbroich, Gym Pascal-Gymnasium",2,51.0847433,6.5814268,"Pascal Gymnasium Grevenbroich, 1, Schwarzer Weg, Stadtmitte, Grevenbroich, Rhein-Kreis Neuss, Nordrhein-Westfalen, 41515, Deutschland"
Düsseldorf,Rhein-Kreis Neuss,Gymnasium,165736,"Kaarst, Gym Albert-Einstein",2,51.2254446,6.6140672,"Albert-Einstein-Gymnasium, Pasteurstraße, Kaarst, Rhein-Kreis Neuss, Nordrhein-Westfalen, 41564, Deutschland"
Düsseldorf,Rhein-Kreis Neuss,Gymnasium,165748,"Dormagen, Gym Bettina-von-Arnim",3,51.0993026,6.820221,"Bettina-von-Arnim-Gymnasium, 14, Haberlandstraße, Dormagen, Rhein-Kreis Neuss, Nordrhein-Westfalen, 41539, Deutschland"
Düsseldorf,Rhein-Kreis Neuss,Gymnasium,165750,"Meerbusch, Gym Mönkesweg",2,51.2667543,6.650828,"Mönkesweg, Bovert, Osterath, Meerbusch, Rhein-Kreis Neuss, Nordrhein-Westfalen, 40670, Deutschland"
Düsseldorf,Rhein-Kreis Neuss,Gymnasium,165761,"Meerbusch, Gym Matare, Europaschule",2,51.2412236,6.6908379,"Gymnasium (2301), Ligusterweg, Niederdonk, Büderich, Meerbusch, Rhein-Kreis Neuss, Nordrhein-Westfalen, 40667, Deutschland"
Düsseldorf,Rhein-Kreis Neuss,Gymnasium,165785,"Neuss, Gym Norf",2,51.1524073,6.722756,"Gymnasium Norf, Graf-von-Pfeil-Straße, Norf, Neuss, Rhein-Kreis Neuss, Nordrhein-Westfalen, 41469, Deutschland"
Düsseldorf,Rhein-Kreis Neuss,Gymnasium,183787,"Dormagen, Gym Leibniz",2,51.0754268,6.8107901,"Leibniz-Gymnasium, 1, Dr.-Geldmacher-Straße, Hackenbroich, Dormagen, Rhein-Kreis Neuss, Nordrhein-Westfalen, 41540, Deutschland"
Düsseldorf,Rhein-Kreis Neuss,Gymnasium,184731,"Kaarst, Gym Georg-Büchner",2,51.2228245,6.59211,"Georg-Büchner-Gymnasium der Stadt Kaarst, 1, Am Holzbüttger Haus, Linning, Büttgen, Kaarst, Rhein-Kreis Neuss, Nordrhein-Westfalen, 41564, Deutschland"
Düsseldorf,Rhein-Kreis Neuss,Gymnasium,185607,"Korschenbroich, Gym Don-Bosco-Str.",1,51.1889091,6.5140501,"Gymnasium Korschenbroich, 4-6, Don-Bosco-Straße, Korschenbroich, Rhein-Kreis Neuss, Nordrhein-Westfalen, 41352, Deutschland"
Düsseldorf,Rhein-Kreis Neuss,Gymnasium,193914,"Jüchen, Gym Jüchen",2,51.1056603,6.516118,"Gesamtschule Jüchen, Stadionstraße, Jüchen, Rhein-Kreis Neuss, Nordrhein-Westfalen, 41363, Deutschland"
Düsseldorf,Stadt Duisburg,Gesamtschule,100085,"Duisburg, GE Green-Gesamtschule",7,51.4036933,6.7089737,"Green Gesamtschule, Stormstraße, Rheinhausen, Duisburg, Nordrhein-Westfalen, 47226, Deutschland"
Düsseldorf,Stadt Duisburg,Gesamtschule,100202,"Duisburg, GE Anne-Frank Gesamtschule",5,51.3756782,6.78218,"Gesamtschule Duisburg Süd, 168-174, Großenbaumer Allee, Großenbaum, Duisburg-Süd, Duisburg, Nordrhein-Westfalen, 47269, Deutschland"
Düsseldorf,Stadt Duisburg,Gesamtschule,185267,"Duisburg, GE Süd",3,51.3756528,6.7502003,"Schulzentrum Duisburg Süd, Am Ziegelkamp, Huckingen, Duisburg-Süd, Duisburg, Nordrhein-Westfalen, 47259, Deutschland"
Düsseldorf,Stadt Duisburg,Gesamtschule,187793,"Duisburg, GE Gottfried-Wilhelm-Leibniz",5,51.4886665,6.7655257,"Leibniz-Gesamtschule, 274-278, Hamborner Straße, Hamborn, Duisburg, Nordrhein-Westfalen, 47166, Deutschland"
Düsseldorf,Stadt Duisburg,Gesamtschule,188177,"Duisburg, GE Heinrich-Heine-Schule",6,51.4086222,6.698425,"Heinrich-Heine-Gesamtschule, In den Peschen, Bergheim, Rheinhausen, Duisburg, Nordrhein-Westfalen, 47228, Deutschland"
Düsseldorf,Stadt Duisburg,Gesamtschule,188499,"Duisburg, GE Mitte",5,51.4302149,6.7906663,"Gesamtschule DU-Mitte, 49, Pappenstraße, Wabenquartier, Neudorf-Nord, Duisburg-Mitte, Duisburg, Nordrhein-Westfalen, 47057, Deutschland"
Düsseldorf,Stadt Duisburg,Gesamtschule,189261,"Duisburg, GE Meiderich",9,51.4658722,6.7852415,"Gesamtschule Meiderich, 30, Westender Straße, Ratingsee-Siedlung, Mittelmeiderich, Meiderich/Beeck, Duisburg, Nordrhein-Westfalen, 47138, Deutschland"
Düsseldorf,Stadt Duisburg,Gesamtschule,189583,"Duisburg, GE Walsum",5,51.53188,6.74011,"Gesamtschule Walsum, 51, Kurze Straße, Walsum, Duisburg, Nordrhein-Westfalen, 47179, Deutschland"
Düsseldorf,Stadt Duisburg,Gesamtschule,189595,"Duisburg, GE Erich Kästner",8,51.4461319,6.6924111,"Erich-Kästner-Gesamtschule, 87, Ehrenstraße, Hochheide, Homberg/Ruhrort/Baerl, Duisburg, Nordrhein-Westfalen, 47198, Deutschland"
Düsseldorf,Stadt Duisburg,Gesamtschule,191395,"Duisburg, GE Theodor-König",8,51.4726811,6.762046,"Theodor-König-Gesamtschule Klassen 5-6, 54, Gartsträucherstraße, Untermeiderich, Meiderich/Beeck, Duisburg, Nordrhein-Westfalen, 47137, Deutschland"
Düsseldorf,Stadt Duisburg,Gesamtschule,191474,"Duisburg, GE Emschertal",6,51.4989468,6.8091716,"Gesamtschule Emschertal - Neumühl, 11, Albert-Einstein-Straße, Siedlung Bergmannsplatz, Neumühl, Hamborn, Duisburg, Nordrhein-Westfalen, 47167, Deutschland"
Düsseldorf,Stadt Duisburg,Gesamtschule,192193,"Duisburg, GE Lise-Meitner",5,51.4004204,6.7046574,"Lise-Meitner-Gesamtschule, 3, Lessingstraße, Rheinhausen, Duisburg, Nordrhein-Westfalen, 47226, Deutschland"
Düsseldorf,Stadt Duisburg,Gesamtschule,192211,"Duisburg, GE Aletta-Haniel-Gesamtschule",6,51.4509026,6.7365142,"Aletta-Haniel-Gesamtschule (Zweigstelle), 13, Carpstraße, Ruhrort, Homberg/Ruhrort/Baerl, Duisburg, Nordrhein-Westfalen, 47119, Deutschland"
Düsseldorf,Stadt Duisburg,Gesamtschule,192405,"Duisburg, GE Herbert-Grillo",9,51.502512,6.7481102,"Herbert-Grillo-Gesamtschule, An der Paulskirche, Marxloh, Hamborn, Duisburg, Nordrhein-Westfalen, 47169, Deutschland"
Düsseldorf,Stadt Duisburg,Gesamtschule,193252,"Duisburg, GE Globus am Dellplatz",9,51.4151,6.7601205,"Gesamtschule Globus am Dellplatz (Zweigstelle), 107, Gitschiner Straße, Hochfeld, Duisburg-Mitte, Duisburg, Nordrhein-Westfalen, 47053, Deutschland"
Düsseldorf,Stadt Duisburg,Gymnasium,164549,"Duisburg, Gym Landfermann",4,51.4342765,6.7740959,"Landfermann-Gymnasium, 10, Mainstraße, Altstadt, Duisburg-Mitte, Duisburg, Nordrhein-Westfalen, 47051, Deutschland"
Düsseldorf,Stadt Duisburg,Gymnasium,164586,"Duisburg, Gym Steinbart",3,51.4277758,6.7661341,"Steinbart-Gymnasium, 45, Realschulstraße, City Wohnpark, Dellviertel, Duisburg-Mitte, Duisburg, Nordrhein-Westfalen, 47051, Deutschland"
Düsseldorf,Stadt Duisburg,Gymnasium,164604,"Duisburg, Gym Mercator",6,51.4228033,6.7580476,"Mercator-Gymnasium, 152, Musfeldstraße, City Wohnpark, Dellviertel, Duisburg-Mitte, Duisburg, Nordrhein-Westfalen, 47053, Deutschland"
Düsseldorf,Stadt Duisburg,Gymnasium,164616,"Duisburg, Gym Reinhard-u.-Max-Mannesmann",2,51.3762042,6.7512301,"Gebäude A, Reinhard-und-Max-Mannesmann-Gymnasium, 13-15, Am Ziegelkamp, Huckingen, Duisburg-Süd, Duisburg, Nordrhein-Westfalen, 47259, Deutschland"
Düsseldorf,Stadt Duisburg,Gymnasium,164665,"Duisburg, Gym Max-Planck",7,51.4661941,6.7767543,"Max-Planck-Gymnasium, 12, Werner-Wild-Straße, Mittelmeiderich, Meiderich/Beeck, Duisburg, Nordrhein-Westfalen, 47137, Deutschland"
Düsseldorf,Stadt Duisburg,Gymnasium,164677,"Duisburg, Gym Elly-Heuss-Knapp",6,51.4995031,6.7548744,"Elly-Heuss-Knapp-Gymnasium, Arnimstraße, Marxloh, Hamborn, Duisburg, Nordrhein-Westfalen, 47169, Deutschland"
Düsseldorf,Stadt Duisburg,Gymnasium,165517,"Duisburg, Gym Kopernikus",4,51.5336178,6.7382168,"Kopernikus-Gymnasium, 81, Beckersloh, Walsum, Duisburg, Nordrhein-Westfalen, 47179, Deutschland"
Düsseldorf,Stadt Duisburg,Gymnasium,165979,"Duisburg, Gym Franz-Haniel",4,51.4521593,6.7042173,"Franz-Haniel-Gymnasium, 25, Wilhelmstraße, Alt-Homberg, Homberg, Homberg/Ruhrort/Baerl, Duisburg, Nordrhein-Westfalen, 47198, Deutschland"
Düsseldorf,Stadt Duisburg,Gymnasium,166030,"Duisburg, Gym Krupp",5,51.409748,6.696803,"Europaschule Krupp-Gymnasium, In den Peschen, Bergheim, Rheinhausen, Duisburg, Nordrhein-Westfalen, 47228, Deutschland"
Düsseldorf,Stadt Duisburg,Gymnasium,166080,"Duisburg, Gym Albert-Einstein",2,51.3970094,6.655606,"Albert-Einstein-Gymnasium, Kendelstraße, Kaldenhausen, Rheinhausen, Duisburg, Nordrhein-Westfalen, 47239, Deutschland"
Düsseldorf,Stadt Düsseldorf,Gesamtschule,100185,"Düsseldorf, GE Élise Freinet",5,51.2332531,6.7073324,"Élise Freinet Gesamtschule, 23, Aldekerkstraße, Heerdt, Stadtbezirk 4, Düsseldorf, Nordrhein-Westfalen, 40549, Deutschland"
Düsseldorf,Stadt Düsseldorf,Gesamtschule,164100,"Düsseldorf, GE Dieter-Forte",8,51.1973222,6.8522531,"Dieter-Forte-Gesamtschule, 75, Heidelberger Straße, Eller, Stadtbezirk 8, Düsseldorf, Nordrhein-Westfalen, 40229, Deutschland"
Düsseldorf,Stadt Düsseldorf,Gesamtschule,188232,"Düsseldorf, GE Heinrich-Heine-Gesamtsch.",7,51.2452287,6.8183349,"Heinrich Heine Gesamtschule, 170, Graf-Recke-Straße, Düsseltal, Stadtbezirk 2, Düsseldorf, Nordrhein-Westfalen, 40237, Deutschland"
Düsseldorf,Stadt Düsseldorf,Gesamtschule,189819,"Düsseldorf, GE Hulda-Pankok-Schule",4,51.2036037,6.7912136,"Städtische Hulda-Pankok-Gesamtschule, 16, Brinckmannstraße, Bilk, Stadtbezirk 3, Düsseldorf, Nordrhein-Westfalen, 40225, Deutschland"
Düsseldorf,Stadt Düsseldorf,Gesamtschule,191863,"Düsseldorf, GE Joseph-Beuys",8,51.1988234,6.8114207,"Joseph-Beuys-Gesamtschule, 149, Siegburger Straße, Oberbilk, Stadtbezirk 3, Düsseldorf, Nordrhein-Westfalen, 40591, Deutschland"
Düsseldorf,Stadt Düsseldorf,Gesamtschule,199606,"Düsseldorf, GE Maria-Montessori",6,51.2289309,6.8238141,"Städtische Maria-Montessori-Gesamtschule, 28, Rosmarinstraße, Grafental, Flingern Nord, Stadtbezirk 2, Düsseldorf, Nordrhein-Westfalen, 40235, Deutschland"
Düsseldorf,Stadt Düsseldorf,Gesamtschule,199916,"Düsseldorf, GE Stettiner Straße",7,51.1457425,6.8988734,"Stettiner Straße, Garath, Stadtbezirk 10, Düsseldorf, Nordrhein-Westfalen, 40595, Deutschland"
Düsseldorf,Stadt Düsseldorf,Gymnasium,100015,"Düsseldorf, Gym Wim-Wenders",4,51.2111051,6.8057259,"Städtisches Wim-Wenders-Gymnasium, 25, Schmiedestraße, Oberbilk, Stadtbezirk 3, Düsseldorf, Nordrhein-Westfalen, 40227, Deutschland"
Düsseldorf,Stadt Düsseldorf,Gymnasium,100187,"Düsseldorf, Gym Bernburger Straße",3,51.1997252,6.8346662,"Gymnasium Bernburger Straße, 44, Bernburger Straße, Eller, Stadtbezirk 8, Düsseldorf, Nordrhein-Westfalen, 40229, Deutschland"
Düsseldorf,Stadt Düsseldorf,Gymnasium,164318,"Düsseldorf, Gym Goethe",4,51.2343622,6.8065673,"Goethe-Gymnasium, 57, Lindemannstraße, Düsseltal, Stadtbezirk 2, Düsseldorf, Nordrhein-Westfalen, 40237, Deutschland"
Düsseldorf,Stadt Düsseldorf,Gymnasium,164320,"Düsseldorf, Gym Humboldt",3,51.2302126,6.7920364,"Humboldt-Gymnasium, 40, Pempelforter Straße, Pempelfort, Stadtbezirk 1, Düsseldorf, Nordrhein-Westfalen, 40211, Deutschland"
Düsseldorf,Stadt Düsseldorf,Gymnasium,164343,"Düsseldorf, Gym Schloß Benrath",5,51.1647294,6.855498,"Schloß-Gymnasium Benrath, 132, Benrodestraße, Benrath, Stadtbezirk 9, Düsseldorf, Nordrhein-Westfalen, 40597, Deutschland"
Düsseldorf,Stadt Düsseldorf,Gymnasium,164355,"Düsseldorf,Gym Annette v.Droste-Hülshoff",2,,,
Düsseldorf,Stadt Düsseldorf,Gymnasium,164379,"Düsseldorf, Gym Marie-Curie",2,51.2388593,6.863384,"Marie-Curie-Gymnasium, 15, Gräulinger Straße, Gerresheim, Stadtbezirk 7, Düsseldorf, Nordrhein-Westfalen, 40625, Deutschland"
Düsseldorf,Stadt Düsseldorf,Gymnasium,164392,"Düsseldorf, Gym Cecilien, Europaschule",2,,,
Düsseldorf,Stadt Düsseldorf,Gymnasium,164409,"Düsseldorf, Gym Koblenzer Str.",4,51.1499714,6.8856721,"Gymnasium Koblenzer Straße, 2, Theodor-Litt-Straße, Urdenbach, Stadtbezirk 9, Düsseldorf, Nordrhein-Westfalen, 40593, Deutschland"
Düsseldorf,Stadt Düsseldorf,Gymnasium,164434,"Düsseldorf, Gym Comenius",2,51.2357049,6.7448843,"Comenius-Gymnasium, Lewitstraße, Niederkassel, Stadtbezirk 4, Düsseldorf, Nordrhein-Westfalen, 40547, Deutschland"
Düsseldorf,Stadt Düsseldorf,Gymnasium,164446,"Düsseldorf, Gym Görres",3,51.2212184,6.7777021,"Görres-Gymnasium, 57, Königsallee, Stadtmitte, Stadtbezirk 1, Düsseldorf, Nordrhein-Westfalen, 40212, Deutschland"
Düsseldorf,Stadt Düsseldorf,Gymnasium,164458,"Düsseldorf, Gym Geschwister-Scholl",3,51.204884,6.7919515,"Geschwister-Scholl-Gymnasium, 41, Redinghovenstraße, Bilk, Stadtbezirk 3, Düsseldorf, Nordrhein-Westfalen, 40225, Deutschland"
Düsseldorf,Stadt Düsseldorf,Gymnasium,164471,"Düsseldorf, Gym Leibniz-Montessori",3,51.2419802,6.7859934,"Leibniz-Montessori-Gymnasium, Jülicher Straße, Pempelfort, Stadtbezirk 1, Düsseldorf, Nordrhein-Westfalen, 40477, Deutschland"
Düsseldorf,Stadt Düsseldorf,Gymnasium,164483,"Düsseldorf, Gym Lessing",5,51.2163925,6.7969645,"Lessing-Gymnasium, 84, Ellerstraße, Oberbilk, Stadtbezirk 3, Düsseldorf, Nordrhein-Westfalen, 40227, Deutschland"
Düsseldorf,Stadt Düsseldorf,Gymnasium,164495,"Düsseldorf, Gym Max-Planck",3,51.2594595,6.7605938,"Max-Planck-Gymnasium, Edith-Stein-Weg, Stockum, Stadtbezirk 5, Düsseldorf, Nordrhein-Westfalen, 40474, Deutschland"
Düsseldorf,Stadt Düsseldorf,Gymnasium,164501,"Düsseldorf, Gym Luisen",4,51.2219758,6.7759802,"Luisen-Gymnasium, 24, Bastionstraße, Stadtmitte, Stadtbezirk 1, Düsseldorf, Nordrhein-Westfalen, 40213, Deutschland"
Düsseldorf,Stadt Düsseldorf,Gymnasium,164513,"Düsseldorf, Gym Gerresheim",2,51.2402597,6.8594239,"Gymnasium Gerresheim, Am Poth, Gerresheim, Stadtbezirk 7, Düsseldorf, Nordrhein-Westfalen, 40625, Deutschland"
Düsseldorf,Stadt Düsseldorf,Gymnasium,164525,"Düsseldorf, Gym Georg-Büchner-Gymnasium",2,51.2535308,6.7620927,"Georg-Büchner-Gymnasium, 3, Felix-Klein-Straße, Golzheim, Stadtbezirk 1, Düsseldorf, Nordrhein-Westfalen, 40474, Deutschland"
Düsseldorf,Stadt Düsseldorf,Gymnasium,164537,"Düsseldorf, Gym Friedrich-Rückert-Gym",4,51.2590094,6.8136281,"Friedrich-Rückert-Gymnasium, 6, Rückertstraße, Rath, Stadtbezirk 6, Düsseldorf, Nordrhein-Westfalen, 40470, Deutschland"
Düsseldorf,Stadt Essen,Gesamtschule,183076,"Essen, GE Bockmühle",9,51.4596139,6.9678301,"Gesamtschule Bockmühle, Heinrich-Strunk-Straße, Altendorf, Stadtbezirk III, Essen, Nordrhein-Westfalen, 45143, Deutschland"
Düsseldorf,Stadt Essen,Gesamtschule,187770,"Essen, GE Gustav-Heinemann-Gesamtschule",8,51.4864024,7.0548655,"Gustav-Heinemann-Gesamtschule, 1, Schonnebeckhöfe, Schonnebeck, Stadtbezirk VI, Essen, Nordrhein-Westfalen, 45309, Deutschland"
Düsseldorf,Stadt Essen,Gesamtschule,189080,"Essen, GE Frida-Levy-Gesamtschule",9,51.4542968,7.0184648,"Frida-Levy-Gesamtschule, Steeler Straße, Ostviertel, Stadtbezirk I, Essen, Nordrhein-Westfalen, 45127, Deutschland"
Düsseldorf,Stadt Essen,Gesamtschule,189820,"Essen, GE Erich-Kästner-Schule",8,51.4524198,7.0895969,"Erich Kästner-Gesamtschule, 6-8, Pinxtenweg, Steele, Stadtbezirk VII, Essen, Nordrhein-Westfalen, 45276, Deutschland"
Düsseldorf,Stadt Essen,Gesamtschule,190895,"Essen, GE Nord",9,51.492205,6.9862336,"Gesamtschule Essen-Nord, Forststraße, Vogelheim, Stadtbezirk V, Essen, Nordrhein-Westfalen, 45356, Deutschland"
Düsseldorf,Stadt Essen,Gesamtschule,191334,"Essen, GE Borbeck",5,51.4780477,6.953105,"Gymnasium Borbeck, 46, Prinzenstraße, Bergeborbeck, Stadtbezirk IV, Essen, Nordrhein-Westfalen, 45355, Deutschland"
Düsseldorf,Stadt Essen,Gesamtschule,193501,"Essen, GE Holsterhausen",5,51.4390571,6.9881114,"Gesamtschule Holsterhausen, Rubensstraße, Holsterhausen, Stadtbezirk III, Essen, Nordrhein-Westfalen, 45147, Deutschland"
Düsseldorf,Stadt Essen,Gymnasium,164719,"Essen, Gym Werden",1,51.3904177,7.0006848,"Gymnasium Essen-Werden, Grafenstraße, Werden, Stadtbezirk IX, Essen, Nordrhein-Westfalen, 45239, Deutschland"
Düsseldorf,Stadt Essen,Gymnasium,164732,"Essen, Gym Grashof",1,51.4166367,6.9879772,"Grashof Gymnasium, Grashofstraße, Bredeney, Stadtbezirk IX, Essen, Nordrhein-Westfalen, 45133, Deutschland"
Düsseldorf,Stadt Essen,Gymnasium,164744,"Essen, Gym Mädchengymnasium Borbeck",5,51.472726,6.9448068,"Mädchengymnasium Essen-Borbeck, 52-54, Fürstäbtissinstraße, Borbeck-Mitte, Stadtbezirk IV, Essen, Nordrhein-Westfalen, 45355, Deutschland"
Düsseldorf,Stadt Essen,Gymnasium,164756,"Essen, Gym Burg",6,,,
Düsseldorf,Stadt Essen,Gymnasium,164770,"Essen, Gym Leibniz",6,51.4925575,7.0132354,"Leibniz-Gymnasium, 22-24, Stankeitstraße, Altenessen-Süd, Altenessen, Stadtbezirk V, Essen, Nordrhein-Westfalen, 45326, Deutschland"
Düsseldorf,Stadt Essen,Gymnasium,164781,"Essen, Gym Goethe",1,51.4357468,7.0012064,"Goethestraße, Rüttenscheid, Stadtbezirk II, Essen, Nordrhein-Westfalen, 45130, Deutschland"
Düsseldorf,Stadt Essen,Gymnasium,164800,"Essen, Gym Helmholtz",3,51.4370634,7.0164182,"Helmholtz-Gymnasium, 83, Rosastraße, Witteringsfeld, Rüttenscheid, Stadtbezirk II, Essen, Nordrhein-Westfalen, 45130, Deutschland"
Düsseldorf,Stadt Essen,Gymnasium,164811,"Essen, Gym Maria-Wächtler",3,51.4368814,7.0142068,"Maria-Wächtler-Gymnasium, Rosastraße, Witteringsfeld, Rüttenscheid, Stadtbezirk II, Essen, Nordrhein-Westfalen, 45130, Deutschland"
Düsseldorf,Stadt Essen,Gymnasium,164835,"Essen, Gym UNESCO/ Aufbaugymnasium",9,,,
Düsseldorf,Stadt Essen,Gymnasium,164847,"Essen, Gym Nord-Ost",7,51.4704119,7.0224415,"Gymnasium Essen Nord-Ost, 77, 79, Katzenbruchstraße, Eltingviertel, Nordviertel, Stadtbezirk I, Essen, Nordrhein-Westfalen, 45141, Deutschland"
Düsseldorf,Stadt Essen,Gymnasium,164859,"Essen, Gym Prinzenstr.",5,51.4793856,6.9519678,"Prinzenstraße, Bergeborbeck, Stadtbezirk IV, Essen, Nordrhein-Westfalen, 45355, Deutschland"
Düsseldorf,Stadt Essen,Gymnasium,164872,"Essen, Gym Carl-Humann",3,51.4480863,7.0708972,"Carl-Humann-Gymnasium, Graffweg, Steele, Stadtbezirk VII, Essen, Nordrhein-Westfalen, 45276, Deutschland"
Düsseldorf,Stadt Essen,Gymnasium,164884,"Essen, Gym Alfred-Krupp-Schule",8,51.4504466,6.9834295,"Alfred-Krupp-Schule, Lise-Meitner-Straße, Frohnhausen, Stadtbezirk III, Essen, Nordrhein-Westfalen, 45144, Deutschland"
Düsseldorf,Stadt Essen,Gymnasium,164902,"Essen, Gym an der Wolfskuhle",4,51.4516034,7.0898259,"Gymnasium an der Wolfskuhle, 6-8, Pinxtenweg, Steele, Stadtbezirk VII, Essen, Nordrhein-Westfalen, 45276, Deutschland"
Düsseldorf,Stadt Essen,Gymnasium,165578,"Essen, Gym Theodor-Heuss",1,51.436986,7.0356485,"Theodor Heuss Schule, Elbestraße, Bergerhausen, Stadtbezirk II, Essen, Nordrhein-Westfalen, 45136, Deutschland"
Düsseldorf,Stadt Essen,Gymnasium,184640,"Essen, Gym Überruhr",3,51.4207533,7.0816056,"Grundschule Überruhr, Dellmannsweg, Überruhr-Holthausen, Stadtbezirk VIII, Essen, Nordrhein-Westfalen, 45277, Deutschland"
Düsseldorf,Stadt Krefeld,Gesamtschule,189273,"Krefeld, GE Kaiserplatz",8,51.344302,6.5905946,"Gesamtschule Kaiserplatz, Kaiserstraße, Stadtwald, Bockum, Krefeld-Ost, Krefeld, Nordrhein-Westfalen, 47800, Deutschland"
Düsseldorf,Stadt Krefeld,Gesamtschule,190020,"Krefeld, GE Robert-Jungk-Gesamtschule",4,51.3696161,6.4962884,"Robert-Jungk-Gesamtschule, 40, Reepenweg, Hüls, Krefeld-Hüls, Krefeld, Nordrhein-Westfalen, 47839, Deutschland"
Düsseldorf,Stadt Krefeld,Gesamtschule,191024,"Krefeld, GE Kurt-Tucholsky",9,51.3213637,6.5552982,"Kurt-Tucholsky-Gesamtschule, Alte Gladbacher Straße, Krefeld-Mitte, Krefeld-Süd, Krefeld, Nordrhein-Westfalen, 47805, Deutschland"
Düsseldorf,Stadt Krefeld,Gesamtschule,198262,"Krefeld, GE Uerdingen",5,51.3581585,6.6368871,"Gymnasium am Stadtpark Uerdingen, 31, Nikolaus-Groß-Straße, Uerdingen, Krefeld-Uerdingen, Krefeld, Nordrhein-Westfalen, 47829, Deutschland"
Düsseldorf,Stadt Krefeld,Gesamtschule,199941,"Krefeld, GE am Botanischen Garten",6,,,
Düsseldorf,Stadt Krefeld,Gymnasium,164914,"Krefeld, Gym Horkesgath",4,51.3367157,6.5300161,"Schulzentrum Horkesgath, 3, Horkesgath, Schicksbaum, Benrad, Krefeld-West, Krefeld, Nordrhein-Westfalen, 47803, Deutschland"
Düsseldorf,Stadt Krefeld,Gymnasium,164926,"Krefeld, Gym Fabritianum",1,51.3494145,6.6418169,"Gymnasium Fabritianum, Fabritiusstraße, Uerdingen, Krefeld-Uerdingen, Krefeld, Nordrhein-Westfalen, 47829, Deutschland"
Düsseldorf,Stadt Krefeld,Gymnasium,164940,"Krefeld, Gym Hannah-Arendt",9,51.3321124,6.555478,"Hannah-Arendt-Gymnasium, Sankt-Anton-Straße, Cracau, Krefeld-Mitte, Krefeld-West, Krefeld, Nordrhein-Westfalen, 47798, Deutschland"
Düsseldorf,Stadt Krefeld,Gymnasium,164951,"Krefeld, Gym am Stadtpark",2,51.3581585,6.6368871,"Gymnasium am Stadtpark Uerdingen, 31, Nikolaus-Groß-Straße, Uerdingen, Krefeld-Uerdingen, Krefeld, Nordrhein-Westfalen, 47829, Deutschland"
Düsseldorf,Stadt Krefeld,Gymnasium,164975,"Krefeld, Gym Maria-Sibylla-Merian",3,51.3127234,6.5859727,"Maria-Sibylla-Merian-Gymnasium, Wichernstraße, Königshof, Fischeln, Krefeld-Fischeln, Krefeld, Nordrhein-Westfalen, 47807, Deutschland"
Düsseldorf,Stadt Krefeld,Gymnasium,164987,"Krefeld, Gym Am Moltkeplatz",3,51.3392614,6.5789911,"Gymnasium am Moltkeplatz, 12, Moltkeplatz, Cracau, Krefeld-Mitte, Krefeld, Nordrhein-Westfalen, 47799, Deutschland"
Düsseldorf,Stadt Krefeld,Gymnasium,164999,"Krefeld, Gym Ricarda-Huch",3,51.3393284,6.5662449,"Ricarda-Huch-Schule, Moerser Straße, Cracau, Krefeld-Mitte, Krefeld, Nordrhein-Westfalen, 47798, Deutschland"
Düsseldorf,Stadt Mönchengladbach,Gesamtschule,189145,"Mönchengladbach, GE Espenstraße",9,51.1538811,6.4285107,"Gesamtschule Espenstraße, Urftstraße, Rheydt-West, Schmölderpark, Süd, Mönchengladbach, Nordrhein-Westfalen, 41239, Deutschland"
Düsseldorf,Stadt Mönchengladbach,Gesamtschule,189832,"Mönchengladbach, GE Volksgarten",8,51.1888432,6.4464733,"Gesamtschule Volksgarten, Werrastraße, Hardterbroich-Pesch, Ost, Mönchengladbach, Nordrhein-Westfalen, 41065, Deutschland"
Düsseldorf,Stadt Mönchengladbach,Gesamtschule,190998,"Mönchengladbach, GE Hardt",3,51.1987532,6.350407,"Gesamtschule Hardt, Am Aschenkrug, Hardt-Mitte, Nord, Mönchengladbach, Nordrhein-Westfalen, 41169, Deutschland"
Düsseldorf,Stadt Mönchengladbach,Gesamtschule,193355,"Mönchengladbach, GE Rheydt-Mülfort",6,51.1526705,6.456534,"Gesamtschule Rheydt-Mülfort, Realschulstraße, Dohr, Mülfort, Süd, Mönchengladbach, Nordrhein-Westfalen, 41238, Deutschland"
Düsseldorf,Stadt Mönchengladbach,Gesamtschule,194864,"Mönchengladbach, GE Hans-Jonas Neuwerk",6,51.2195834,6.4658517,"Hans-Jonas-Gesamtschule Neuwerk, Compesstraße, Engelbleck, Neuwerk-Mitte, Ost, Mönchengladbach, Nordrhein-Westfalen, 41066, Deutschland"
Düsseldorf,Stadt Mönchengladbach,Gesamtschule,196186,"Mönchengladbach, GE Theo-Hespers",6,51.2010637,6.4083151,"Theo Hespers Gesamtschule, Karl-Fegers-Straße, Waldhausen, Nord, Mönchengladbach, Nordrhein-Westfalen, 41068, Deutschland"
Düsseldorf,Stadt Mönchengladbach,Gymnasium,165049,"Mönchengladbach, Gym Am Geroweiher",3,51.1935329,6.4262716,"Gymnasium am Geroweiher, Hittastraße, Gladbach, Nord, Mönchengladbach, Nordrhein-Westfalen, 41061, Deutschland"
Düsseldorf,Stadt Mönchengladbach,Gymnasium,165050,"Mönchengladbach, Gym Math., Naturw.",5,,,
Düsseldorf,Stadt Mönchengladbach,Gymnasium,165062,"Mönchengladbach, Gym Stift. Humanist.",4,51.139042,6.4564389,"Gymnasium Odenkirchen, 43, Mülgaustraße, Odenkirchen, Odenkirchen-Mitte, Süd, Mönchengladbach, Nordrhein-Westfalen, 41199, Deutschland"
Düsseldorf,Stadt Mönchengladbach,Gymnasium,165086,"Mönchengladbach, Gym Rheindahlen",2,51.1499844,6.367787,"Gymnasium Rheindahlen, 29, Geusenstraße, Rheindahlen, Rheindahlen-Mitte, West, Mönchengladbach, Nordrhein-Westfalen, 41179, Deutschland"
Düsseldorf,Stadt Mönchengladbach,Gymnasium,165293,"Mönchengladbach, Gym Hugo-Junkers",5,51.1707463,6.4449769,"Hugo-Junkers-Gymnasium, Pahlkestraße, Rheydt, Süd, Mönchengladbach, Nordrhein-Westfalen, 41236, Deutschland"
Düsseldorf,Stadt Mönchengladbach,Gymnasium,165300,"Mönchengladbach, Gym an der Gartenstraße",4,51.1744267,6.4478354,"Gymnasium an der Gartenstraße, Seminarstraße, Grenzland-Stadion, Süd, Mönchengladbach, Nordrhein-Westfalen, 41236, Deutschland"
Düsseldorf,Stadt Mönchengladbach,Gymnasium,165311,"Mönchengladbach, Gym Odenkirchen",4,51.139042,6.4564389,"Gymnasium Odenkirchen, 43, Mülgaustraße, Odenkirchen, Odenkirchen-Mitte, Süd, Mönchengladbach, Nordrhein-Westfalen, 41199, Deutschland"
Düsseldorf,Stadt Mönchengladbach,Gymnasium,184688,"Mönchengladbach, Gym Franz-Meyers",2,51.157481,6.4849846,"Franz-Meyers-Gymnasium, 1, Asternweg, Giesenkirchen, Giesenkirchen-Mitte, Ost, Mönchengladbach, Nordrhein-Westfalen, 41238, Deutschland"
Düsseldorf,Stadt Mülheim a.d.Ruhr,Gesamtschule,164136,"Mülheim an der Ruhr, GE Gustav-Heinemann",5,51.4494913,6.9023288,"Gustav-Heinemann-Schule, Boverstraße, Sellerbeck, Altstadt II, Rechtsruhr-Süd, Mülheim an der Ruhr, Nordrhein-Westfalen, 45473, Deutschland"
Düsseldorf,Stadt Mülheim a.d.Ruhr,Gesamtschule,188189,"Mülheim an der Ruhr, GE Saarn",7,51.3996296,6.8707474,"Gesamtschule Saarn, 67, Lehnerstraße, Lehn, Saarn, Linksruhr, Mülheim an der Ruhr, Nordrhein-Westfalen, 45481, Deutschland"
Düsseldorf,Stadt Mülheim a.d.Ruhr,Gesamtschule,189078,"Mülheim an der Ruhr, GE Willy-Brandt",8,51.4534673,6.8597692,"Willy-Brandt-Schule, Oberhausener Straße, Styrum, Rechtsruhr-Nord, Mülheim an der Ruhr, Nordrhein-Westfalen, 45476, Deutschland"
Düsseldorf,Stadt Mülheim a.d.Ruhr,Gymnasium,165098,"Mülheim an der Ruhr, Gym Karl-Ziegler",4,51.4228825,6.8813878,"Karl-Ziegler-Schule, 2-6, Schulstraße, Innenstadt, Altstadt I, Rechtsruhr-Süd, Mülheim an der Ruhr, Nordrhein-Westfalen, 45468, Deutschland"
Düsseldorf,Stadt Mülheim a.d.Ruhr,Gymnasium,165104,"Mülheim an der Ruhr, Gym Luisenschule",2,51.4225808,6.9001438,"Luisenschule, 36, An den Buchen, Holthausen, Menden-Holthausen, Rechtsruhr-Süd, Mülheim an der Ruhr, Nordrhein-Westfalen, 45470, Deutschland"
Düsseldorf,Stadt Mülheim a.d.Ruhr,Gymnasium,165116,"Mülheim an der Ruhr, Gym Broich",2,51.4210236,6.8626902,"Gymnasium Broich, 21, Ritterstraße, Broicher Mitte, Broich, Linksruhr, Mülheim an der Ruhr, Nordrhein-Westfalen, 45479, Deutschland"
Düsseldorf,Stadt Mülheim a.d.Ruhr,Gymnasium,165128,"Mülheim an der Ruhr, Gym Otto-Pankok",3,51.4263967,6.8953646,"Otto-Pankok-Schule, 81, Von-Bock-Straße, Altstadt I, Rechtsruhr-Süd, Mülheim an der Ruhr, Nordrhein-Westfalen, 45468, Deutschland"
Düsseldorf,Stadt Mülheim a.d.Ruhr,Gymnasium,185322,"Mülheim an der Ruhr, Gym Heißen",2,51.4272384,6.9400695,"Gymnasium Heißen, 50-52, Kleiststraße, Fulerum, Heißen, Rechtsruhr-Süd, Mülheim an der Ruhr, Nordrhein-Westfalen, 45472, Deutschland"
Düsseldorf,Stadt Oberhausen,Gesamtschule,100207,"Oberhausen, GE an der Knappenstraße",6,51.4686602,6.8823568,"Gesamtschule an der Knappenstraße, ehemaliges Niederrhein Kolleg, Wehrstraße, Unterdümpten, Alt-Oberhausen, Oberhausen, Nordrhein-Westfalen, 46047, Deutschland"
Düsseldorf,Stadt Oberhausen,Gesamtschule,164148,"Oberhausen, GE Osterfeld",8,51.5041272,6.8888492,"Gesamtschule Osterfeld, Heinestraße, Osterfeld, Oberhausen, Nordrhein-Westfalen, 46117, Deutschland"
Düsseldorf,Stadt Oberhausen,Gesamtschule,187781,"Oberhausen, GE Heinrich-Böll",4,51.5437884,6.818412,"Heinrich-Böll-Gesamtschule, Auguststraße, Waldhuck, Schmachtendorf, Sterkrade, Oberhausen, Nordrhein-Westfalen, 46147, Deutschland"
Düsseldorf,Stadt Oberhausen,Gesamtschule,189844,"Oberhausen, GE Fasia-Jansen-Gesamtschule",9,51.4729686,6.8625107,"Fasia-Jansen-Gesamtschule, Schwartzstraße, Marienviertel, Alt-Oberhausen, Oberhausen, Nordrhein-Westfalen, 46045, Deutschland"
Düsseldorf,Stadt Oberhausen,Gesamtschule,193379,"Oberhausen, GE Weierheide",4,51.5037702,6.8330202,"Gesamtschule Weierheide, Mecklenburger Straße, Buschhausen, Sterkrade, Oberhausen, Nordrhein-Westfalen, 46149, Deutschland"
Düsseldorf,Stadt Oberhausen,Gymnasium,165190,"Oberhausen, Gym Bertha-von-Suttner",5,51.4773287,6.8701752,"Bertha-von-Suttner-Gymnasium, Lipperheidstraße, Schlad, Neue Mitte, Alt-Oberhausen, Oberhausen, Nordrhein-Westfalen, 46047, Deutschland"
Düsseldorf,Stadt Oberhausen,Gymnasium,165207,"Oberhausen, Gym Heinrich-Heine",6,51.4722508,6.8650917,"Heinrich-Heine-Gymnasium, Lohstraße, Marienviertel, Alt-Oberhausen, Oberhausen, Nordrhein-Westfalen, 46047, Deutschland"
Düsseldorf,Stadt Oberhausen,Gymnasium,165219,"Oberhausen, Gym Elsa-Brändström",6,51.4717209,6.855988,"Elsa Brändström Gymnasium, Otto-Dibelius-Straße, Alt-Oberhausen, Oberhausen, Nordrhein-Westfalen, 46045, Deutschland"
Düsseldorf,Stadt Oberhausen,Gymnasium,165220,"Oberhausen, Gym Sophie-Scholl",3,51.5193376,6.8479993,"Sophie-Scholl-Gymnasium, 41, Tirpitzstraße, Alsfeld, Sterkrade, Oberhausen, Nordrhein-Westfalen, 46145, Deutschland"
Düsseldorf,Stadt Oberhausen,Gymnasium,165244,"Oberhausen, Gym Freiherr-vom-Stein",2,51.5213811,6.8441404,"Freiherr-vom-Stein-Gymnasium, 77, Wilhelmstraße, Alsfeld, Sterkrade, Oberhausen, Nordrhein-Westfalen, 46145, Deutschland"
Düsseldorf,Stadt Remscheid,Gesamtschule,189285,"Remscheid, GE Albert-Einstein-Schule",8,51.1791364,7.1871114,"Albert-Einstein-Schule, 6-8, Brüderstraße, Blumental, Gemarkung Remscheid, Alt-Remscheid, Remscheid, Nordrhein-Westfalen, 42853, Deutschland"
Düsseldorf,Stadt Remscheid,Gesamtschule,191012,"Remscheid, GE Sophie-Scholl",3,51.182055,7.2194042,"Sophie-Scholl-Gesamtschule, 25-27, Hohenhagener Straße, Gemarkung Remscheid, Remscheid-Süd, Remscheid, Nordrhein-Westfalen, 42855, Deutschland"
Düsseldorf,Stadt Remscheid,Gymnasium,165256,"Remscheid, Gym Leibniz-Gymnasium",2,51.2159524,7.230268,"Leibniz-Gymnasium, Dachsweg, Lüttringhausen, Remscheid, Nordrhein-Westfalen, 42899, Deutschland"
Düsseldorf,Stadt Remscheid,Gymnasium,165268,"Remscheid, Gym Gertrud-Bäumer",2,51.184007,7.1792403,"Gertrud-Bäumer-Gymnasium, Hindenburgstraße, Büchen, Gemarkung Remscheid, Alt-Remscheid, Remscheid, Nordrhein-Westfalen, 42853, Deutschland"
Düsseldorf,Stadt Remscheid,Gymnasium,165270,"Remscheid, Gym Emma-Herwegh",4,51.1825454,7.1910056,"Emma-Herwegh-Gymnasium, 48, Elberfelder Straße, Gemarkung Remscheid, Alt-Remscheid, Remscheid, Nordrhein-Westfalen, 42853, Deutschland"
Düsseldorf,Stadt Remscheid,Gymnasium,165281,"Remscheid, Gym Röntgen",2,51.1939764,7.2677568,"Röntgen-Gymnasium, 10-18, Röntgenstraße, Gemarkung Lennep, Lennep, Remscheid, Nordrhein-Westfalen, 42897, Deutschland"
Düsseldorf,Stadt Solingen,Gesamtschule,100203,"Solingen, GE Vogelsang",6,51.1860012,7.0622029,"Gymnasium Vogelsang, 33, Vogelsang, SBV Siedlung Wasserturm, Gräfrath, Solingen, Nordrhein-Westfalen, 42653, Deutschland"
Düsseldorf,Stadt Solingen,Gesamtschule,188300,"Solingen, GE Alexander-Coppel",6,51.1750624,7.0995306,"Alexander-Coppel-Gesamtschule, Robert-Koch-Straße, Altenbau, Solingen-Mitte, Solingen, Nordrhein-Westfalen, 42651, Deutschland"
Düsseldorf,Stadt Solingen,Gesamtschule,188890,"Solingen, GE Geschwister-Scholl-Schule",5,51.1613866,7.0146938,"Geschwister-Scholl-Gesamtschule, 42, Querstraße, Anker, Ohligs/Aufderhöhe/Merscheid, Solingen, Nordrhein-Westfalen, 42699, Deutschland"
Düsseldorf,Stadt Solingen,Gesamtschule,190913,"Solingen, GE Friedrich-Albert-Lange",2,51.1838797,7.0393945,"Friedrich-Albert-Lange Schule, Altenhofer Straße, Wald, Solingen, Nordrhein-Westfalen, 42719, Deutschland"
Düsseldorf,Stadt Solingen,Gesamtschule,198717,"Solingen, GE Höhscheid",7,51.1594105,7.0776057,"Gesamtschule Höhscheid, 20, Kanalstraße, Weeger Hof, Höhscheid/Burg, Solingen, Nordrhein-Westfalen, 42657, Deutschland"
Düsseldorf,Stadt Solingen,Gymnasium,165335,"Solingen, Gym Humboldt",2,51.1715025,7.0200264,"Humboldtgymnasium, 5, Humboldtstraße, Bech, Wald, Solingen, Nordrhein-Westfalen, 42719, Deutschland"
Düsseldorf,Stadt Solingen,Gymnasium,165347,"Solingen, Gym Schwertstraße",3,51.1689283,7.0901993,"Gymnasium Schwertstraße, Schwertstraße, Mitte, Solingen-Mitte, Solingen, Nordrhein-Westfalen, 42651, Deutschland"
Düsseldorf,Stadt Solingen,Gymnasium,165359,"Solingen, Gym August-Dicke",3,51.1655003,7.095402,"August Dicke Schule, 44, Schützenstraße, Mitte, Solingen-Mitte, Solingen, Nordrhein-Westfalen, 42659, Deutschland"
Düsseldorf,Stadt Solingen,Gymnasium,165360,"Solingen, Gym Vogelsang",3,51.1860012,7.0622029,"Gymnasium Vogelsang, 33, Vogelsang, SBV Siedlung Wasserturm, Gräfrath, Solingen, Nordrhein-Westfalen, 42653, Deutschland"
Düsseldorf,Stadt Wuppertal,Gesamtschule,185772,"Wuppertal, GE Erich-Fried-Gesamtschule",3,51.224103,7.1892234,"Erich-Fried-Gesamtschule, 70, An der Blutfinke, Stall, Gemarkung Ronsdorf, Wuppertal, Nordrhein-Westfalen, 42369, Deutschland"
Düsseldorf,Stadt Wuppertal,Gesamtschule,188669,"Wuppertal, GE Else Lasker-Schüler",8,51.2614414,7.1512654,"Else-Lasker-Schüler Gesamtschule, Lohsgasse, Ostersbaum, Gemarkung Elberfeld, Elberfeld, Wuppertal, Nordrhein-Westfalen, 42107, Deutschland"
Düsseldorf,Stadt Wuppertal,Gesamtschule,189066,"Wuppertal, GE Pina-Bausch",4,51.2312216,7.0916823,"Pina-Bausch-Gesamtschule Vohwinkel, Werderstraße, Vohwinkel, Gemarkung Vohwinkel, Vohwinkel, Wuppertal, Nordrhein-Westfalen, 42329, Deutschland"
Düsseldorf,Stadt Wuppertal,Gesamtschule,189856,"Wuppertal, GE Langerfeld",7,51.2844484,7.2372399,"Gesamtschule Langerfeld, Caronstraße, Hilgershöhe, Gemarkung Langerfeld, Langerfeld-Beyenburg, Wuppertal, Nordrhein-Westfalen, 42389, Deutschland"
Düsseldorf,Stadt Wuppertal,Gesamtschule,192806,"Wuppertal, GE Barmen",6,51.2672827,7.1864641,"Gesamtschule Barmen, Wasserstraße, Unterbarmen, Gemarkung Barmen, Wuppertal, Nordrhein-Westfalen, 42283, Deutschland"
Düsseldorf,Stadt Wuppertal,Gesamtschule,197397,"Wuppertal, GE Uellendahl-Katernberg",6,51.270216,7.1228445,"Gesamtschule Uellendahl-Katernberg, Kruppstraße, Katernberg, Gemarkung Elberfeld, Uellendahl-Katernberg, Wuppertal, Nordrhein-Westfalen, 42113, Deutschland"
Düsseldorf,Stadt Wuppertal,Gymnasium,165372,"Wuppertal, Gym Bayreuther Str.",4,51.2614037,7.1288164,"Städtisches Gymnasium Bayreuther Straße, Bayreuther Straße, Ölberg, Gemarkung Elberfeld, Elberfeld-West, Wuppertal, Nordrhein-Westfalen, 42115, Deutschland"
Düsseldorf,Stadt Wuppertal,Gymnasium,165384,"Wuppertal, Gym Carl-Fuhlrott",2,51.2638911,7.134489,"Johann Carl Fuhlrott, Hochstraße, Ölberg, Gemarkung Elberfeld, Elberfeld, Wuppertal, Nordrhein-Westfalen, 42105, Deutschland"
Düsseldorf,Stadt Wuppertal,Gymnasium,165402,"Wuppertal, Gym Carl-Duisberg",5,51.2776422,7.2208434,"Carl-Duisberg-Gymnasium, 10, Max-Planck-Straße, Bergisches Plateau, Gemarkung Barmen, Oberbarmen, Wuppertal, Nordrhein-Westfalen, 42277, Deutschland"
Düsseldorf,Stadt Wuppertal,Gymnasium,165414,"Wuppertal, Gym Vohwinkel",4,51.2312019,7.0803663,"Gymnasium Vohwinkel, 21, Goerdelerstraße, Vohwinkel, Gemarkung Vohwinkel, Vohwinkel, Wuppertal, Nordrhein-Westfalen, 42329, Deutschland"
Düsseldorf,Stadt Wuppertal,Gymnasium,165438,"Wuppertal, Gym Wilhelm-Dörpfeld-Gym",4,51.2538835,7.1440413,"Wilhelm-Dörpfeld-Gymnasium, Kleeblatt, Elberfeld, Gemarkung Elberfeld, Elberfeld, Wuppertal, Nordrhein-Westfalen, 42103, Deutschland"
Düsseldorf,Stadt Wuppertal,Gymnasium,165451,"Wuppertal, Gym Am Kothen",4,51.2579937,7.1831254,"Gymnasium Am Kothen, 34, Schluchtstraße, Unterbarmen, Gemarkung Barmen, Wuppertal, Nordrhein-Westfalen, 42285, Deutschland"
Düsseldorf,Stadt Wuppertal,Gymnasium,165463,"Wuppertal, Gym Johannes Rau",8,51.2874801,7.2146379,"Johannes-Rau-Schule, Kreuzstraße, Wichlinghausen, Gemarkung Barmen, Oberbarmen, Wuppertal, Nordrhein-Westfalen, 42277, Deutschland"
Düsseldorf,Stadt Wuppertal,Gymnasium,165475,"Wuppertal, Gym Sedanstr.",6,51.2723757,7.196708,"Städtisches Gymnasium Sedanstraße, 14, Sedanstraße, Sedansberg, Gemarkung Barmen, Wuppertal, Nordrhein-Westfalen, 42275, Deutschland"
Köln,Kreis Düren,Gesamtschule,189390,"Langerwehe, GE Josef-Schwarz-Straße",2,50.8171799,6.3639355,"Josef-Schwarz-Straße, Langerwehe, Pier, Langerwehe, Kreis Düren, Nordrhein-Westfalen, 52379, Deutschland"
Köln,Kreis Düren,Gesamtschule,189522,"Düren, GE Heinrich-Böll",8,50.8066942,6.5037404,"Heinrich-Böll-Gesamtschule, 120, Girbelsrather Straße, Grüngürtel, Düren, Kreis Düren, Nordrhein-Westfalen, 52351, Deutschland"
Köln,Kreis Düren,Gesamtschule,189959,"Düren, GE Anne-Frank",5,50.817712,6.4464436,"Anne-Frank-Gesamtschule, 3, Kupfermühle, Getzerhof, Mariaweiler-Hoven, Mariaweiler, Düren, Kreis Düren, Nordrhein-Westfalen, 52353, Deutschland"
Köln,Kreis Düren,Gesamtschule,191851,"Merzenich, GE Schulstraße",2,50.8281535,6.5271396,"Gesamtschule Niederzier/Merzenich, 7, Schulstraße, Morschenich, Merzenich, Kreis Düren, Nordrhein-Westfalen, 52399, Deutschland"
Köln,Kreis Düren,Gesamtschule,199175,"Aldenhoven, GE Pestalozziring",3,50.8969033,6.2944541,"Gesamtschule Aldenhoven-Linnich, 12-18, Pestalozziring, Aldenhoven, Kreis Düren, Nordrhein-Westfalen, 52457, Deutschland"
Köln,Kreis Düren,Gymnasium,167526,"Düren, Gym Rurtal",3,50.8070445,6.4891963,"Rurtal-Gymnasium, 17, Bismarckstraße, Grüngürtel, Düren, Kreis Düren, Nordrhein-Westfalen, 52351, Deutschland"
Köln,Kreis Düren,Gymnasium,167538,"Düren, Gym Burgau",3,50.7870894,6.4932666,"Burgau-Gymnasium, 5, Karl-Arnold-Straße, Düren, Kreis Düren, Nordrhein-Westfalen, 52349, Deutschland"
Köln,Kreis Düren,Gymnasium,167540,"Düren, Gym am Wirteltor",4,50.8071832,6.4861227,"Gymnasium am Wirteltor, 1, Hans-Brückmann-Straße, Düren, Kreis Düren, Nordrhein-Westfalen, 52351, Deutschland"
Köln,Kreis Düren,Gymnasium,167587,"Jülich, Gym Zitadelle",2,50.9249442,6.3558623,"Gymnasium Zitadelle, 39, Düsseldorfer Straße, Jülich, Kreis Düren, Nordrhein-Westfalen, 52428, Deutschland"
Köln,Kreis Düren,Gymnasium,192090,"Kreuzau, Gym Am Wassergarten",1,50.7450857,6.4852581,"Am Wassergarten, Winden, Kreuzau, Kreis Düren, Nordrhein-Westfalen, 52372, Deutschland"
Köln,Kreis Euskirchen,Gesamtschule,191929,"Weilerswist, GE Martin-Luther-Str.",2,50.748936,6.8403032,"Gesamtschule Weilerswist, Martin-Luther-Straße, Weilerswist, Kreis Euskirchen, Nordrhein-Westfalen, 53919, Deutschland"
Köln,Kreis Euskirchen,Gesamtschule,197774,"Blankenheim, GE Eifel",2,50.435422,6.6586907,"Gesamtschule Eifel - Standort Blankenheim Sek I, 8, Finkenberg, Blankenheim, Kreis Euskirchen, Nordrhein-Westfalen, 53945, Deutschland"
Köln,Kreis Euskirchen,Gesamtschule,199023,"Euskirchen, GE Geschwister-Graf",5,50.660682,6.7935814,"Geschwister-Graf-Gesamtschule Euskirchen, Kölner Straße, Altstadt, Euskirchen, Kreis Euskirchen, Nordrhein-Westfalen, 53879, Deutschland"
Köln,Kreis Euskirchen,Gesamtschule,199503,"Mechernich, GE Heinrich-Heidenthal-Str.",2,50.5910613,6.6588189,"Gesamtschule Mechernich, 5, Heinrich-Heidenthal-Straße, Kommern-Süd, Mechernich, Kreis Euskirchen, Nordrhein-Westfalen, 53894, Deutschland"
Köln,Kreis Euskirchen,Gymnasium,166790,"Euskirchen, Gym Marienschule",2,50.6556464,6.7772117,"Marienschule Euskirchen, Moselstraße, Rüdesheim, Euskirchen, Kreis Euskirchen, Nordrhein-Westfalen, 53879, Deutschland"
Köln,Kreis Euskirchen,Gymnasium,166807,"Euskirchen, Gym Emil-Fischer",3,50.6618984,6.7978025,"Emil-Fischer-Gymnasium, Jean-Spessart-Straße, Altstadt, Euskirchen, Kreis Euskirchen, Nordrhein-Westfalen, 53879, Deutschland"
Köln,Kreis Euskirchen,Gymnasium,166820,"Bad Münstereifel, Gym St.Michael",1,50.5534348,6.7642469,"St. Michael-Gymnasium, 11, Markt, Rodert, Bad Münstereifel, Kreis Euskirchen, Nordrhein-Westfalen, 53902, Deutschland"
Köln,Kreis Euskirchen,Gymnasium,166832,"Zülpich, Gym Franken",2,50.6916636,6.6561066,"Franken-Gymnasium Zülpich, 14, Keltenweg, Hoven, Zülpich, Kreis Euskirchen, Nordrhein-Westfalen, 53909, Deutschland"
Köln,Kreis Euskirchen,Gymnasium,166856,"Mechernich, Gym Am Turmhof",1,50.590333,6.6577538,"Gymnasium ""Am Turmhof"", 1, Bruchgasse, Breitenbenden, Mechernich, Kreis Euskirchen, Nordrhein-Westfalen, 53894, Deutschland"
Köln,Kreis Euskirchen,Gymnasium,166868,"Schleiden, Gym. Johannes-Sturmius",1,50.527527,6.4754098,"Schleiden Gymnasium, 7, Blumenthaler Straße, Scheuren, Schleiden, Kreis Euskirchen, Nordrhein-Westfalen, 53937, Deutschland"
Köln,Kreis Heinsberg,Gesamtschule,190664,"Wassenberg, GE Betty-Reis",3,51.1048503,6.1714417,"Betty-Reis-Gesamtschule, Bergstraße, Birgelen, Wassenberg, Kreis Heinsberg, Nordrhein-Westfalen, 41849, Deutschland"
Köln,Kreis Heinsberg,Gesamtschule,191188,"Geilenkirchen, GE Anita-Lichtenstein",3,50.9720967,6.1104066,"Anita-Lichtenstein-Gesamtschule, Josefstraße, Bauchem, Niederheid, Geilenkirchen, Kreis Heinsberg, Nordrhein-Westfalen, 52511, Deutschland"
Köln,Kreis Heinsberg,Gesamtschule,191243,"Übach-Palenberg, GE Willy-Brandt",3,50.9182174,6.1097078,"Willy-Brandt-Gesamtschule, Comeniusstraße, Palenberg, Übach-Palenberg, Kreis Heinsberg, Nordrhein-Westfalen, 52531, Deutschland"
Köln,Kreis Heinsberg,Gesamtschule,196228,"Hückelhoven, GE Leonardo da Vinci",4,51.0675335,6.1836232,"Leonardo Da Vinci Gesamtschhule, 24, Mittelstraße, Millich, Ratheim, Hückelhoven, Kreis Heinsberg, Nordrhein-Westfalen, 41836, Deutschland"
Köln,Kreis Heinsberg,Gesamtschule,196745,"Gangelt, GE Gangelt/Selfkant",2,51.0242661,5.9370957,"Gesamtschule Gangelt-Selfkant - Haus der Kinder, Pfarrer-Meising-Straße, Höngen, Selfkant, Kreis Heinsberg, Nordrhein-Westfalen, 52538, Deutschland"
Köln,Kreis Heinsberg,Gesamtschule,199011,"Heinsberg, GE Heinsberg-Waldfeucht",4,51.0561557,6.1501508,"Gesamtschule Heinsberg-Waldfeucht, Mozartstraße, Oberbruch, Heinsberg, Kreis Heinsberg, Nordrhein-Westfalen, 52525, Deutschland"
Köln,Kreis Heinsberg,Gymnasium,167599,"Erkelenz, Gym Cornelius-Burgh-Gymnasium",2,51.0813877,6.3074547,"Cornelius-Burgh-Gymnasium, 4, Schulring, Oerather Mühlenfeld, Erkelenz, Kreis Heinsberg, Nordrhein-Westfalen, 41812, Deutschland"
Köln,Kreis Heinsberg,Gymnasium,167605,"Erkelenz, Gym Cusanus",2,51.0822996,6.308396,"Cusanus Gymnasium Erkelenz, 6, Schulring, Oerather Mühlenfeld, Matzerath, Erkelenz, Kreis Heinsberg, Nordrhein-Westfalen, 41812, Deutschland"
Köln,Kreis Heinsberg,Gymnasium,167630,"Heinsberg, Gym Kreisgymnasium",2,51.0570049,6.0982282,"Kreisgymnasium, Linderner Straße, Schafhausen, Heinsberg, Kreis Heinsberg, Nordrhein-Westfalen, 52525, Deutschland"
Köln,Kreis Heinsberg,Gymnasium,167642,"Hückelhoven, Gym Hartlepooler Str.",2,51.0548898,6.2260736,"Gymnasium, Doktor-Ruben-Straße, Doverack, Hückelhoven, Kreis Heinsberg, Nordrhein-Westfalen, 41836, Deutschland"
Köln,Kreis Heinsberg,Gymnasium,167654,"Übach-Palenberg, Gym Carolus-Magnus",3,50.9190857,6.1089548,"Carolus Magnus Gymnasium, Comeniusstraße, Palenberg, Übach-Palenberg, Kreis Heinsberg, Nordrhein-Westfalen, 52531, Deutschland"
Köln,Kreis Heinsberg,Gymnasium,185360,"Wegberg, Gym Maximilian-Kolbe",1,51.1361811,6.2821409,"Maximilian-Kolbe-Gymnasium, 63, Maaseiker Straße, Wegberger Höfe, Uevekoven, Wegberg, Kreis Heinsberg, Nordrhein-Westfalen, 41844, Deutschland"
Köln,Oberbergischen Kreis,Gesamtschule,189686,"Waldbröl, GE Höhenweg",2,50.8770838,7.607846,"Gesamtschule Waldbröl, Höhenweg, Waldbröl, Romberg, Waldbröl, Oberbergischer Kreis, Nordrhein-Westfalen, 51545, Deutschland"
Köln,Oberbergischen Kreis,Gesamtschule,189698,"Gummersbach, GE Derschlag",5,51.007661,7.6180536,"Gesamtschule Gummersbach Derschlag, Epelstraße, Gummersbach, Kalteneich, Derschlag, Gummersbach, Oberbergischer Kreis, Nordrhein-Westfalen, 51645, Deutschland"
Köln,Oberbergischen Kreis,Gesamtschule,190706,"Marienheide, GE Pestalozzistr.",2,51.0861531,7.525477,"Gesamtschule Marienheide, Pestalozzistraße, Marienheide, Hinterscharde, Oberwipper, Marienheide, Oberbergischer Kreis, Nordrhein-Westfalen, 51709, Deutschland"
Köln,Oberbergischen Kreis,Gesamtschule,191930,"Reichshof, GE Reichshof",2,50.9605249,7.6512265,"Crocco Deutschland GmbH, 2, Gewerbeparkstraße, Sinspert, Wehnrath, Reichshof, Oberbergischer Kreis, Nordrhein-Westfalen, 51580, Deutschland"
Köln,Oberbergischen Kreis,Gymnasium,166212,"Radevormwald, Gym Theodor-Heuss",2,51.2065792,7.3462425,"Theodor-Heuss-Gymnasium Radevormwald, 23, Hermannstraße, Unterste Mühle, Radevormwald, Oberbergischer Kreis, Nordrhein-Westfalen, 42477, Deutschland"
Köln,Oberbergischen Kreis,Gymnasium,166960,"Bergneustadt, Gym Wüllenweberschule",1,51.0155898,7.6374763,"Bergneustadt Gymnasium, Kölner Straße, Sessinghausen, Bergneustadt, Baldenberg, Bergneustadt, Oberbergischer Kreis, Nordrhein-Westfalen, 51702, Deutschland"
Köln,Oberbergischen Kreis,Gymnasium,166996,"Waldbröl, Gym Hollenberg",1,50.8763228,7.607979,"Hollenberg-Gymnasium, Goethestraße, Waldbröl, Romberg, Waldbröl, Oberbergischer Kreis, Nordrhein-Westfalen, 51545, Deutschland"
Köln,Oberbergischen Kreis,Gymnasium,167009,"Wiehl, Gym Dietrich-Bonhoeffer",1,50.949129,7.5567841,"Dietrich-Bonhoeffer-Gymnasium, 81, Hauptstraße, Wiehl, Hübender, Wiehl, Oberbergischer Kreis, Nordrhein-Westfalen, 51674, Deutschland"
Köln,Oberbergischen Kreis,Gymnasium,167083,"Wipperfürth, Gym Engelbert-von-Berg",1,51.1204699,7.4068453,"Städtisches Engelbert-von-Berg-Gymnasium, 46, Lüdenscheider Straße, Düsterohl, Wipperfürth, Stöpgeshof, Wipperfürth, Oberbergischer Kreis, Nordrhein-Westfalen, 51688, Deutschland"
Köln,Oberbergischen Kreis,Gymnasium,167101,"Engelskirchen, Gym Aggertal-Gymnasium",1,50.9851015,7.4164221,"Aggertal-Gymnasium Engelskirchen, 13, Olpener Straße, Oberengelskirchen, Steeg, Miebach, Engelskirchen, Oberbergischer Kreis, Nordrhein-Westfalen, 51766, Deutschland"
Köln,Oberbergischen Kreis,Gymnasium,191693,"Nümbrecht, Gym Homburgisches Gymnasium",2,50.9048512,7.5341789,"Homburgisches Gymnasium, 5, Mateh-Yehuda-Straße, Nümbrecht, Homburg-Bröl, Nümbrecht, Oberbergischer Kreis, Nordrhein-Westfalen, 51588, Deutschland"
Köln,Oberbergischen Kreis,Gymnasium,193513,"Lindlar, Gym Voßbrucher Str.",1,51.0156005,7.3763158,"Gymnasium Lindlar, 1, Voßbrucher Straße, Bolzenbach, Lindlar, Oberbergischer Kreis, Nordrhein-Westfalen, 51789, Deutschland"
Köln,Oberbergischen Kreis,Gymnasium,198493,"Gummersbach, Gym Städt. Lindengymnasium",2,,,
Köln,Rhein-Erft-Kreis,Gesamtschule,191942,"Kerpen, GE Willy-Brandt",4,50.9108695,6.6916521,"Willy-Brandt-Gesamtschule, 27, Bruchhöhe, Sindorf, Kerpen, Rhein-Erft-Kreis, Nordrhein-Westfalen, 50170, Deutschland"
Köln,Rhein-Erft-Kreis,Gesamtschule,192119,"Bergheim, GE Herbergerstr.",6,50.9356623,6.682654,"Gesamtschule der Stadt Bergheim, 6, Herbergerstraße, Quadrath, Quadrath-Ichendorf, Bergheim, Rhein-Erft-Kreis, Nordrhein-Westfalen, 50127, Deutschland"
Köln,Rhein-Erft-Kreis,Gesamtschule,193227,"Brühl, GE Otto-Wels-Str.",4,50.8144645,6.9019189,"Gesamtschule Brühl, 1, Otto-Wels-Straße, Brühl-Süd, Badorf, Geildorf, Brühl, Rhein-Erft-Kreis, Nordrhein-Westfalen, 50321, Deutschland"
Köln,Rhein-Erft-Kreis,Gesamtschule,198675,"Hürth, GE Sudetenstraße",4,50.8871368,6.8745822,"Gesamtschule Hürth, 35, Sudetenstraße, Alstädten, Hermülheim, Stotzheim, Hürth, Rhein-Erft-Kreis, Nordrhein-Westfalen, 50354, Deutschland"
Köln,Rhein-Erft-Kreis,Gesamtschule,198766,"Pulheim, GE Kastanienallee",3,50.9579701,6.7929076,"Gesamtschule Pulheim (GEP), 2, Kastanienallee, Freimersdorf, Brauweiler, Pulheim, Rhein-Erft-Kreis, Nordrhein-Westfalen, 50259, Deutschland"
Köln,Rhein-Erft-Kreis,Gesamtschule,199000,"Elsdorf, GE Gladbacher Straße",3,,,
Köln,Rhein-Erft-Kreis,Gymnasium,166741,"Kerpen, Gym Europagymnasium",2,50.8791042,6.6891662,"Europagymnasium Kerpen, 12-20, Philipp-Schneider-Straße, Mödrath, Kerpen, Rhein-Erft-Kreis, Nordrhein-Westfalen, 50171, Deutschland"
Köln,Rhein-Erft-Kreis,Gymnasium,166753,"Bedburg, Gym Silverberg-Gymnasium",2,50.9882305,6.5661812,"Silverberg-Gymnasium, Sauerbruchstraße, Lipp, Bedburg, Rhein-Erft-Kreis, Nordrhein-Westfalen, 50181, Deutschland"
Köln,Rhein-Erft-Kreis,Gymnasium,166765,"Bergheim, Gym Erftgymnasium",3,50.9572035,6.6412335,"Erftgymnasium Bergheim, 20, Schützenstraße, Kenten, Bergheim, Rhein-Erft-Kreis, Nordrhein-Westfalen, 50126, Deutschland"
Köln,Rhein-Erft-Kreis,Gymnasium,166777,"Bergheim, Gym Gutenberg",3,50.9501401,6.6337926,"Gutenberg-Gymnasium, 2-6, Gutenbergstraße, Kenten, Thorr, Bergheim, Rhein-Erft-Kreis, Nordrhein-Westfalen, 50126, Deutschland"
Köln,Rhein-Erft-Kreis,Gymnasium,166789,"Erftstadt, Gym Lechenich",1,50.8059722,6.7738939,"Gymnasium und Realschule Lechenich, 7, Dr.-Josef-Fieger-Straße, Lechenich, Erftstadt, Rhein-Erft-Kreis, Nordrhein-Westfalen, 50374, Deutschland"
Köln,Rhein-Erft-Kreis,Gymnasium,166881,"Brühl, Gym Max-Ernst",2,50.8295146,6.8887818,"Max-Ernst-Gymnasium, 66, Rodderweg, Kierberg, Brühl, Rhein-Erft-Kreis, Nordrhein-Westfalen, 50321, Deutschland"
Köln,Rhein-Erft-Kreis,Gymnasium,166900,"Frechen, Gym Rotdornweg",2,50.9176921,6.80741,"Rotdornweg, Hücheln, Frechen, Rhein-Erft-Kreis, Nordrhein-Westfalen, 50226, Deutschland"
Köln,Rhein-Erft-Kreis,Gymnasium,166911,"Hürth, Gym Ernst-Mach",2,50.8807576,6.8779419,"Ernst-Mach-Gymnasium, 64-66, Bonnstraße, Hermülheim, Hürth, Rhein-Erft-Kreis, Nordrhein-Westfalen, 50354, Deutschland"
Köln,Rhein-Erft-Kreis,Gymnasium,166947,"Wesseling, Gym Käthe-Kollwitz",5,50.8087801,6.9873032,"Käthe-Kollwitz-Straße, Gemarkung Wesseling, Keldenich, Wesseling, Rhein-Erft-Kreis, Nordrhein-Westfalen, 50389, Deutschland"
Köln,Rhein-Erft-Kreis,Gymnasium,166959,"Pulheim, Gym Geschwister-Scholl",1,51.0063875,6.7997564,"Geschwister-Scholl-Gymnasium, 66a, Hackenbroicher Straße, Pulheim, Rhein-Erft-Kreis, Nordrhein-Westfalen, 50259, Deutschland"
Köln,Rhein-Erft-Kreis,Gymnasium,183910,"Pulheim, Gym Abtei",1,50.9586673,6.7928851,"Abtei-Gymnasium Brauweiler, 2, Kastanienallee, Freimersdorf, Brauweiler, Pulheim, Rhein-Erft-Kreis, Nordrhein-Westfalen, 50259, Deutschland"
Köln,Rhein-Erft-Kreis,Gymnasium,184690,"Erftstadt, Gym Ville-Gymnasium",2,50.8138788,6.8180847,"Ville-Gymnasium, 1, Schwalbenstraße, Liblar, Erftstadt, Rhein-Erft-Kreis, Nordrhein-Westfalen, 50374, Deutschland"
Köln,Rhein-Erft-Kreis,Gymnasium,184706,"Hürth, Gym Albert-Schweitzer",2,50.8862546,6.8719615,"Albert-Schweitzer-Gymnasium, 37, Sudetenstraße, Alstädten, Alstädten-Burbach, Stotzheim, Hürth, Rhein-Erft-Kreis, Nordrhein-Westfalen, 50354, Deutschland"
Köln,Rheinisch-Bergischen Kreis,Gesamtschule,100096,"Rösrath, GE Rösrath",3,50.9035705,7.177583,"Gemeinschaftshauptschule Rösrath, 25, Freiherr-vom-Stein-Straße, Stümpen, Menzlingen, Rösrath, Rheinisch-Bergischer Kreis, Nordrhein-Westfalen, 51503, Deutschland"
Köln,Rheinisch-Bergischen Kreis,Gesamtschule,100173,"Wermelskirchen, GE Wirtsmühler Str.",3,51.1423702,7.2280274,"Wirtsmühler Straße, Belten, Eipringhausen, Wermelskirchen, Rheinisch-Bergischer Kreis, Nordrhein-Westfalen, 42929, Deutschland"
Köln,Rheinisch-Bergischen Kreis,Gesamtschule,183738,"Bergisch Gladbach, GE Paffrath",4,50.9977347,7.0963957,"Integrierte Gesamtschule Paffrath, 86, Borngasse, Paffrath, Bergisch Gladbach, Rheinisch-Bergischer Kreis, Nordrhein-Westfalen, 51469, Deutschland"
Köln,Rheinisch-Bergischen Kreis,Gesamtschule,190949,"Kürten, GE Olpener Straße",2,51.0501099,7.2645244,"Gesamtschule Kürten, Olpener Straße, Hechelkotten, Waldmühle, Kürten, Rheinisch-Bergischer Kreis, Nordrhein-Westfalen, 51515, Deutschland"
Köln,Rheinisch-Bergischen Kreis,Gesamtschule,197877,"Bergisch Gladbach, GE Nelson-Mandela",6,50.9790811,7.1269451,"Nelson-Mandela-Gesamtschule, Ahornweg, Gronau, Bergisch Gladbach, Rheinisch-Bergischer Kreis, Nordrhein-Westfalen, 51469, Deutschland"
Köln,Rheinisch-Bergischen Kreis,Gymnasium,166157,"Leichlingen, Gym Am Hammer",1,51.1087572,7.0115768,"Städtisches Gymnasium Leichlingen, 2, Am Hammer, Büscherhöfen, Unterberg, Leichlingen, Rheinisch-Bergischer Kreis, Nordrhein-Westfalen, 42799, Deutschland"
Köln,Rheinisch-Bergischen Kreis,Gymnasium,166224,"Wermelskirchen, Gym Stockhauser Str.",2,51.1369953,7.219174,"Stockhauser Straße, Schwanen, Eipringhausen, Wermelskirchen, Rheinisch-Bergischer Kreis, Nordrhein-Westfalen, 42929, Deutschland"
Köln,Rheinisch-Bergischen Kreis,Gymnasium,167010,"Bergisch Gladbach, Gym Albertus-Magnus",2,50.9608786,7.155729,"Albertus-Magnus-Gymnasium, 15, Kaule, Bensberg, Bergisch Gladbach, Rheinisch-Bergischer Kreis, Nordrhein-Westfalen, 51429, Deutschland"
Köln,Rheinisch-Bergischen Kreis,Gymnasium,167022,"Bergisch Gladbach, Gym Otto-Hahn-Schule",2,50.9626021,7.1369299,"Otto-Hahn-Schulzentrum, 8, Saaler Mühle, Alt-Frankenforst, Bergisch Gladbach, Rheinisch-Bergischer Kreis, Nordrhein-Westfalen, 51429, Deutschland"
Köln,Rheinisch-Bergischen Kreis,Gymnasium,167034,"Bergisch Gladbach, Gym Dietr.-Bonhoeffer",2,50.9967386,7.1212052,"Nicolaus-Cusanus-Gymnasium, 51, Reuterstraße, Hebborn, Bergisch Gladbach, Rheinisch-Bergischer Kreis, Nordrhein-Westfalen, 51465, Deutschland"
Köln,Rheinisch-Bergischen Kreis,Gymnasium,167046,"Bergisch Gladbach, Gym Nicolaus-Cusanus",3,50.9967386,7.1212052,"Nicolaus-Cusanus-Gymnasium, 51, Reuterstraße, Hebborn, Bergisch Gladbach, Rheinisch-Bergischer Kreis, Nordrhein-Westfalen, 51465, Deutschland"
Köln,Rheinisch-Bergischen Kreis,Gymnasium,167095,"Rösrath, Gym Freiherr-vom-Stein",2,50.9035078,7.1786359,"Freiherr-vom-Stein-Schule Rösrath, 15, Freiherr-vom-Stein-Straße, Vierkotten, Hoffnungsthal, Rösrath, Rheinisch-Bergischer Kreis, Nordrhein-Westfalen, 51503, Deutschland"
Köln,Rheinisch-Bergischen Kreis,Gymnasium,184159,"Overath, Gym Paul-Klee",1,50.9259496,7.2788914,"Paul-Klee-Gymnasium, 3, Pérenchiesstraße, Cyriax, Overath, Rheinisch-Bergischer Kreis, Nordrhein-Westfalen, 51491, Deutschland"
Köln,Rheinisch-Bergischen Kreis,Gymnasium,184664,"Bergisch Gladbach, Gym Herkenrath",2,50.9877772,7.1903947,"Realschule / Gymnasium Herkenrath, Johanniterstraße, Kierdorf, Herkenrath, Bergisch Gladbach, Rheinisch-Bergischer Kreis, Nordrhein-Westfalen, 51429, Deutschland"
Köln,Rheinisch-Bergischen Kreis,Gymnasium,191711,"Odenthal, Gym Bergisch Gladbacher Straße",1,51.0251463,7.1230326,"Bergisch Gladbacher Straße, Funkenhof, Voiswinkel, Odenthal, Rheinisch-Bergischer Kreis, Nordrhein-Westfalen, 51519, Deutschland"
Köln,Rhein-Sieg-Kreis,Gesamtschule,100089,"Bornheim, GE Bornheim 2",4,,,
Köln,Rhein-Sieg-Kreis,Gesamtschule,100129,"Swisttal, GE Swisttal",3,50.7148556,6.9203711,"Gesamtschule Swisttal, Fasanenweg, Heimerzheim, Swisttal, Rhein-Sieg-Kreis, Nordrhein-Westfalen, 53913, Deutschland"
Köln,Rhein-Sieg-Kreis,Gesamtschule,190093,"Troisdorf, GE Europaschule Troisdorf",4,50.8090275,7.1447373,"Städtische Gesamtschule Europaschule Troisdorf, 31, Am Bergeracker, Troisdorf-West, Troisdorf, Rhein-Sieg-Kreis, Nordrhein-Westfalen, 53842, Deutschland"
Köln,Rhein-Sieg-Kreis,Gesamtschule,190238,"Bornheim, GE Europaschule",2,50.764322,7.0000618,"Europaschule, Secundastraße, Bornheim, Botzdorf, Bornheim, Rhein-Sieg-Kreis, Nordrhein-Westfalen, 53332, Deutschland"
Köln,Rhein-Sieg-Kreis,Gesamtschule,193240,"Hennef, GE Hennef-Meiersheide",2,50.7685489,7.3086841,"Gesamtschule Hennef Meiersheide, 20, Meiersheide, Striefen, Warth, Allner, Hennef (Sieg), Rhein-Sieg-Kreis, Nordrhein-Westfalen, 53773, Deutschland"
Köln,Rhein-Sieg-Kreis,Gesamtschule,196423,"Sankt Augustin, GE Fritz-Bauer",4,50.7851114,7.165372,"Fritz-Bauer-Gesamtschule, 123, Siegstraße, Menden, Sankt Augustin, Rhein-Sieg-Kreis, Nordrhein-Westfalen, 53757, Deutschland"
Köln,Rhein-Sieg-Kreis,Gesamtschule,196710,"Troisdorf, GE Gertrud-Koch",4,50.8073778,7.1205339,"Gertrud-Koch-Gesamtschule, 20, Edith-Stein-Straße, Sieglar, Troisdorf, Rhein-Sieg-Kreis, Nordrhein-Westfalen, 53844, Deutschland"
Köln,Rhein-Sieg-Kreis,Gesamtschule,197221,"Windeck, GE Hurster Straße",3,50.7992001,7.6142331,"Hurster Straße, Rosbach, Sieg, Rüddel, Windeck, Rhein-Sieg-Kreis, Nordrhein-Westfalen, 51570, Deutschland"
Köln,Rhein-Sieg-Kreis,Gesamtschule,197350,"Much, GE Schulstraße",2,50.90364,7.4028861,"Schulstraße, Much, Rhein-Sieg-Kreis, Nordrhein-Westfalen, 53804, Deutschland"
Köln,Rhein-Sieg-Kreis,Gesamtschule,197737,"Hennef, GE Hennef-West",3,50.7770827,7.2755161,"Gesamtschule Hennef-West, Schulhof, Geistingen, Weingartsgasse, Hennef (Sieg), Rhein-Sieg-Kreis, Nordrhein-Westfalen, 53773, Deutschland"
Köln,Rhein-Sieg-Kreis,Gesamtschule,197749,"Königswinter, GE Petersberg",3,,,
Köln,Rhein-Sieg-Kreis,Gesamtschule,197750,"Neunkirchen-Seel., GE Rathausstraße",3,,,
Köln,Rhein-Sieg-Kreis,Gesamtschule,197762,"Siegburg, GE am Michaelsbeg",6,,,
Köln,Rhein-Sieg-Kreis,Gesamtschule,198950,"Rheinbach, GE Rheinbach",3,50.619608,6.9406583,"Städtisches Gymnasium Rheinbach, 29, Königsberger Straße, Rheinbach, Rhein-Sieg-Kreis, Nordrhein-Westfalen, 53359, Deutschland"
Köln,Rhein-Sieg-Kreis,Gesamtschule,199310,"Niederkassel, GE Kopernikusstraße",4,,,
Köln,Rhein-Sieg-Kreis,Gesamtschule,199680,"Lohmar, GE Hermann-Löns-Straße",2,,,
Köln,Rhein-Sieg-Kreis,Gymnasium,100174,"Alfter, Gym Alfter",2,50.692268,7.0316345,"Waldschule Alfter, Witterschlicker Allee, Duisdorf, Hardtberg, Witterschlick, Alfter, Rhein-Sieg-Kreis, Nordrhein-Westfalen, 53347, Deutschland"
Köln,Rhein-Sieg-Kreis,Gymnasium,167113,"Sankt Augustin, Gym Rhein-Sieg",2,50.7774245,7.1838706,"Rhein-Sieg-Gymnasium, Hubert-Minz-Straße, Ort, Sankt Augustin, Rhein-Sieg-Kreis, Nordrhein-Westfalen, 53757, Deutschland"
Köln,Rhein-Sieg-Kreis,Gymnasium,167137,"Eitorf, Gym Siegtal",2,50.7753479,7.4490383,"Siegtal Gymnasium Eitorf, Am Eichelkamp, Eitorf, Kelters, Bohlscheid, Eitorf, Rhein-Sieg-Kreis, Nordrhein-Westfalen, 53783, Deutschland"
Köln,Rhein-Sieg-Kreis,Gymnasium,167149,"Hennef, Gym Fritz-Jacobi-Str.",2,50.7776037,7.2727999,"Städtisches Gymnasium Hennef, 18, Fritz-Jacobi-Straße, Geistingen, Stoßdorf, Weingartsgasse, Hennef (Sieg), Rhein-Sieg-Kreis, Nordrhein-Westfalen, 53773, Deutschland"
Köln,Rhein-Sieg-Kreis,Gymnasium,167150,"Bad Honnef, Gym Siebengebirgsgymnasium",2,50.6507262,7.2262843,"Siebengebirgsgymnasium, Im Krahfuß, Honnef, Bondorf, Bad Honnef, Rhein-Sieg-Kreis, Nordrhein-Westfalen, 53604, Deutschland"
Köln,Rhein-Sieg-Kreis,Gymnasium,167186,"Königswinter, Gym am Oelberg",2,50.7088547,7.2720548,"Gymnasium am Oelberg, 25, Weilerweg, Oberpleis, Königswinter, Rhein-Sieg-Kreis, Nordrhein-Westfalen, 53639, Deutschland"
Köln,Rhein-Sieg-Kreis,Gymnasium,167198,"Meckenheim, Gym Konrad-Adenauer",2,50.6235701,7.0418075,"Konrad-Adenauer-Gymnasium (KAG), 30, Königsberger Straße, Meckenheim, Rhein-Sieg-Kreis, Nordrhein-Westfalen, 53340, Deutschland"
Köln,Rhein-Sieg-Kreis,Gymnasium,167216,"Rheinbach, Gym Königsberger Str.",1,50.619608,6.9406583,"Städtisches Gymnasium Rheinbach, 29, Königsberger Straße, Rheinbach, Rhein-Sieg-Kreis, Nordrhein-Westfalen, 53359, Deutschland"
Köln,Rhein-Sieg-Kreis,Gymnasium,167241,"Siegburg, Gym Anno-Gymnasium",2,50.8035349,7.2210442,"Anno-Gymnasium, 186, Zeithstraße, Marienfried, Siegburg, Wolsdorf, Siegburg, Rhein-Sieg-Kreis, Nordrhein-Westfalen, 53721, Deutschland"
Köln,Rhein-Sieg-Kreis,Gymnasium,167253,"Siegburg, Gym Alleestraße",3,50.7971431,7.2038041,"Gymnasium Siegburg Alleestraße, 2, Alleestraße, Siegburg, Dreesch, Siegburg, Rhein-Sieg-Kreis, Nordrhein-Westfalen, 53721, Deutschland"
Köln,Rhein-Sieg-Kreis,Gymnasium,167265,"Troisdorf, Gym Zum Altenforst",3,50.8160896,7.1770461,"Städtisches Gymnasium Zum Altenforst, 10, Zum Altenforst, Troisdorf-Mitte, Troisdorf, Rhein-Sieg-Kreis, Nordrhein-Westfalen, 53840, Deutschland"
Köln,Rhein-Sieg-Kreis,Gymnasium,167277,"Troisdorf, Gym Heinrich-Böll",2,50.8060859,7.1222236,"Heinrich-Böll-Gymnasium Troisdorf, 15, Edith-Stein-Straße, Sieglar, Troisdorf, Rhein-Sieg-Kreis, Nordrhein-Westfalen, 53844, Deutschland"
Köln,Rhein-Sieg-Kreis,Gymnasium,183740,"Sankt Augustin, Gym Albert-Einstein",2,50.7773966,7.2126444,"Albert-Einstein-Gymnasium, 7, Alte Marktstraße, Niederpleis, Sankt Augustin, Rhein-Sieg-Kreis, Nordrhein-Westfalen, 53757, Deutschland"
Köln,Rhein-Sieg-Kreis,Gymnasium,183775,"Niederkassel, Gym Kopernikus-Gymnasium",2,50.8329617,7.0235741,"Kopernikus Gymnasium, 3, Kopernikusstraße, Lülsdorf, Niederkassel, Rhein-Sieg-Kreis, Nordrhein-Westfalen, 53859, Deutschland"
Köln,Rhein-Sieg-Kreis,Gymnasium,191140,"Lohmar, Gym Donrather Dreieck",2,50.8458903,7.2226149,"Gymnasium Lohmar, Donrather Dreieck, Lohmar, Heppenberg, Lohmar, Rhein-Sieg-Kreis, Nordrhein-Westfalen, 53797, Deutschland"
Köln,Rhein-Sieg-Kreis,Gymnasium,194232,"Bornheim, Gym Alexander-von-Humboldt",2,50.7581258,7.00294,"Alexander-von-Humboldt-Gymnasium, Bonner Straße, Roisdorf, Bornheim, Rhein-Sieg-Kreis, Nordrhein-Westfalen, 53332, Deutschland"
Köln,Stadt Bonn,Gesamtschule,185310,"Bonn, GE Beuel",3,50.7501306,7.1486037,"Integrierte Gesamtschule Bonn-Beuel, 321, Siegburger Straße, Bechlinghoven, Pützchen-Bechlinghoven, Bonn-Beuel, Bonn, Nordrhein-Westfalen, 53229, Deutschland"
Köln,Stadt Bonn,Gesamtschule,191401,"Bonn, GE Elisabeth-Selbert-Gesamtschule",7,50.6953159,7.1484209,"Elisabeth-Selbert-Gesamtschule, 50, Elisabeth-Selbert-Allee, Plittersdorf, Bad Godesberg, Bonn, Nordrhein-Westfalen, 53175, Deutschland"
Köln,Stadt Bonn,Gesamtschule,193811,"Bonn, GE Bertolt-Brecht-Gesamtschule",6,50.7455604,7.0534196,"Bertolt-Brecht-Gesamtschule, 21-23, Schlesienstraße, Tannenbusch, Stadtbezirk Bonn, Bonn, Nordrhein-Westfalen, 53119, Deutschland"
Köln,Stadt Bonn,Gesamtschule,195728,"Bonn, GE Marie-Kahle-Gesamtschule",4,50.7458619,7.0957593,"Marie-Kahle-Gesamtschule, 80, Graurheindorfer Straße, Bonn-Castell, Stadtbezirk Bonn, Bonn, Nordrhein-Westfalen, 53111, Deutschland"
Köln,Stadt Bonn,Gesamtschule,196289,"Bonn, GE BONNS FÜNFTE",4,50.717834,7.1066981,"Gesamtschule Bonns Fünfte, 9, Eduard-Otto-Straße, Kessenich, Stadtbezirk Bonn, Bonn, Nordrhein-Westfalen, 53129, Deutschland"
Köln,Stadt Bonn,Gymnasium,166236,"Bonn, Gym Beethoven",2,50.7306978,7.1092843,"Beethoven-Gymnasium, 51-53, Adenauerallee, Südstadt, Stadtbezirk Bonn, Bonn, Nordrhein-Westfalen, 53113, Deutschland"
Köln,Stadt Bonn,Gymnasium,166250,"Bonn, Gym Ernst-Moritz-Arndt",2,50.7292681,7.0896171,"Ernst-Moritz-Arndt-Gymnasium, 1, Endenicher Allee, Weststadt, Stadtbezirk Bonn, Bonn, Nordrhein-Westfalen, 53115, Deutschland"
Köln,Stadt Bonn,Gymnasium,166315,"Bonn, Gym Carl-von-Ossietzky",2,50.6896851,7.0691643,"Carl-von-Ossietzky-Gymnasium, Im Schmalzacker, Ückesdorf, Stadtbezirk Bonn, Bonn, Nordrhein-Westfalen, 53125, Deutschland"
Köln,Stadt Bonn,Gymnasium,166340,"Bonn, Gym Clara-Schumann",2,50.7270858,7.1013855,"Clara-Schumann-Gymnasium, 14, Loestraße, Südstadt, Stadtbezirk Bonn, Bonn, Nordrhein-Westfalen, 53113, Deutschland"
Köln,Stadt Bonn,Gymnasium,166352,"Bonn, Gym Hardtberg",2,50.702833,7.0543581,"Hardtberg-Gymnasium, Gaußstraße, Brüser Berg, Hardtberg, Bonn, Nordrhein-Westfalen, 53125, Deutschland"
Köln,Stadt Bonn,Gymnasium,166364,"Bonn, Gym Friedrich-Ebert",3,50.7090052,7.1255114,"Friedrich-Ebert-Gymnasium, Ollenhauerstraße, Museumsmeile, Gronau, Stadtbezirk Bonn, Bonn, Nordrhein-Westfalen, 53113, Deutschland"
Köln,Stadt Bonn,Gymnasium,166376,"Bonn, Gym Helmholtz-Gymnasium",3,50.7217946,7.0568875,"Helmholtz-Gymnasium, Einsteinstraße, Duisdorf, Hardtberg, Bonn, Nordrhein-Westfalen, 53123, Deutschland"
Köln,Stadt Bonn,Gymnasium,166388,"Bonn, Gym Nicolaus-Cusanus",6,50.6959353,7.1554858,"Nicolaus-Cusanus-Gymnasium, 50, Gotenstraße, Plittersdorf, Bad Godesberg, Bonn, Nordrhein-Westfalen, 53175, Deutschland"
Köln,Stadt Bonn,Gymnasium,166406,"Bonn, Gym Tannenbusch",4,50.7512814,7.0426812,"Campus Tannenbusch, Waldenburger Ring, Tannenbusch, Stadtbezirk Bonn, Bonn, Nordrhein-Westfalen, 53119, Deutschland"
Köln,Stadt Bonn,Gymnasium,166420,"Bonn, Gym Konrad-Adenauer",3,50.6706236,7.1680101,"Konrad-Adenauer-Gymnasium, 24-36, Max-Planck-Straße, Pennenfeld, Bad Godesberg, Bonn, Nordrhein-Westfalen, 53177, Deutschland"
Köln,Stadt Köln,Gesamtschule,100036,"Köln, GE Gesamtschule Helios",3,50.9500024,6.8755341,"Helios-Gesamtschule (Interim), Am Wassermann, Gewerbepark Triotop, Vogelsang, Ehrenfeld, Köln, Nordrhein-Westfalen, 50829, Deutschland"
Köln,Stadt Köln,Gesamtschule,100041,"Köln, GE Wasseramselweg",4,50.9506913,6.8790599,"Gesamtschule Wasseramselweg, 2, Wasseramselweg, Alt-Vogelsang, Vogelsang, Ehrenfeld, Köln, Nordrhein-Westfalen, 50829, Deutschland"
Köln,Stadt Köln,Gesamtschule,100068,"Köln, GE Berrenrather Straße",4,50.9197705,6.9277705,"Kath. Grundschule Berrenrather Straße, Berrenrather Straße, Sülz, Lindenthal, Köln, Nordrhein-Westfalen, 50937, Deutschland"
Köln,Stadt Köln,Gesamtschule,100071,"Köln, GE Dellbrücker Mauspfad",4,50.9703656,7.0679432,"Gesamtschule Dellbrücker Mauspfad, 198, Dellbrücker Mauspfad, Dellbrück, Mülheim, Köln, Nordrhein-Westfalen, 51069, Deutschland"
Köln,Stadt Köln,Gesamtschule,100210,"Köln, GE Am Wassermann",5,50.9495159,6.8769996,"Gesamtschule Am Wassermann, 40, Am Wassermann, Vogelsang, Ehrenfeld, Köln, Nordrhein-Westfalen, 50829, Deutschland"
Köln,Stadt Köln,Gesamtschule,100211,"Köln, GE Weidenpesch",5,50.9712515,6.9226872,"Interim Gesamtschule Weidenpesch, 279, Escher Straße, Bilderstöckchen, Nippes, Köln, Nordrhein-Westfalen, 50739, Deutschland"
Köln,Stadt Köln,Gesamtschule,100212,"Köln, GE Ossendorf",6,50.9495201,6.8768235,"Interim Gesamtschule Ossendorf, 40, Am Wassermann, Gewerbepark Triotop, Vogelsang, Ehrenfeld, Köln, Nordrhein-Westfalen, 50829, Deutschland"
Köln,Stadt Köln,Gesamtschule,164161,"Köln, GE Rodenkirchen",3,50.8874659,6.9987601,"Gymnasium Rodenkirchen, Saarstraße, Rodenkirchen, Köln, Nordrhein-Westfalen, 50996, Deutschland"
Köln,Stadt Köln,Gesamtschule,183726,"Köln, GE Holweide",6,50.9620518,7.0386748,"Integrierte Gesamtschule Holweide, Karl-Höher-Straße, Holweide, Mülheim, Köln, Nordrhein-Westfalen, 51067, Deutschland"
Köln,Stadt Köln,Gesamtschule,184287,"Köln, GE Heinrich-Böll-Schule",6,51.0263992,6.8997864,"Heinrich-Böll-Gesamtschule, Merianstraße, Chorweiler, Köln, Nordrhein-Westfalen, 50765, Deutschland"
Köln,Stadt Köln,Gesamtschule,184913,"Köln, GE Lise-Meitner-Gesamtschule",7,50.8992845,7.063456,"Lise-Meitner-Gesamtschule, 36, Stresemannstraße, Finkenberg, Porz, Köln, Nordrhein-Westfalen, 51149, Deutschland"
Köln,Stadt Köln,Gesamtschule,184937,"Köln, GE Willy-Brandt-Gesamtschule",6,50.9839049,7.0435876,"Willy-Brandt-Gesamtschule, Auf dem Flachsacker, Höhenhaus, Mülheim, Köln, Nordrhein-Westfalen, 51061, Deutschland"
Köln,Stadt Köln,Gesamtschule,185176,"Köln, GE Europaschule Zollstock",5,,,
Köln,Stadt Köln,Gesamtschule,187902,"Köln, GE Max-Ernst-Gesamtschule",5,50.9789305,6.8709016,"Max-Ernst-Gesamtschule, Tollerstraße, Bocklemünd, Bocklemünd/Mengenich, Ehrenfeld, Köln, Nordrhein-Westfalen, 50829, Deutschland"
Köln,Stadt Köln,Gesamtschule,188165,"Köln, GE Katharina-Henoth-Schule",9,50.9375579,7.0285533,"Katharina-Henoth-Gesamtschule, 17, Adalbertstraße, Höhenberg, Kalk, Köln, Nordrhein-Westfalen, 51103, Deutschland"
Köln,Stadt Köln,Gesamtschule,195959,"Köln, GE Carl-von-Ossietzky",4,50.9896638,6.9211493,"Carl-von-Ossietzky-Gesamtschule, 2, Ossietzkystraße, Neu-Longerich, Longerich, Nippes, Köln, Nordrhein-Westfalen, 50737, Deutschland"
Köln,Stadt Köln,Gesamtschule,198742,"Köln, GE Trude-Herr",8,50.9472876,6.9897216,"Trude-Herr-Gesamtschule, 43, Ferdinandstraße, Stegerwaldsiedlung, Mülheim, Köln, Nordrhein-Westfalen, 51063, Deutschland"
Köln,Stadt Köln,Gesamtschule,198912,"Köln, GE Köln-Innenstadt",3,50.9475083,6.9490806,"Generali Deutschland Krankenversicherung AG, 40, Hansaring, Agnesviertel, Neustadt/Nord, Innenstadt, Köln, Nordrhein-Westfalen, 50670, Deutschland"
Köln,Stadt Köln,Gymnasium,100040,"Köln, Gym Neue Sandkaul",2,50.9636793,6.8392748,"Gymnasium Neue Sandkaul, Unter Linden, Widdersdorf, Lindenthal, Köln, Nordrhein-Westfalen, 50859, Deutschland"
Köln,Stadt Köln,Gymnasium,100145,"Köln, Gym Zusestraße",2,50.9507668,6.8381397,"Städt. Gymnasium Zusestraße, 47, Zusestraße, Lövenich, Lindenthal, Köln, Nordrhein-Westfalen, 50859, Deutschland"
Köln,Stadt Köln,Gymnasium,100147,"Köln, Gym Müngersdorf",2,50.941062,6.8810545,"Gemeinschaftsgrundschule Müngersdorf, 64, Wendelinstraße, Müngersdorf, Lindenthal, Köln, Nordrhein-Westfalen, 50933, Deutschland"
Köln,Stadt Köln,Gymnasium,100205,"Köln, Gym Nippes",5,50.9614061,6.9498364,"Nyingma Zentrum Deutschland, 66, Siebachstraße, Sechzigviertel, Nippes, Köln, Nordrhein-Westfalen, 50733, Deutschland"
Köln,Stadt Köln,Gymnasium,100206,"Köln, Gym Rondorf",3,50.8772935,7.0068906,"Gymnasium Rondorf, 19, Eygelshovener Straße, Michaelshoven, Rodenkirchen, Köln, Nordrhein-Westfalen, 50999, Deutschland"
Köln,Stadt Köln,Gymnasium,166443,"Köln, Gym Leonardo-da-Vinci",2,50.9667927,6.9558644,"Leonardo-da-Vinci-Gymnasium, 15-17, Blücherstraße, Nippes, Köln, Nordrhein-Westfalen, 50733, Deutschland"
Köln,Stadt Köln,Gymnasium,166455,"Köln, Gym Rhein-Gymnasium",3,50.968437,7.0018208,"Rhein-Gymnasium, Krahnenstraße, Alt-Mülheim, Mülheim, Köln, Nordrhein-Westfalen, 51063, Deutschland"
Köln,Stadt Köln,Gymnasium,166479,"Köln, Gym Apostel-Gymnasium",1,,,
Köln,Stadt Köln,Gymnasium,166480,"Köln, Gym Montessori",3,50.9377553,7.0234414,"Montessori Grundschule Ferdinandstraße Außenstelle Höhenberg, Burgstraße, Höhenberg, Kalk, Köln, Nordrhein-Westfalen, 51103, Deutschland"
Köln,Stadt Köln,Gymnasium,166492,"Köln, Gym Königin-Luise",2,50.9392881,6.9435744,"Königin-Luise-Schule, Palmstraße, Apostelviertel, Altstadt-Nord, Innenstadt, Köln, Nordrhein-Westfalen, 50672, Deutschland"
Köln,Stadt Köln,Gymnasium,166546,"Köln, Gym Erich Kästner",2,50.9730458,6.9638381,"Erich Kästner-Gymnasium, 7, Castroper Straße, Niehl, Nippes, Köln, Nordrhein-Westfalen, 50735, Deutschland"
Köln,Stadt Köln,Gymnasium,166558,"Köln, Gym Thusneldastraße",4,50.9352001,6.981331,"Gymnasium Thusneldastraße, 15-17, Thusneldastraße, Deutz, Innenstadt, Köln, Nordrhein-Westfalen, 50679, Deutschland"
Köln,Stadt Köln,Gymnasium,166571,"Köln, Gym Deutzer Gymnasium Schaurtestr.",3,50.9336311,6.9764027,"Deutzer Gymnasium Schaurtestraße, Gotenring, Deutz, Innenstadt, Köln, Nordrhein-Westfalen, 50679, Deutschland"
Köln,Stadt Köln,Gymnasium,166583,"Köln, Gym Genoveva-Gymnasium",7,50.9643097,7.0079365,"Genoveva-Gymnasium, Viktor-Speier-Holstein-Straße, Mülheim, Köln, Nordrhein-Westfalen, 51063, Deutschland"
Köln,Stadt Köln,Gymnasium,166595,"Köln, Gym Kaiserin-Augusta-Schule",2,50.9314926,6.958488,"Kaiserin-Augusta-Schule, Follerstraße, Georgsviertel, Altstadt-Süd, Innenstadt, Köln, Nordrhein-Westfalen, 50676, Deutschland"
Köln,Stadt Köln,Gymnasium,166601,"Köln, Gym Kreuzgasse",2,50.9402441,6.9267993,"Gymnasium Kreuzgasse, 1, Vogelsanger Straße, Belgisches Viertel, Neustadt/Nord, Innenstadt, Köln, Nordrhein-Westfalen, 50672, Deutschland"
Köln,Stadt Köln,Gymnasium,166613,"Köln, Gym Friedrich-Wilhelm",2,50.9304488,6.9560382,"Friedrich Wilhelm Gymnasium, Kleine Spitzengasse, Georgsviertel, Altstadt-Süd, Innenstadt, Köln, Nordrhein-Westfalen, 50676, Deutschland"
Köln,Stadt Köln,Gymnasium,166625,"Köln, Gym Hölderlin-Gymnasium",4,50.9572089,7.0062873,"Hölderlin-Gymnasium, Sonderburger Straße, Mülheim, Köln, Nordrhein-Westfalen, 51065, Deutschland"
Köln,Stadt Köln,Gymnasium,166637,"Köln, Gym Hansa",2,50.9478869,6.9509572,"Hansa-Gymnasium, 56, Hansaring, Agnesviertel, Neustadt/Nord, Innenstadt, Köln, Nordrhein-Westfalen, 50670, Deutschland"
Köln,Stadt Köln,Gymnasium,166649,"Köln, Gym Humboldt-Gymnasium",2,50.9264743,6.949729,"Humboldt-Gymnasium, 40, Kartäuserwall, Pantaleonsviertel, Altstadt-Süd, Innenstadt, Köln, Nordrhein-Westfalen, 50676, Deutschland"
Köln,Stadt Köln,Gymnasium,166650,"Köln, Gym Kaiserin-Theophanu-Schule",4,50.9370486,7.0070961,"Kaiserin-Theophanu-Gymnasium, Hollweghstraße, Kalk, Köln, Nordrhein-Westfalen, 51103, Deutschland"
Köln,Stadt Köln,Gymnasium,166662,"Köln, Gym Albertus-Magnus-Gymnasium",3,50.9579785,6.9273257,"Albertus-Magnus-Gymnasium, 87, Ottostraße, Neuehrenfeld, Ehrenfeld, Köln, Nordrhein-Westfalen, 50823, Deutschland"
Köln,Stadt Köln,Gymnasium,166686,"Köln, Gym Johann-Gottfried-Herder",4,50.9511692,7.0215969,"Johann-Gottfried-Herder-Gymnasium, Königshütter Straße, Buchheim, Mülheim, Köln, Nordrhein-Westfalen, 51065, Deutschland"
Köln,Stadt Köln,Gymnasium,166698,"Köln, Gym Dreikönigs",4,,,
Köln,Stadt Köln,Gymnasium,166716,"Köln, Gym Hildegard-von-Bingen-Gymnasium",2,50.9173762,6.9330551,"Hildegard-von-Bingen-Gymnasium, 1, Leybergstraße, Sülz, Lindenthal, Köln, Nordrhein-Westfalen, 50939, Deutschland"
Köln,Stadt Köln,Gymnasium,166728,"Köln, Gym Schiller-Gymnasium",1,50.9234437,6.9299244,"Elisabeth-von-Thüringen- / Schiller-Gymnasium, 55, Nikolausstraße, Sülz, Lindenthal, Köln, Nordrhein-Westfalen, 50937, Deutschland"
Köln,Stadt Köln,Gymnasium,166730,"Köln, Gym Elisabeth-von-Thüringen",1,50.9234437,6.9299244,"Elisabeth-von-Thüringen- / Schiller-Gymnasium, 55, Nikolausstraße, Sülz, Lindenthal, Köln, Nordrhein-Westfalen, 50937, Deutschland"
Köln,Stadt Köln,Gymnasium,166923,"Köln, Gym Georg-Büchner",2,50.9348009,6.8383211,"Georg-Büchner-Gymnasium, 39, Ostlandstraße, Weiden, Lindenthal, Köln, Nordrhein-Westfalen, 50858, Deutschland"
Köln,Stadt Köln,Gymnasium,166935,"Köln, Gym Rodenkirchen",1,50.8874659,6.9987601,"Gymnasium Rodenkirchen, Saarstraße, Rodenkirchen, Köln, Nordrhein-Westfalen, 50996, Deutschland"
Köln,Stadt Köln,Gymnasium,167058,"Köln, Gym Maximilian-Kolbe-Gymnasium",4,50.8635775,7.0896744,"Maximilian-Kolbe-Gymnasium, 19-21, Nachtigallenstraße, Wahn, Porz, Köln, Nordrhein-Westfalen, 51147, Deutschland"
Köln,Stadt Köln,Gymnasium,167060,"Köln, Gym Stadt/Porz",5,,,
Köln,Stadt Köln,Gymnasium,183040,"Köln, Gym Lessing-Gymnasium",2,50.8675785,7.0563194,"Lessing-Gymnasium, Heerstraße, Zündorf, Porz, Köln, Nordrhein-Westfalen, 51143, Deutschland"
Köln,Stadt Köln,Gymnasium,184858,"Köln, Gym Heinrich-Heine-Gymnasium",4,50.9269217,7.04788,"Heinrich-Heine-Gymnasium, 100, Hardtgenbuscher Kirchweg, Ostheim, Kalk, Köln, Nordrhein-Westfalen, 51107, Deutschland"
Köln,Stadt Köln,Gymnasium,185255,"Köln, Gym Heinrich-Mann-Gymnasium",5,,,
Köln,Stadt Köln,Gymnasium,185437,"Köln, Gym Köln-Pesch",2,50.997967,6.8719154,"Gymnasium Köln Pesch, 18, Schulstraße, Pesch, Chorweiler, Köln, Nordrhein-Westfalen, 50767, Deutschland"
Köln,Stadt Leverkusen,Gesamtschule,164124,"Leverkusen, GE Käthe-Kollwitz",7,51.0643905,6.9534227,"Käthe-Kollwitz-Schule, 25, Elbestraße, Rheindorf, Stadtbezirk I, Leverkusen, Nordrhein-Westfalen, 51371, Deutschland"
Köln,Stadt Leverkusen,Gesamtschule,189406,"Leverkusen, GE Schlebusch",4,51.0410907,7.0522559,"Gesamtschule Leverkusen-Schlebusch, Opladener Straße, Schlebusch, Stadtbezirk III, Leverkusen, Nordrhein-Westfalen, 51375, Deutschland"
Köln,Stadt Leverkusen,Gymnasium,165001,"Leverkusen, Gym Freiherr-vom-Stein",2,51.0341394,7.038199,"Freiherr-vom-Stein-Gymnasium, 77, Morsbroicher Straße, Schlebusch, Stadtbezirk III, Leverkusen, Nordrhein-Westfalen, 51375, Deutschland"
Köln,Stadt Leverkusen,Gymnasium,165013,"Leverkusen, Gym Lise-Meitner",4,51.0339321,7.0010841,"Lise-Meitner-Gymnasium, 50, Am Stadtpark, Wiesdorf, Stadtbezirk I, Leverkusen, Nordrhein-Westfalen, 51373, Deutschland"
Köln,Stadt Leverkusen,Gymnasium,166194,"Leverkusen, Gym Landrat-Lucas",3,51.0629557,7.0013898,"Landrat-Lucas-Gymnasium, 7-11, Peter-Neuenheuser-Straße, Opladen, Stadtbezirk II, Leverkusen, Nordrhein-Westfalen, 51379, Deutschland"
Köln,Stadt Leverkusen,Gymnasium,166200,"Leverkusen, Gym Werner-Heisenberg",3,51.0662753,7.0438615,"Werner-Heisenberg-Gymnasium, Werner-Heisenberg-Straße, Lützenkirchen, Stadtbezirk III, Leverkusen, Nordrhein-Westfalen, 51381, Deutschland"
Köln,Städteregion Aachen,Gesamtschule,100016,"Stolberg, GE Kupferstädter",5,50.7819,6.2276138,"Kupferstädter Gesamtschule, 1, Breslauer Straße, Donnerberg, Stolberg, Städteregion Aachen, Nordrhein-Westfalen, 52222, Deutschland"
Köln,Städteregion Aachen,Gesamtschule,189110,"Aachen, GE Heinrich-Heine-Schule",6,50.8046289,6.0498504,"Heinrich-Heine-Gesamtschule, 89, Hander Weg, Laurensberg, Vetschau, Aachen, Städteregion Aachen, Nordrhein-Westfalen, 52072, Deutschland"
Köln,Städteregion Aachen,Gesamtschule,190070,"Eschweiler, GE Waldschule",5,50.8031619,6.2480179,"Waldschule - Städtische Gesamtschule, 12-16, Friedrichstraße, Pumpe, Eschweiler, Städteregion Aachen, Nordrhein-Westfalen, 52249, Deutschland"
Köln,Städteregion Aachen,Gesamtschule,190251,"Alsdorf, GE Gustav-Heinemann-Schule",5,50.8800401,6.1731283,"Gustav Heinemann-Gesamtschule, 1, Am Klött, Schaufenberg, Alsdorf, Städteregion Aachen, Nordrhein-Westfalen, 52477, Deutschland"
Köln,Städteregion Aachen,Gesamtschule,190688,"Aachen, GE Brand",5,50.7504003,6.1532199,"Gesamtschule Brand, 99, Rombachstraße, Brand, Aachen, Städteregion Aachen, Nordrhein-Westfalen, 52078, Deutschland"
Köln,Städteregion Aachen,Gesamtschule,191383,"Herzogenrath, GE Europaschule",4,50.881616,6.1130359,"Europaschule Herzogenrath, 8, Am Langenpfahl, Magerau, Herzogenrath, Städteregion Aachen, Nordrhein-Westfalen, 52134, Deutschland"
Köln,Städteregion Aachen,Gesamtschule,193458,"Aachen, GE Maria-Montessori",6,50.7661408,6.1033337,"Maria-Montessori-Gesamtschule, 18, Bergische Gasse, Steffensviertel, Frankenberger Viertel, Aachen-Mitte, Aachen, Städteregion Aachen, Nordrhein-Westfalen, 52066, Deutschland"
Köln,Städteregion Aachen,Gesamtschule,196290,"Aachen, GE Sandkaulstraße",5,50.7805949,6.0880372,"Sandkaulstraße, Kaiserplatz, Frankenberger Viertel, Aachen-Mitte, Aachen, Städteregion Aachen, Nordrhein-Westfalen, 52062, Deutschland"
Köln,Städteregion Aachen,Gesamtschule,196721,"Stolberg, GE Sperberweg",5,50.7666173,6.2215027,"Sperberweg, Liester, Stolberg, Städteregion Aachen, Nordrhein-Westfalen, 52223, Deutschland"
Köln,Städteregion Aachen,Gesamtschule,197348,"Herzogenrath, GE Maria-Sibylla-Merian",3,50.8290713,6.0904898,"Maria-Sibylla-Merian-Gesamtschule Standort 2, 38, Pestalozzistraße, Forstheide, Kämpchen, Herzogenrath, Städteregion Aachen, Nordrhein-Westfalen, 52134, Deutschland"
Köln,Städteregion Aachen,Gesamtschule,199515,"Würselen, GE Krottstraße",5,50.8206365,6.1415022,"Gesamtschule Würselen, 64a, Krottstraße, Kapellenfeldchen, Drisch, Würselen, Städteregion Aachen, Nordrhein-Westfalen, 52146, Deutschland"
Köln,Städteregion Aachen,Gymnasium,167290,"Aachen, Gym Kaiser-Karls",3,50.7770369,6.0821235,"Kaiser-Karls-Gymnasium, 7, Augustinerbach, Aachen-Mitte, Aachen, Städteregion Aachen, Nordrhein-Westfalen, 52062, Deutschland"
Köln,Städteregion Aachen,Gymnasium,167319,"Aachen, Gym Rhein-Maas",3,50.7576138,6.0867685,"Rhein-Maas-Gymnasium, 2, Rhein-Maas-Straße, Burtscheid, Aachen-Mitte, Aachen, Städteregion Aachen, Nordrhein-Westfalen, 52066, Deutschland"
Köln,Städteregion Aachen,Gymnasium,167320,"Aachen, Gym Anne-Frank",2,50.804875,6.0514797,"Anne-Frank-Gymnasium, 89, Hander Weg, Laurensberg, Vetschau, Aachen, Städteregion Aachen, Nordrhein-Westfalen, 52072, Deutschland"
Köln,Städteregion Aachen,Gymnasium,167332,"Aachen, Gym Couven",4,50.7631947,6.0709447,"Couven-Gymnasium, 111a, Lütticher Straße, Hanbruch, Aachen-Mitte, Aachen, Städteregion Aachen, Nordrhein-Westfalen, 52074, Deutschland"
Köln,Städteregion Aachen,Gymnasium,167356,"Aachen, Gym Einhard",3,50.7567163,6.0926407,"Einhard-Gymnasium, 4, Robert-Schuman-Straße, Siegel, Burtscheid, Aachen-Mitte, Aachen, Städteregion Aachen, Nordrhein-Westfalen, 52066, Deutschland"
Köln,Städteregion Aachen,Gymnasium,167368,"Aachen, Gym St.Leonhard",3,50.772826,6.0827074,"Gymnasium St. Leonhard, 9, Jesuitenstraße, Burtscheid, Aachen-Mitte, Aachen, Städteregion Aachen, Nordrhein-Westfalen, 52062, Deutschland"
Köln,Städteregion Aachen,Gymnasium,167381,"Aachen, Gym Geschwister-Scholl",7,50.7758578,6.1226824,"Geschwister-Scholl-Gymnasium, 200, Stolberger Straße, Forst, Aachen-Mitte, Aachen, Städteregion Aachen, Nordrhein-Westfalen, 52068, Deutschland"
Köln,Städteregion Aachen,Gymnasium,167393,"Aachen, Gym Inda",2,50.7251754,6.1774209,"Inda-Gymnasium, 52, Gangolfsweg, Kornelimünster, Kornelimünster/Walheim, Aachen, Städteregion Aachen, Nordrhein-Westfalen, 52076, Deutschland"
Köln,Städteregion Aachen,Gymnasium,167400,"Alsdorf, Gym Alsdorf",3,50.7781129,7.8828111,"Alsdorf Schule, Hauptstraße, Alsdorf, Betzdorf-Gebhardshain, Landkreis Altenkirchen (Westerwald), Rheinland-Pfalz, 57518, Deutschland"
Köln,Städteregion Aachen,Gymnasium,167411,"Baesweiler, Gym Otto-Hahn-Str.",3,50.9109015,6.1873079,"Gymnasium der Stadt Baesweiler, 16-18, Otto-Hahn-Straße, Baesweiler, Städteregion Aachen, Nordrhein-Westfalen, 52499, Deutschland"
Köln,Städteregion Aachen,Gymnasium,167435,"Eschweiler, Gym Peter-Paul-Str.",4,50.8201892,6.2738763,"Peter-Paul-Straße, Röthgen, Nothberg, Eschweiler, Städteregion Aachen, Nordrhein-Westfalen, 52249, Deutschland"
Köln,Städteregion Aachen,Gymnasium,167447,"Herzogenrath, Gym Bardenberger Str.",2,50.8631333,6.1069929,"Städtisches Gymnasium Herzogenrath, 72, Bardenberger Straße, Ruif, Herzogenrath, Städteregion Aachen, Nordrhein-Westfalen, 52134, Deutschland"
Köln,Städteregion Aachen,Gymnasium,167459,"Monschau, Gym St. Michael",2,50.5566274,6.2362181,"St.-Michael-Gymnasium, 51, Walter-Scheibler-Straße, Mützenich, Monschau, Städteregion Aachen, Nordrhein-Westfalen, 52156, Deutschland"
Köln,Städteregion Aachen,Gymnasium,167460,"Stolberg, Gym Ritzefeld",3,50.7762372,6.2281502,"Ritzefeldstraße, Donnerberg, Stolberg, Städteregion Aachen, Nordrhein-Westfalen, 52222, Deutschland"
Köln,Städteregion Aachen,Gymnasium,167472,"Stolberg, Gym Goethe",3,50.7688431,6.2228606,"Goethe Gymnasium Stolberg, 5, Lerchenweg, Liester, Stolberg, Städteregion Aachen, Nordrhein-Westfalen, 52223, Deutschland"
Köln,Städteregion Aachen,Gymnasium,167484,"Würselen, Gym Klosterstraße",3,50.8199231,6.1287097,"Klosterstraße, Bissen, Würselen, Städteregion Aachen, Nordrhein-Westfalen, 52146, Deutschland"
Münster,Kreis Borken,Gesamtschule,100024,"Gronau, GE Euregioschule",3,52.2066554,7.0364969,"Gesamtschule Gronau, 25, Laubstiege, Morgensternsiedlung, Eßseite, Gronau, Kreis Borken, Nordrhein-Westfalen, 48599, Deutschland"
Münster,Kreis Borken,Gesamtschule,197798,"Rhede, GE Büssingstraße",2,51.8396326,6.6861159,"Gesamtschule Rhede, Büssingstraße, Rhede, Kreis Borken, Nordrhein-Westfalen, 46414, Deutschland"
Münster,Kreis Borken,Gesamtschule,197816,"Ahaus, GE Irena-Sendler",2,52.0807766,6.9976388,"Irena-Sendler-Gesamtschule, 6-8, Hof zum Ahaus, Wüllen, Ahaus, Kreis Borken, Nordrhein-Westfalen, 48683, Deutschland"
Münster,Kreis Borken,Gesamtschule,198171,"Gescher, GE Borkener Damm",2,51.9449,6.9871814,"Borkener Damm, Gescher, Kreis Borken, Nordrhein-Westfalen, 48712, Deutschland"
Münster,Kreis Borken,Gesamtschule,198237,"Borken, GE Jodocus Nünning",2,51.8596938,6.8442186,"Jodocus-Nünning-Gesamtschule, Neumühlenallee, Gemen-Kirchspiel, Borken, Kreis Borken, Nordrhein-Westfalen, 46325, Deutschland"
Münster,Kreis Borken,Gesamtschule,198298,"Bocholt, GE Rheinstraße",3,51.827625,6.621791,"Gesamtschule Bocholt, 4, Rheinstraße, Bocholt, Kreis Borken, Nordrhein-Westfalen, 46395, Deutschland"
Münster,Kreis Borken,Gesamtschule,199163,"Gronau, GE Laubstiege",6,52.2066554,7.0364969,"Gesamtschule Gronau, 25, Laubstiege, Morgensternsiedlung, Eßseite, Gronau, Kreis Borken, Nordrhein-Westfalen, 48599, Deutschland"
Münster,Kreis Borken,Gesamtschule,199977,"Borken, GE Julia-Koppers-Gesamtschule",3,51.838234,6.8532979,"Julia-Koppers-Gesamtschule, Windthorststraße, Borken, Kreis Borken, Nordrhein-Westfalen, 46325, Deutschland"
Münster,Kreis Borken,Gymnasium,167678,"Bocholt, Gym St.-Georg-Gymnasium Bocholt",2,,,
Münster,Kreis Borken,Gymnasium,167680,"Bocholt, Gym Marien",3,,,
Münster,Kreis Borken,Gymnasium,167988,"Ahaus, Gym Alexander-Hegius",2,52.084795,7.0090891,"Alexander-Hegius-Gymnasium, 18, Fuistingstraße, Ahaus, Kreis Borken, Nordrhein-Westfalen, 48683, Deutschland"
Münster,Kreis Borken,Gymnasium,167990,"Gronau, Gym Werner-von-Siemens",3,52.2059556,7.0352624,"Werner-von-Siemens-Gymnasium, 21, Laubstiege, Morgensternsiedlung, Eßseite, Gronau, Kreis Borken, Nordrhein-Westfalen, 48599, Deutschland"
Münster,Kreis Borken,Gymnasium,168002,"Vreden, Gym Georgianum",2,52.0381574,6.8159296,"Gymnasium Georgianum, 3, Zwillbrocker Straße, Vreden, Kreis Borken, Nordrhein-Westfalen, 48691, Deutschland"
Münster,Kreis Borken,Gymnasium,168087,"Borken, Gym Remigianum",2,51.8400156,6.8659698,"Gymnasium Remigianum, Josefstraße, Borken, Kreis Borken, Nordrhein-Westfalen, 46325, Deutschland"
Münster,Kreis Borken,Gymnasium,183568,"Bocholt, Gym Euregio-Gymnasium",2,51.8480481,6.6343475,"Euregio Gymnasium, In der Hardt, Bocholt, Kreis Borken, Nordrhein-Westfalen, 46397, Deutschland"
Münster,Kreis Borken,Gymnasium,192752,"Stadtlohn, Gym Geschwister-Scholl",1,51.9860429,6.9280127,"Geschwister-Scholl-Gymnasium, Bomers Kamp, Stadtlohn, Kreis Borken, Nordrhein-Westfalen, 48703, Deutschland"
Münster,Kreis Coesfeld,Gesamtschule,190743,"Havixbeck, GE Anne Frank",2,51.9759485,7.4158432,"Anne-Frank-Gesamtschule, Dirkes Allee, Havixbeck, Kreis Coesfeld, Nordrhein-Westfalen, 48329, Deutschland"
Münster,Kreis Coesfeld,Gesamtschule,191310,"Olfen, GE Wolfhelmschule Olfen-Datteln",3,,,
Münster,Kreis Coesfeld,Gesamtschule,192144,"Nordkirchen, GE Johann-Conrad-Schlaun",1,51.7388565,7.531816,"Johann-Conrad-Schlaun-Schule Gesamtschule Nordkirchen, Am Gorbach, Nordkirchen, Kreis Coesfeld, Nordrhein-Westfalen, 59394, Deutschland"
Münster,Kreis Coesfeld,Gymnasium,168129,"Coesfeld, Gym Heriburg",1,51.9472468,7.1638569,"Heriburg-Gymnasium, 10, Seminarstraße, Coesfeld, Kreis Coesfeld, Nordrhein-Westfalen, 48653, Deutschland"
Münster,Kreis Coesfeld,Gymnasium,168130,"Coesfeld, Gym Nepomucenum",1,51.9508011,7.1676681,"Gymnasium Nepomucenum, 8, Holtwicker Straße, Coesfeld, Kreis Coesfeld, Nordrhein-Westfalen, 48653, Deutschland"
Münster,Kreis Coesfeld,Gymnasium,168142,"Dülmen, Gym Clemens-Brentano",2,51.8250431,7.2831034,"Clemens-Brentano-Gymnasium, 7, An der Kreuzkirche, Mitte, Dülmen, Kreis Coesfeld, Nordrhein-Westfalen, 48249, Deutschland"
Münster,Kreis Coesfeld,Gymnasium,168191,"Lüdinghausen, Gym St.Antonius",1,51.7749184,7.4399879,"Sankt Antonius Gymnasium, Kapitelweg, Lüdinghausen, Kreis Coesfeld, Nordrhein-Westfalen, 59348, Deutschland"
Münster,Kreis Coesfeld,Gymnasium,190810,"Nottuln, Gym Rupert-Neudeck",2,51.923451,7.3522636,"Rupert-Neudeck-Gymnasium Nottuln, 1, Sankt-Amand-Montrond-Straße, Nottuln, Kreis Coesfeld, Nordrhein-Westfalen, 48301, Deutschland"
Münster,Kreis Coesfeld,Gymnasium,191358,"Senden, Gym Joseph-Haydn",1,51.8532682,7.4830649,"Joseph-Haydn-Gymnasium, Am Bürgerpark, Senden, Kreis Coesfeld, Nordrhein-Westfalen, 48308, Deutschland"
Münster,Kreis Coesfeld,Gymnasium,193665,"Dülmen, Gym Annette-von-Droste-Hülshoff",1,51.8267142,7.2870981,"Annette-von-Droste-Hülshoff-Gymnasium, Friedrich-Ruin-Straße, Mitte, Dülmen, Kreis Coesfeld, Nordrhein-Westfalen, 48249, Deutschland"
Münster,Kreis Recklinghausen,Gesamtschule,100126,"Castrop-Rauxel, GE Gesamtsch.Ickern",4,51.5989651,7.3317349,"Neue Gesamtschule Ickern, 130, Waldenburger Straße, Ickern, Ickern Süd, Castrop-Rauxel, Kreis Recklinghausen, Nordrhein-Westfalen, 44581, Deutschland"
Münster,Kreis Recklinghausen,Gesamtschule,184342,"Dorsten, GE Wulfen",3,51.7273069,7.0278514,"Gesamtschule Wulfen, 2, Wulfener Markt, Lehmkuhle, Wulfen, Dorsten, Kreis Recklinghausen, Nordrhein-Westfalen, 46286, Deutschland"
Münster,Kreis Recklinghausen,Gesamtschule,184380,"Gladbeck, GE Ingeborg-Drewitz",8,51.5829903,6.9614397,"Ingeborg-Drewitz-Gesamtschule, Fritz-Erler-Straße, Rentfort, Rentfort-Nord, Rentfort, Gladbeck, Kreis Recklinghausen, Nordrhein-Westfalen, 45966, Deutschland"
Münster,Kreis Recklinghausen,Gesamtschule,185188,"Herten, GE Rosa-Parks-Schule",8,51.6084234,7.1378455,"Rosa-Parks-Schule, Fritz-Erler-Straße, Disteln, Herten, Kreis Recklinghausen, Nordrhein-Westfalen, 45701, Deutschland"
Münster,Kreis Recklinghausen,Gesamtschule,185190,"Marl, GE Willy-Brandt",6,51.6494043,7.0987513,"Willy-Brandt-Gesamtschule, 1, Willy-Brandt-Allee, Stadtkern, Stadtkern Marl, Marl, Kreis Recklinghausen, Nordrhein-Westfalen, 45770, Deutschland"
Münster,Kreis Recklinghausen,Gesamtschule,188190,"Castrop-Rauxel, GE Willy-Brandt",6,51.5628416,7.3103445,"Willy-Brandt-Gesamtschule, 160, Bahnhofstraße, Rauxel-Süd, Castrop-Rauxel, Kreis Recklinghausen, Nordrhein-Westfalen, 44575, Deutschland"
Münster,Kreis Recklinghausen,Gesamtschule,188803,"Recklinghausen, GE Käthe-Kollwitz",8,51.6822999,7.1382905,"Käthe-Kollwitz-Schule, Merkelheider Weg, Waldsiedlung, Marl-Hamm, Marl, Kreis Recklinghausen, Nordrhein-Westfalen, 45772, Deutschland"
Münster,Kreis Recklinghausen,Gesamtschule,188876,"Marl, GE Martin-Luther-King",6,51.6632608,7.1468928,"Martin-Luther-King-Gesamtschule, 67, Georg-Herwegh-Straße, Hüls-Süd, Marl, Kreis Recklinghausen, Nordrhein-Westfalen, 45772, Deutschland"
Münster,Kreis Recklinghausen,Gesamtschule,190524,"Recklinghausen, GE Wolfgang-Borchert",7,51.6251338,7.190418,"Wolfgang-Borchert-Gesamtschule, Otto-Burrmeister-Allee, Nordviertel, Recklinghausen, Kreis Recklinghausen, Nordrhein-Westfalen, 45657, Deutschland"
Münster,Kreis Recklinghausen,Gesamtschule,191322,"Waltrop, GE Brockenscheidter Str.",4,51.6152128,7.4049911,"Brockenscheidter Straße, Egelmeer, Waltrop, Kreis Recklinghausen, Nordrhein-Westfalen, 45731, Deutschland"
Münster,Kreis Recklinghausen,Gesamtschule,191875,"Recklinghausen, GE Suderwich",4,51.6051415,7.2798801,"GERESU - Gesamtschule Suderwich, Am Flögelshof, Suderwich, Recklinghausen, Kreis Recklinghausen, Nordrhein-Westfalen, 45665, Deutschland"
Münster,Kreis Recklinghausen,Gymnasium,167800,"Gladbeck, Gym Riesener-Gymnasium",4,51.5703385,6.9870662,"Riesener Gymnasium, Wilhelmstraße, Mitte I (West), Mitte, Gladbeck, Kreis Recklinghausen, Nordrhein-Westfalen, 45964, Deutschland"
Münster,Kreis Recklinghausen,Gymnasium,167812,"Gladbeck, Gym Rats",3,51.5770689,6.9800819,"Heisenberg-Gymnasium, Sandstraße, Mitte I (West), Mitte, Gladbeck, Kreis Recklinghausen, Nordrhein-Westfalen, 45964, Deutschland"
Münster,Kreis Recklinghausen,Gymnasium,167824,"Gladbeck, Gym Heisenberg",3,51.5770689,6.9800819,"Heisenberg-Gymnasium, Sandstraße, Mitte I (West), Mitte, Gladbeck, Kreis Recklinghausen, Nordrhein-Westfalen, 45964, Deutschland"
Münster,Kreis Recklinghausen,Gymnasium,167927,"Recklinghausen, Gym Marie-Curie",3,51.6196343,7.2015021,"Marie-Curie Gymnasium, Oerweg, Nordviertel, Recklinghausen, Kreis Recklinghausen, Nordrhein-Westfalen, 45657, Deutschland"
Münster,Kreis Recklinghausen,Gymnasium,167939,"Recklinghausen, Gym Hittorf",3,51.6095352,7.191144,"Hittorf-Gymnasium, 38, Kemnastraße, Paulusviertel, Recklinghausen, Kreis Recklinghausen, Nordrhein-Westfalen, 45657, Deutschland"
Münster,Kreis Recklinghausen,Gymnasium,167940,"Recklinghausen, Gym Theodor-Heuss",5,51.5717234,7.2093626,"Theodor Heuss Gymnasium, Theodor-Körner-Straße, Süd, Recklinghausen Süd, Recklinghausen, Kreis Recklinghausen, Nordrhein-Westfalen, 45661, Deutschland"
Münster,Kreis Recklinghausen,Gymnasium,167952,"Recklinghausen, Gym Petrinum",2,51.6146529,7.1943868,"Gymnasium Petrinum, 28, Herzogswall, Innenstadt, Recklinghausen, Kreis Recklinghausen, Nordrhein-Westfalen, 45657, Deutschland"
Münster,Kreis Recklinghausen,Gymnasium,168257,"Haltern, Gym Joseph-König",1,51.738518,7.1821914,"Joseph-König-Gymnasium Haltern am See, 3–5, Holtwicker Straße, Haltern-Mitte, Mitte / Hamm-Bossendorf, Hamm-Bossendorf, Haltern am See, Kreis Recklinghausen, Nordrhein-Westfalen, 45721, Deutschland"
Münster,Kreis Recklinghausen,Gymnasium,168269,"Herten, Gym Städt. Gymnasium Herten",4,51.5964466,7.1386369,"Gymnasium, 40, Gartenstraße, Herten-Mitte, Herten, Kreis Recklinghausen, Nordrhein-Westfalen, 45699, Deutschland"
Münster,Kreis Recklinghausen,Gymnasium,168270,"Datteln, Gym Comenius",4,51.6481885,7.3349778,"Comenius-Gymnasium, Südring, Hachhausen, Datteln, Kreis Recklinghausen, Nordrhein-Westfalen, 45711, Deutschland"
Münster,Kreis Recklinghausen,Gymnasium,168282,"Dorsten, Gym Petrinum",2,51.6650342,6.9630618,"Gymnasium Petrinum, 17, Im Werth, Altstadt, Dorsten, Kreis Recklinghausen, Nordrhein-Westfalen, 46282, Deutschland"
Münster,Kreis Recklinghausen,Gymnasium,168312,"Marl, Gym Im Loekamp",4,51.6613838,7.128564,"Gymnasium im Loekamp, 80, Loekampstraße, Hüls-Süd, Marl, Kreis Recklinghausen, Nordrhein-Westfalen, 45770, Deutschland"
Münster,Kreis Recklinghausen,Gymnasium,168336,"Waltrop, Gym Theodor-Heuss",2,51.6197191,7.4002452,"Theodor-Heuss-Gymnasium, Lehmstraße, Alte Kolonie, Waltrop, Kreis Recklinghausen, Nordrhein-Westfalen, 45731, Deutschland"
Münster,Kreis Recklinghausen,Gymnasium,169249,"Castrop-Rauxel, Gym Ernst-Barlach",3,51.5599469,7.3122616,"Ernst-Barlach-Gymnasium, Lunastraße, Rauxel, Rauxel-Süd, Castrop-Rauxel, Kreis Recklinghausen, Nordrhein-Westfalen, 44575, Deutschland"
Münster,Kreis Recklinghausen,Gymnasium,169250,"Castrop-Rauxel, Gym Adalbert-Stifter",3,51.5462674,7.3099314,"Adalbert-Stifter-Gymnasium, 8, Leonhardstraße, Castrop, Castrop-Rauxel, Kreis Recklinghausen, Nordrhein-Westfalen, 44575, Deutschland"
Münster,Kreis Recklinghausen,Gymnasium,187215,"Oer-Erkenschwick, Gym Willy-Brandt",2,51.6384723,7.2557696,"Willy-Brandt-Gymnasium, 4, Christoph-Stöver-Straße, Groß-Erkenschwick, Oer-Erkenschwick, Kreis Recklinghausen, Nordrhein-Westfalen, 45739, Deutschland"
Münster,Kreis Recklinghausen,Gymnasium,191425,"Recklinghausen, Gym Freiherr-vom-Stein",4,51.6153324,7.1816724,"Freiherr-vom-Stein-Gymnasium, Freiherr-Vom-Stein-Straße, Westviertel, Recklinghausen, Kreis Recklinghausen, Nordrhein-Westfalen, 45657, Deutschland"
Münster,Kreis Recklinghausen,Gymnasium,195832,"Marl, Gym Alb. Schweitzer/Geschw. Scholl",4,51.6618207,7.0987604,"Albert-Schweitzer-Geschwister-Scholl-Gymnasium, 23, Max-Planck-Straße, Stadtkern, Stadtkern Marl, Marl, Kreis Recklinghausen, Nordrhein-Westfalen, 45768, Deutschland"
Münster,Kreis Steinfurt,Gesamtschule,100023,"Lengerich, GE Lengerich/Tecklenburg",3,52.1856413,7.8666904,"Gesamtschule Lengerich/Tecklenburg, Margarethenstraße, Lengerich, Kreis Steinfurt, Nordrhein-Westfalen, 49525, Deutschland"
Münster,Kreis Steinfurt,Gesamtschule,100125,"Neuenkirchen, GE Emmy-Noether",2,52.2422646,7.3734331,"Emmy-Noether-Schule, Josefstraße, Neuenkirchen, Kreis Steinfurt, Nordrhein-Westfalen, 48485, Deutschland"
Münster,Kreis Steinfurt,Gesamtschule,189911,"Saerbeck, GE Maximilian-Kolbe",2,52.1748731,7.637533,"Maximilian-Kolbe-Gesamtschule, Kolpingstraße, Saerbeck, Kreis Steinfurt, Nordrhein-Westfalen, 48369, Deutschland"
Münster,Kreis Steinfurt,Gesamtschule,190410,"Rheine, GE Euregio-Schule",4,52.2797174,7.4481623,"Euregio Gesamtschule Rheine, Ludwigstraße, Hörstkamp, Stadtberg, Rheine, Kreis Steinfurt, Nordrhein-Westfalen, 48429, Deutschland"
Münster,Kreis Steinfurt,Gesamtschule,190652,"Nordwalde, GE Kardinal-von-Galen",3,52.0880805,7.4813124,"Kardinal-von-Galen Gesamtschule, Emsdettener Straße, Nordwalde, Kreis Steinfurt, Nordrhein-Westfalen, 48356, Deutschland"
Münster,Kreis Steinfurt,Gesamtschule,196654,"Greven, GE Teichstraße",4,52.0887605,7.6224272,"Nelson-Mandela-Gesamtschule Greven, 29, Teichstraße, Greven, Kreis Steinfurt, Nordrhein-Westfalen, 48268, Deutschland"
Münster,Kreis Steinfurt,Gesamtschule,196666,"Ibbenbüren, GE Erna-de-Vries",3,52.2684364,7.7347885,"Gesamtschule Ibbenbüren, 22, Am Sportzentrum, Ibbenbüren, Kreis Steinfurt, Nordrhein-Westfalen, 49479, Deutschland"
Münster,Kreis Steinfurt,Gesamtschule,197683,"Hörstel, GE Harkenberg",2,52.2904939,7.5922873,"Harkenberg Gesamtschule Hörstel, 5, Westfalenstraße, Hörstel, Kreis Steinfurt, Nordrhein-Westfalen, 48477, Deutschland"
Münster,Kreis Steinfurt,Gesamtschule,198985,"Westerkappeln, GE Osnabrücker Str.",3,52.31432,7.8847514,"Gesamtschule Lotte-Westerkappeln, 25, Osnabrücker Straße, Westerkappeln, Kreis Steinfurt, Nordrhein-Westfalen, 49492, Deutschland"
Münster,Kreis Steinfurt,Gymnasium,168210,"Greven, Gym Augustinianum",2,52.0907356,7.6085254,"Gymnasium Augustinianum, 68, Lindenstraße, Greven, Kreis Steinfurt, Nordrhein-Westfalen, 48268, Deutschland"
Münster,Kreis Steinfurt,Gymnasium,168348,"Steinfurt, Gym Borghorst",2,52.1271428,7.4061979,"Städtisches Gymnasium Borghorst, 6, Herderstraße, Borghorst, Steinfurt, Kreis Steinfurt, Nordrhein-Westfalen, 48565, Deutschland"
Münster,Kreis Steinfurt,Gymnasium,168350,"Steinfurt, Gym Arnoldinum Europaschule",2,52.154066,7.3439035,"Gymnasium, Pagenstecherweg, Burgsteinfurt, Steinfurt, Kreis Steinfurt, Nordrhein-Westfalen, 48565, Deutschland"
Münster,Kreis Steinfurt,Gymnasium,168361,"Emsdetten, Gym Martinum",2,52.1801274,7.5245921,"Gymnasium Martinum, 61, Wannenmacherstraße, Berge, Isendorf-Beckwermert, Emsdetten, Kreis Steinfurt, Nordrhein-Westfalen, 48282, Deutschland"
Münster,Kreis Steinfurt,Gymnasium,168373,"Rheine, Gym Dionysianum",2,52.282924,7.4318446,"Gymnasium Dionysianum, 2, Anton-Führer-Straße, Wietesch, Rheine, Kreis Steinfurt, Nordrhein-Westfalen, 48431, Deutschland"
Münster,Kreis Steinfurt,Gymnasium,168385,"Rheine, Gym Emsland",3,52.266087,7.4307806,"Emsland-Gymnasium, 120, Bühnertstraße, Dorenkamp, Rheine, Kreis Steinfurt, Nordrhein-Westfalen, 48431, Deutschland"
Münster,Kreis Steinfurt,Gymnasium,168397,"Rheine, Gym Kopernikus",3,52.2800782,7.4583322,"Kopernikus-Gymnasium, 61, Kopernikusstraße, Südesch, Stadtberg, Rheine, Kreis Steinfurt, Nordrhein-Westfalen, 48429, Deutschland"
Münster,Kreis Steinfurt,Gymnasium,168415,"Ochtrup, Gym Ochtrup",2,52.2100271,7.2227974,"Albaad Deutschland, 23, Am Langenhorster Bahnhof, Langenhorst, Ochtrup, Kreis Steinfurt, Nordrhein-Westfalen, 48607, Deutschland"
Münster,Kreis Steinfurt,Gymnasium,168427,"Lengerich, Gym Hannah-Arendt",3,52.1824464,7.8654096,"Hannah-Arendt-Gymnasium, 110; 112, Bahnhofstraße, Lengerich, Kreis Steinfurt, Nordrhein-Westfalen, 49525, Deutschland"
Münster,Kreis Steinfurt,Gymnasium,168452,"Ibbenbüren, Gym Johannes-Kepler",1,52.2696708,7.7353524,"Johannes-Kepler-Gymnasium, Hoppenweg, Ibbenbüren, Kreis Steinfurt, Nordrhein-Westfalen, 49477, Deutschland"
Münster,Kreis Steinfurt,Gymnasium,168464,"Ibbenbüren, Gym Goethe, Europa-Schule",1,,,
Münster,Kreis Steinfurt,Gymnasium,168476,"Tecklenburg, Gym Graf-Adolf",1,52.2179868,7.8159179,"Graf Adolf Gymnasium, 2 - 4, Hofbauers Kamp, Tecklenburg, Kreis Steinfurt, Nordrhein-Westfalen, 49545, Deutschland"
Münster,Kreis Warendorf,Gesamtschule,100098,"Ahlen, GE Therese-Münsterteicher",6,51.7708871,7.8924124,"Therese-Münsterteicher-Gesamtschule, 54, Sedanstraße, Ahlen, Kreis Warendorf, Nordrhein-Westfalen, 59227, Deutschland"
Münster,Kreis Warendorf,Gesamtschule,189923,"Ahlen, GE Fritz-Winter-Gesamtschule",5,51.7550423,7.9015658,"Fritz-Winter-Gesamtschule, 13, August-Kirchner-Straße, Ahlen, Kreis Warendorf, Nordrhein-Westfalen, 59229, Deutschland"
Münster,Kreis Warendorf,Gesamtschule,196915,"Ennigerloh, GE Rosa Parks",4,51.8428095,8.0309568,"Rosa Parks Gesamtschule, Standort Ennigerloh Berliner Straße, 37, Berliner Straße, Ennigerloh, Kreis Warendorf, Nordrhein-Westfalen, 59320, Deutschland"
Münster,Kreis Warendorf,Gesamtschule,197154,"Warendorf, GE Weiße Rose",3,51.9589165,7.9967914,"Gesamtschule Warendorf, 21, Kapellenstraße, Warendorf, Kreis Warendorf, Nordrhein-Westfalen, 48231, Deutschland"
Münster,Kreis Warendorf,Gesamtschule,198201,"Oelde, GE Bultstr.",3,51.8271845,8.1499956,"Gesamtschule Oelde (Standort 2), 20, Bultstraße, Oelde, Kreis Warendorf, Nordrhein-Westfalen, 59302, Deutschland"
Münster,Kreis Warendorf,Gymnasium,168026,"Ahlen, Gym Bruno-Wagler-Weg",4,51.7620907,7.8850888,"Bruno-Wagler-Weg, Ahlen, Kreis Warendorf, Nordrhein-Westfalen, 59227, Deutschland"
Münster,Kreis Warendorf,Gymnasium,168038,"Beckum, Gym Albertus-Magnus",2,51.7504969,8.0380302,"Albertus-Magnus-Gymnasium, 2, Paterweg, Beckum, Kreis Warendorf, Nordrhein-Westfalen, 59269, Deutschland"
Münster,Kreis Warendorf,Gymnasium,168051,"Beckum, Gym Kopernikus",2,51.7997796,8.0319926,"Kopernikus-Gymnasium, Vellerner Straße, Interkultureller Garten, Neubeckum, Beckum, Kreis Warendorf, Nordrhein-Westfalen, 59269, Deutschland"
Münster,Kreis Warendorf,Gymnasium,168075,"Oelde, Gym Thomas-Morus",2,51.8233649,8.1507033,"Thomas-Morus-Gymnasium, Zur Dicken Linde, Oelde, Kreis Warendorf, Nordrhein-Westfalen, 59302, Deutschland"
Münster,Kreis Warendorf,Gymnasium,168490,"Warendorf, Gym Laurentianum",1,51.9487666,7.9755829,"Gymnasium Laurentianum, 24, Von-Ketteler-Straße, Warendorf, Kreis Warendorf, Nordrhein-Westfalen, 48231, Deutschland"
Münster,Kreis Warendorf,Gymnasium,168506,"Warendorf, Gym Marien",1,51.8295337,7.9493377,"Grundschule St. Marien, 10, Marienstraße, Enniger, Ennigerloh, Kreis Warendorf, Nordrhein-Westfalen, 59320, Deutschland"
Münster,Kreis Warendorf,Gymnasium,192326,"Telgte, Gym Maria-Sibylla-Merian",1,51.9873044,7.779201,"Maria-Sibylla-Merian-Gymnasium, 4, August-Winkhaus-Straße, Telgte, Kreis Warendorf, Nordrhein-Westfalen, 48291, Deutschland"
Münster,Stadt Bottrop,Gesamtschule,189017,"Bottrop, GE Janusz-Korczak",8,51.5279316,6.9365841,"Janusz-Korczak-Gesamtschule, Germaniahof, Stadtmitte, Bottrop, Nordrhein-Westfalen, 46236, Deutschland"
Münster,Stadt Bottrop,Gesamtschule,190846,"Bottrop, GE Willy-Brandt",5,51.5435487,6.9286619,"Willy-Brandt-Gesamtschule Bottrop, Arminiusstraße, Eigen, Bottrop, Nordrhein-Westfalen, 46240, Deutschland"
Münster,Stadt Bottrop,Gymnasium,167691,"Bottrop, Gym Josef-Albers",3,51.5178385,6.9178786,"Josef-Albers-Gymnasium, Zeppelinstraße, Stadtmitte, Bottrop, Nordrhein-Westfalen, 46236, Deutschland"
Münster,Stadt Bottrop,Gymnasium,167708,"Bottrop, Gym Heinrich-Heine",2,51.524322,6.9138452,"Heinrich-Heine-Gymnasium, Gustav-Ohm-Straße, Stadtmitte, Bottrop, Nordrhein-Westfalen, 46236, Deutschland"
Münster,Stadt Bottrop,Gymnasium,167710,"Bottrop, Gym Vestisches",1,51.6063893,6.9194737,"Vestisches Gymnasium Kirchhellen, 25, Schulstraße, Kirchhellen-Mitte, Kirchhellen, Bottrop, Nordrhein-Westfalen, 46244, Deutschland"
Münster,Stadt Gelsenkirchen,Gesamtschule,164185,"Gelsenkirchen, GE Berger Feld",7,51.5565459,7.0711638,"Gesamtschule Berger Feld, Arenaring, Erle-Berger Feld, Erle, Gelsenkirchen-Ost, Gelsenkirchen, Nordrhein-Westfalen, 45891, Deutschland"
Münster,Stadt Gelsenkirchen,Gesamtschule,188098,"Gelsenkirchen, GE Ueckendorf",9,51.4945056,7.1139281,"Gesamtschule Ückendorf, Bochumer Straße, Ückendorf, Gelsenkirchen-Süd, Gelsenkirchen, Nordrhein-Westfalen, 45886, Deutschland"
Münster,Stadt Gelsenkirchen,Gesamtschule,188736,"Gelsenkirchen, GE Horst",8,51.534717,7.0215473,"Gesamtschule Horst, Schmalhorststraße, Horst, Gelsenkirchen-West, Gelsenkirchen, Nordrhein-Westfalen, 45899, Deutschland"
Münster,Stadt Gelsenkirchen,Gesamtschule,189730,"Gelsenkirchen, GE Buer-Mitte",6,51.5775941,7.0446431,"Gesamtschule Buer-Mitte, Nollenpad, Buer, Gelsenkirchen-Nord, Gelsenkirchen, Nordrhein-Westfalen, 45894, Deutschland"
Münster,Stadt Gelsenkirchen,Gesamtschule,199114,"Gelsenkirchen, GE Erle",6,51.5598816,7.0955802,"Gesamtschule Erle, Oststraße, Erle, Gelsenkirchen-Ost, Gelsenkirchen, Nordrhein-Westfalen, 45891, Deutschland"
Münster,Stadt Gelsenkirchen,Gymnasium,167721,"Gelsenkirchen, Gym Leibniz",4,51.5752696,7.0544595,"Leibniz-Gymnasium, Breddestraße, Buer, Gelsenkirchen-Nord, Gelsenkirchen, Nordrhein-Westfalen, 45894, Deutschland"
Münster,Stadt Gelsenkirchen,Gymnasium,167733,"Gelsenkirchen, Gym Carl-Friedrich-Gauß",6,51.5151021,7.1107223,"Carl-Friedrich-Gauß-Gymnasium, 13, Hammerschmidtstraße, Bulmke-Hüllen, Gelsenkirchen-Mitte, Gelsenkirchen, Nordrhein-Westfalen, 45888, Deutschland"
Münster,Stadt Gelsenkirchen,Gymnasium,167745,"Gelsenkirchen, Gym Max-Planck",3,51.5809025,7.0655847,"Max-Planck-Gymnasium, Am Goldberg, Buer, Gelsenkirchen-Nord, Gelsenkirchen, Nordrhein-Westfalen, 45894, Deutschland"
Münster,Stadt Gelsenkirchen,Gymnasium,167757,"Gelsenkirchen, Gym von-Droste-Hülshoff",3,,,
Münster,Stadt Gelsenkirchen,Gymnasium,167770,"Gelsenkirchen, Gym Ricarda-Huch",7,51.5123018,7.1061094,"Ricarda-Huch-Gymnasium, Auf dem Bettau, Bulmke-Hüllen, Gelsenkirchen-Mitte, Gelsenkirchen, Nordrhein-Westfalen, 45888, Deutschland"
Münster,Stadt Gelsenkirchen,Gymnasium,167782,"Gelsenkirchen, Gym Grillo",8,51.5193219,7.0877859,"GGS Friedrich-Grillo-Schule, Kußweg, Schalke, Gelsenkirchen-Mitte, Gelsenkirchen, Nordrhein-Westfalen, 45881, Deutschland"
Münster,Stadt Gelsenkirchen,Gymnasium,167794,"Gelsenkirchen, Gym Schalker",9,51.5180881,7.0991678,"Schalker Gymnasium, Heimgarten, Sophienau, Schalke, Gelsenkirchen-Mitte, Gelsenkirchen, Nordrhein-Westfalen, 45881, Deutschland"
Münster,Stadt Münster,Gesamtschule,100209,"Münster, GE Münster - West",4,51.9543838,7.5294497,"Stellmacherweg, 24-26, Tilbecker Straße, Roxel, Münster-West, Münster, Nordrhein-Westfalen, 48161, Deutschland"
Münster,Stadt Münster,Gesamtschule,196940,"Münster, GE Jüdefelderstraße",3,51.9640905,7.6196696,"Jüdefelderstraße, 10, Jüdefelderstraße, Überwasser, Altstadt, Münster-Mitte, Münster, Nordrhein-Westfalen, 48143, Deutschland"
Münster,Stadt Münster,Gesamtschule,199886,"Münster, GE Mathilde-Anneke",3,51.9563478,7.6526961,"Mathilde-Anneke-Schule, Andreas-Hofer-Straße, Herz-Jesu, Mitte-Nordost, Münster-Mitte, Münster, Nordrhein-Westfalen, 48145, Deutschland"
Münster,Stadt Münster,Gymnasium,167836,"Münster, Gym Annette-von-Droste-Hülshoff",2,51.9961423,7.5594803,"Annette von Droste Hülshoff Schule, 1, Kirmstraße, Sebastianstraße, Nienberge, Münster-West, Münster, Nordrhein-Westfalen, 48161, Deutschland"
